{"type": "FeatureCollection", "features": [{"type": "Feature", "properties": {"cell_id": "8743a1048ffffff"}, "geometry": {"type": "Point", "coordinates": [55.058335, 25.005316]}}, {"type": "Feature", "properties": {"cell_id": "8743a1049ffffff"}, "geometry": {"type": "Point", "coordinates": [55.076709, 25.016835]}}, {"type": "Feature", "properties": {"cell_id": "8743a1200ffffff"}, "geometry": {"type": "Point", "coordinates": [55.283108, 25.010283]}}, {"type": "Feature", "properties": {"cell_id": "8743a1201ffffff"}, "geometry": {"type": "Point", "coordinates": [55.301551, 25.021784]}}, {"type": "Feature", "properties": {"cell_id": "8743a1203ffffff"}, "geometry": {"type": "Point", "coordinates": [55.305235, 25.001498]}}, {"type": "Feature", "properties": {"cell_id": "8743a1204ffffff"}, "geometry": {"type": "Point", "coordinates": [55.260979, 25.019065]}}, {"type": "Feature", "properties": {"cell_id": "8743a1205ffffff"}, "geometry": {"type": "Point", "coordinates": [55.279418, 25.03057]}}, {"type": "Feature", "properties": {"cell_id": "8743a1208ffffff"}, "geometry": {"type": "Point", "coordinates": [55.342138, 25.024493]}}, {"type": "Feature", "properties": {"cell_id": "8743a1209ffffff"}, "geometry": {"type": "Point", "coordinates": [55.360603, 25.035992]}}, {"type": "Feature", "properties": {"cell_id": "8743a120affffff"}, "geometry": {"type": "Point", "coordinates": [55.345811, 25.004203]}}, {"type": "Feature", "properties": {"cell_id": "8743a120bffffff"}, "geometry": {"type": "Point", "coordinates": [55.364271, 25.015697]}}, {"type": "Feature", "properties": {"cell_id": "8743a120cffffff"}, "geometry": {"type": "Point", "coordinates": [55.320003, 25.033286]}}, {"type": "Feature", "properties": {"cell_id": "8743a120dffffff"}, "geometry": {"type": "Point", "coordinates": [55.338463, 25.044789]}}, {"type": "Feature", "properties": {"cell_id": "8743a120effffff"}, "geometry": {"type": "Point", "coordinates": [55.323682, 25.012995]}}, {"type": "Feature", "properties": {"cell_id": "8743a1220ffffff"}, "geometry": {"type": "Point", "coordinates": [55.235142, 25.04813]}}, {"type": "Feature", "properties": {"cell_id": "8743a1221ffffff"}, "geometry": {"type": "Point", "coordinates": [55.253581, 25.059643]}}, {"type": "Feature", "properties": {"cell_id": "8743a1222ffffff"}, "geometry": {"type": "Point", "coordinates": [55.238847, 25.027843]}}, {"type": "Feature", "properties": {"cell_id": "8743a1223ffffff"}, "geometry": {"type": "Point", "coordinates": [55.257281, 25.039351]}}, {"type": "Feature", "properties": {"cell_id": "8743a1224ffffff"}, "geometry": {"type": "Point", "coordinates": [55.213001, 25.056904]}}, {"type": "Feature", "properties": {"cell_id": "8743a1225ffffff"}, "geometry": {"type": "Point", "coordinates": [55.231436, 25.068422]}}, {"type": "Feature", "properties": {"cell_id": "8743a1226ffffff"}, "geometry": {"type": "Point", "coordinates": [55.216712, 25.036617]}}, {"type": "Feature", "properties": {"cell_id": "8743a1228ffffff"}, "geometry": {"type": "Point", "coordinates": [55.294177, 25.062371]}}, {"type": "Feature", "properties": {"cell_id": "8743a1229ffffff"}, "geometry": {"type": "Point", "coordinates": [55.312638, 25.073883]}}, {"type": "Feature", "properties": {"cell_id": "8743a122affffff"}, "geometry": {"type": "Point", "coordinates": [55.297865, 25.042075]}}, {"type": "Feature", "properties": {"cell_id": "8743a122bffffff"}, "geometry": {"type": "Point", "coordinates": [55.316321, 25.053582]}}, {"type": "Feature", "properties": {"cell_id": "8743a122cffffff"}, "geometry": {"type": "Point", "coordinates": [55.272029, 25.071157]}}, {"type": "Feature", "properties": {"cell_id": "8743a122dffffff"}, "geometry": {"type": "Point", "coordinates": [55.290486, 25.082673]}}, {"type": "Feature", "properties": {"cell_id": "8743a122effffff"}, "geometry": {"type": "Point", "coordinates": [55.275725, 25.050861]}}, {"type": "Feature", "properties": {"cell_id": "8743a1231ffffff"}, "geometry": {"type": "Point", "coordinates": [55.242549, 25.007561]}}, {"type": "Feature", "properties": {"cell_id": "8743a1234ffffff"}, "geometry": {"type": "Point", "coordinates": [55.202004, 25.004829]}}, {"type": "Feature", "properties": {"cell_id": "8743a1235ffffff"}, "geometry": {"type": "Point", "coordinates": [55.220421, 25.016335]}}, {"type": "Feature", "properties": {"cell_id": "8743a1240ffffff"}, "geometry": {"type": "Point", "coordinates": [55.412393, 25.090811]}}, {"type": "Feature", "properties": {"cell_id": "8743a1241ffffff"}, "geometry": {"type": "Point", "coordinates": [55.430898, 25.102319]}}, {"type": "Feature", "properties": {"cell_id": "8743a1242ffffff"}, "geometry": {"type": "Point", "coordinates": [55.416049, 25.070496]}}, {"type": "Feature", "properties": {"cell_id": "8743a1243ffffff"}, "geometry": {"type": "Point", "coordinates": [55.434549, 25.081999]}}, {"type": "Feature", "properties": {"cell_id": "8743a1244ffffff"}, "geometry": {"type": "Point", "coordinates": [55.390235, 25.099619]}}, {"type": "Feature", "properties": {"cell_id": "8743a1245ffffff"}, "geometry": {"type": "Point", "coordinates": [55.408735, 25.111131]}}, {"type": "Feature", "properties": {"cell_id": "8743a1246ffffff"}, "geometry": {"type": "Point", "coordinates": [55.393898, 25.079304]}}, {"type": "Feature", "properties": {"cell_id": "8743a124cffffff"}, "geometry": {"type": "Point", "coordinates": [55.449411, 25.113828]}}, {"type": "Feature", "properties": {"cell_id": "8743a1250ffffff"}, "geometry": {"type": "Point", "coordinates": [55.401217, 25.038689]}}, {"type": "Feature", "properties": {"cell_id": "8743a1251ffffff"}, "geometry": {"type": "Point", "coordinates": [55.419704, 25.050186]}}, {"type": "Feature", "properties": {"cell_id": "8743a1252ffffff"}, "geometry": {"type": "Point", "coordinates": [55.404874, 25.018389]}}, {"type": "Feature", "properties": {"cell_id": "8743a1253ffffff"}, "geometry": {"type": "Point", "coordinates": [55.423355, 25.029881]}}, {"type": "Feature", "properties": {"cell_id": "8743a1254ffffff"}, "geometry": {"type": "Point", "coordinates": [55.379076, 25.047492]}}, {"type": "Feature", "properties": {"cell_id": "8743a1255ffffff"}, "geometry": {"type": "Point", "coordinates": [55.397558, 25.058994]}}, {"type": "Feature", "properties": {"cell_id": "8743a1256ffffff"}, "geometry": {"type": "Point", "coordinates": [55.38274, 25.027192]}}, {"type": "Feature", "properties": {"cell_id": "8743a125cffffff"}, "geometry": {"type": "Point", "coordinates": [55.438199, 25.061684]}}, {"type": "Feature", "properties": {"cell_id": "8743a125effffff"}, "geometry": {"type": "Point", "coordinates": [55.441846, 25.041375]}}, {"type": "Feature", "properties": {"cell_id": "8743a1260ffffff"}, "geometry": {"type": "Point", "coordinates": [55.364401, 25.128745]}}, {"type": "Feature", "properties": {"cell_id": "8743a1261ffffff"}, "geometry": {"type": "Point", "coordinates": [55.382902, 25.140266]}}, {"type": "Feature", "properties": {"cell_id": "8743a1262ffffff"}, "geometry": {"type": "Point", "coordinates": [55.368073, 25.108424]}}, {"type": "Feature", "properties": {"cell_id": "8743a1263ffffff"}, "geometry": {"type": "Point", "coordinates": [55.386569, 25.11994]}}, {"type": "Feature", "properties": {"cell_id": "8743a1264ffffff"}, "geometry": {"type": "Point", "coordinates": [55.34223, 25.137547]}}, {"type": "Feature", "properties": {"cell_id": "8743a1265ffffff"}, "geometry": {"type": "Point", "coordinates": [55.360727, 25.149072]}}, {"type": "Feature", "properties": {"cell_id": "8743a1266ffffff"}, "geometry": {"type": "Point", "coordinates": [55.345909, 25.117226]}}, {"type": "Feature", "properties": {"cell_id": "8743a1268ffffff"}, "geometry": {"type": "Point", "coordinates": [55.423588, 25.142974]}}, {"type": "Feature", "properties": {"cell_id": "8743a1269ffffff"}, "geometry": {"type": "Point", "coordinates": [55.44211, 25.154493]}}, {"type": "Feature", "properties": {"cell_id": "8743a126affffff"}, "geometry": {"type": "Point", "coordinates": [55.427244, 25.122644]}}, {"type": "Feature", "properties": {"cell_id": "8743a126bffffff"}, "geometry": {"type": "Point", "coordinates": [55.445762, 25.134158]}}, {"type": "Feature", "properties": {"cell_id": "8743a126cffffff"}, "geometry": {"type": "Point", "coordinates": [55.401411, 25.151787]}}, {"type": "Feature", "properties": {"cell_id": "8743a126dffffff"}, "geometry": {"type": "Point", "coordinates": [55.41993, 25.16331]}}, {"type": "Feature", "properties": {"cell_id": "8743a126effffff"}, "geometry": {"type": "Point", "coordinates": [55.405074, 25.131457]}}, {"type": "Feature", "properties": {"cell_id": "8743a1270ffffff"}, "geometry": {"type": "Point", "coordinates": [55.35326, 25.076599]}}, {"type": "Feature", "properties": {"cell_id": "8743a1271ffffff"}, "geometry": {"type": "Point", "coordinates": [55.371743, 25.088108]}}, {"type": "Feature", "properties": {"cell_id": "8743a1272ffffff"}, "geometry": {"type": "Point", "coordinates": [55.356933, 25.056293]}}, {"type": "Feature", "properties": {"cell_id": "8743a1273ffffff"}, "geometry": {"type": "Point", "coordinates": [55.375411, 25.067798]}}, {"type": "Feature", "properties": {"cell_id": "8743a1274ffffff"}, "geometry": {"type": "Point", "coordinates": [55.331107, 25.085396]}}, {"type": "Feature", "properties": {"cell_id": "8743a1275ffffff"}, "geometry": {"type": "Point", "coordinates": [55.349586, 25.096909]}}, {"type": "Feature", "properties": {"cell_id": "8743a1276ffffff"}, "geometry": {"type": "Point", "coordinates": [55.334787, 25.06509]}}, {"type": "Feature", "properties": {"cell_id": "8743a12e5ffffff"}, "geometry": {"type": "Point", "coordinates": [55.386401, 25.006898]}}, {"type": "Feature", "properties": {"cell_id": "8743a12e8ffffff"}, "geometry": {"type": "Point", "coordinates": [55.449134, 25.000772]}}, {"type": "Feature", "properties": {"cell_id": "8743a12ecffffff"}, "geometry": {"type": "Point", "coordinates": [55.427005, 25.009582]}}, {"type": "Feature", "properties": {"cell_id": "8743a12edffffff"}, "geometry": {"type": "Point", "coordinates": [55.445491, 25.02107]}}, {"type": "Feature", "properties": {"cell_id": "8743a1300ffffff"}, "geometry": {"type": "Point", "coordinates": [55.128147, 25.07168]}}, {"type": "Feature", "properties": {"cell_id": "8743a1301ffffff"}, "geometry": {"type": "Point", "coordinates": [55.14656, 25.083208]}}, {"type": "Feature", "properties": {"cell_id": "8743a1302ffffff"}, "geometry": {"type": "Point", "coordinates": [55.131883, 25.051397]}}, {"type": "Feature", "properties": {"cell_id": "8743a1303ffffff"}, "geometry": {"type": "Point", "coordinates": [55.150292, 25.06292]}}, {"type": "Feature", "properties": {"cell_id": "8743a1305ffffff"}, "geometry": {"type": "Point", "coordinates": [55.124409, 25.091968]}}, {"type": "Feature", "properties": {"cell_id": "8743a1308ffffff"}, "geometry": {"type": "Point", "coordinates": [55.187136, 25.085968]}}, {"type": "Feature", "properties": {"cell_id": "8743a1309ffffff"}, "geometry": {"type": "Point", "coordinates": [55.205572, 25.097494]}}, {"type": "Feature", "properties": {"cell_id": "8743a130affffff"}, "geometry": {"type": "Point", "coordinates": [55.190857, 25.065676]}}, {"type": "Feature", "properties": {"cell_id": "8743a130bffffff"}, "geometry": {"type": "Point", "coordinates": [55.209287, 25.077197]}}, {"type": "Feature", "properties": {"cell_id": "8743a130cffffff"}, "geometry": {"type": "Point", "coordinates": [55.164983, 25.094737]}}, {"type": "Feature", "properties": {"cell_id": "8743a130dffffff"}, "geometry": {"type": "Point", "coordinates": [55.183414, 25.106266]}}, {"type": "Feature", "properties": {"cell_id": "8743a130effffff"}, "geometry": {"type": "Point", "coordinates": [55.16871, 25.074443]}}, {"type": "Feature", "properties": {"cell_id": "8743a1310ffffff"}, "geometry": {"type": "Point", "coordinates": [55.117221, 25.019602]}}, {"type": "Feature", "properties": {"cell_id": "8743a1311ffffff"}, "geometry": {"type": "Point", "coordinates": [55.135617, 25.031119]}}, {"type": "Feature", "properties": {"cell_id": "8743a1313ffffff"}, "geometry": {"type": "Point", "coordinates": [55.139349, 25.010846]}}, {"type": "Feature", "properties": {"cell_id": "8743a1314ffffff"}, "geometry": {"type": "Point", "coordinates": [55.095091, 25.028354]}}, {"type": "Feature", "properties": {"cell_id": "8743a1315ffffff"}, "geometry": {"type": "Point", "coordinates": [55.113483, 25.039875]}}, {"type": "Feature", "properties": {"cell_id": "8743a1316ffffff"}, "geometry": {"type": "Point", "coordinates": [55.098834, 25.008086]}}, {"type": "Feature", "properties": {"cell_id": "8743a1318ffffff"}, "geometry": {"type": "Point", "coordinates": [55.176157, 25.033873]}}, {"type": "Feature", "properties": {"cell_id": "8743a1319ffffff"}, "geometry": {"type": "Point", "coordinates": [55.194575, 25.045388]}}, {"type": "Feature", "properties": {"cell_id": "8743a131affffff"}, "geometry": {"type": "Point", "coordinates": [55.179877, 25.013596]}}, {"type": "Feature", "properties": {"cell_id": "8743a131bffffff"}, "geometry": {"type": "Point", "coordinates": [55.19829, 25.025106]}}, {"type": "Feature", "properties": {"cell_id": "8743a131cffffff"}, "geometry": {"type": "Point", "coordinates": [55.154021, 25.042637]}}, {"type": "Feature", "properties": {"cell_id": "8743a131dffffff"}, "geometry": {"type": "Point", "coordinates": [55.172435, 25.054156]}}, {"type": "Feature", "properties": {"cell_id": "8743a131effffff"}, "geometry": {"type": "Point", "coordinates": [55.157748, 25.022359]}}, {"type": "Feature", "properties": {"cell_id": "8743a1321ffffff"}, "geometry": {"type": "Point", "coordinates": [55.098507, 25.12102]}}, {"type": "Feature", "properties": {"cell_id": "8743a1323ffffff"}, "geometry": {"type": "Point", "coordinates": [55.102254, 25.100726]}}, {"type": "Feature", "properties": {"cell_id": "8743a1328ffffff"}, "geometry": {"type": "Point", "coordinates": [55.139091, 25.1238]}}, {"type": "Feature", "properties": {"cell_id": "8743a1329ffffff"}, "geometry": {"type": "Point", "coordinates": [55.157522, 25.135338]}}, {"type": "Feature", "properties": {"cell_id": "8743a132affffff"}, "geometry": {"type": "Point", "coordinates": [55.142827, 25.103501]}}, {"type": "Feature", "properties": {"cell_id": "8743a132bffffff"}, "geometry": {"type": "Point", "coordinates": [55.161254, 25.115035]}}, {"type": "Feature", "properties": {"cell_id": "8743a132cffffff"}, "geometry": {"type": "Point", "coordinates": [55.116925, 25.132561]}}, {"type": "Feature", "properties": {"cell_id": "8743a132dffffff"}, "geometry": {"type": "Point", "coordinates": [55.135353, 25.144104]}}, {"type": "Feature", "properties": {"cell_id": "8743a132effffff"}, "geometry": {"type": "Point", "coordinates": [55.120668, 25.112262]}}, {"type": "Feature", "properties": {"cell_id": "8743a1340ffffff"}, "geometry": {"type": "Point", "coordinates": [55.257227, 25.152396]}}, {"type": "Feature", "properties": {"cell_id": "8743a1341ffffff"}, "geometry": {"type": "Point", "coordinates": [55.275702, 25.163931]}}, {"type": "Feature", "properties": {"cell_id": "8743a1342ffffff"}, "geometry": {"type": "Point", "coordinates": [55.260931, 25.132079]}}, {"type": "Feature", "properties": {"cell_id": "8743a1343ffffff"}, "geometry": {"type": "Point", "coordinates": [55.279401, 25.143609]}}, {"type": "Feature", "properties": {"cell_id": "8743a1344ffffff"}, "geometry": {"type": "Point", "coordinates": [55.23505, 25.16118]}}, {"type": "Feature", "properties": {"cell_id": "8743a1345ffffff"}, "geometry": {"type": "Point", "coordinates": [55.253521, 25.172719]}}, {"type": "Feature", "properties": {"cell_id": "8743a1346ffffff"}, "geometry": {"type": "Point", "coordinates": [55.23876, 25.140862]}}, {"type": "Feature", "properties": {"cell_id": "8743a1348ffffff"}, "geometry": {"type": "Point", "coordinates": [55.316369, 25.166672]}}, {"type": "Feature", "properties": {"cell_id": "8743a1349ffffff"}, "geometry": {"type": "Point", "coordinates": [55.334866, 25.178206]}}, {"type": "Feature", "properties": {"cell_id": "8743a134affffff"}, "geometry": {"type": "Point", "coordinates": [55.320057, 25.146345]}}, {"type": "Feature", "properties": {"cell_id": "8743a134bffffff"}, "geometry": {"type": "Point", "coordinates": [55.338549, 25.157874]}}, {"type": "Feature", "properties": {"cell_id": "8743a134cffffff"}, "geometry": {"type": "Point", "coordinates": [55.294186, 25.175468]}}, {"type": "Feature", "properties": {"cell_id": "8743a134dffffff"}, "geometry": {"type": "Point", "coordinates": [55.312679, 25.187005]}}, {"type": "Feature", "properties": {"cell_id": "8743a134effffff"}, "geometry": {"type": "Point", "coordinates": [55.297881, 25.15514]}}, {"type": "Feature", "properties": {"cell_id": "8743a1350ffffff"}, "geometry": {"type": "Point", "coordinates": [55.246175, 25.100242]}}, {"type": "Feature", "properties": {"cell_id": "8743a1351ffffff"}, "geometry": {"type": "Point", "coordinates": [55.264633, 25.111766]}}, {"type": "Feature", "properties": {"cell_id": "8743a1352ffffff"}, "geometry": {"type": "Point", "coordinates": [55.249879, 25.07994]}}, {"type": "Feature", "properties": {"cell_id": "8743a1353ffffff"}, "geometry": {"type": "Point", "coordinates": [55.268332, 25.091459]}}, {"type": "Feature", "properties": {"cell_id": "8743a1354ffffff"}, "geometry": {"type": "Point", "coordinates": [55.224016, 25.109022]}}, {"type": "Feature", "properties": {"cell_id": "8743a1355ffffff"}, "geometry": {"type": "Point", "coordinates": [55.242469, 25.12055]}}, {"type": "Feature", "properties": {"cell_id": "8743a1356ffffff"}, "geometry": {"type": "Point", "coordinates": [55.227727, 25.088719]}}, {"type": "Feature", "properties": {"cell_id": "8743a1358ffffff"}, "geometry": {"type": "Point", "coordinates": [55.305264, 25.114501]}}, {"type": "Feature", "properties": {"cell_id": "8743a1359ffffff"}, "geometry": {"type": "Point", "coordinates": [55.323743, 25.126024]}}, {"type": "Feature", "properties": {"cell_id": "8743a135affffff"}, "geometry": {"type": "Point", "coordinates": [55.308952, 25.09419]}}, {"type": "Feature", "properties": {"cell_id": "8743a135bffffff"}, "geometry": {"type": "Point", "coordinates": [55.327426, 25.105707]}}, {"type": "Feature", "properties": {"cell_id": "8743a135cffffff"}, "geometry": {"type": "Point", "coordinates": [55.283098, 25.123292]}}, {"type": "Feature", "properties": {"cell_id": "8743a135dffffff"}, "geometry": {"type": "Point", "coordinates": [55.301573, 25.134818]}}, {"type": "Feature", "properties": {"cell_id": "8743a135effffff"}, "geometry": {"type": "Point", "coordinates": [55.286793, 25.10298]}}, {"type": "Feature", "properties": {"cell_id": "8743a1362ffffff"}, "geometry": {"type": "Point", "coordinates": [55.21287, 25.169961]}}, {"type": "Feature", "properties": {"cell_id": "8743a1363ffffff"}, "geometry": {"type": "Point", "coordinates": [55.231337, 25.181503]}}, {"type": "Feature", "properties": {"cell_id": "8743a1368ffffff"}, "geometry": {"type": "Point", "coordinates": [55.268297, 25.204592]}}, {"type": "Feature", "properties": {"cell_id": "8743a1369ffffff"}, "geometry": {"type": "Point", "coordinates": [55.28679, 25.216138]}}, {"type": "Feature", "properties": {"cell_id": "8743a136affffff"}, "geometry": {"type": "Point", "coordinates": [55.272, 25.184259]}}, {"type": "Feature", "properties": {"cell_id": "8743a136bffffff"}, "geometry": {"type": "Point", "coordinates": [55.290489, 25.1958]}}, {"type": "Feature", "properties": {"cell_id": "8743a136cffffff"}, "geometry": {"type": "Point", "coordinates": [55.246102, 25.213381]}}, {"type": "Feature", "properties": {"cell_id": "8743a136dffffff"}, "geometry": {"type": "Point", "coordinates": [55.264591, 25.22493]}}, {"type": "Feature", "properties": {"cell_id": "8743a136effffff"}, "geometry": {"type": "Point", "coordinates": [55.249812, 25.193047]}}, {"type": "Feature", "properties": {"cell_id": "8743a1370ffffff"}, "geometry": {"type": "Point", "coordinates": [55.198134, 25.138105]}}, {"type": "Feature", "properties": {"cell_id": "8743a1371ffffff"}, "geometry": {"type": "Point", "coordinates": [55.216587, 25.149642]}}, {"type": "Feature", "properties": {"cell_id": "8743a1372ffffff"}, "geometry": {"type": "Point", "coordinates": [55.201854, 25.117797]}}, {"type": "Feature", "properties": {"cell_id": "8743a1373ffffff"}, "geometry": {"type": "Point", "coordinates": [55.220303, 25.129329]}}, {"type": "Feature", "properties": {"cell_id": "8743a1374ffffff"}, "geometry": {"type": "Point", "coordinates": [55.175963, 25.146878]}}, {"type": "Feature", "properties": {"cell_id": "8743a1375ffffff"}, "geometry": {"type": "Point", "coordinates": [55.194412, 25.158419]}}, {"type": "Feature", "properties": {"cell_id": "8743a1376ffffff"}, "geometry": {"type": "Point", "coordinates": [55.179689, 25.12657]}}, {"type": "Feature", "properties": {"cell_id": "8743a13adffffff"}, "geometry": {"type": "Point", "coordinates": [55.161473, 25.002086]}}, {"type": "Feature", "properties": {"cell_id": "8743a1ad2ffffff"}, "geometry": {"type": "Point", "coordinates": [55.094757, 25.141319]}}, {"type": "Feature", "properties": {"cell_id": "8743a1ad3ffffff"}, "geometry": {"type": "Point", "coordinates": [55.11318, 25.152865]}}, {"type": "Feature", "properties": {"cell_id": "8743a1adaffffff"}, "geometry": {"type": "Point", "coordinates": [55.153789, 25.155647]}}, {"type": "Feature", "properties": {"cell_id": "8743acc80ffffff"}, "geometry": {"type": "Point", "coordinates": [55.386738, 25.233163]}}, {"type": "Feature", "properties": {"cell_id": "8743acc81ffffff"}, "geometry": {"type": "Point", "coordinates": [55.405275, 25.244706]}}, {"type": "Feature", "properties": {"cell_id": "8743acc82ffffff"}, "geometry": {"type": "Point", "coordinates": [55.39041, 25.212812]}}, {"type": "Feature", "properties": {"cell_id": "8743acc83ffffff"}, "geometry": {"type": "Point", "coordinates": [55.408942, 25.224349]}}, {"type": "Feature", "properties": {"cell_id": "8743acc84ffffff"}, "geometry": {"type": "Point", "coordinates": [55.364532, 25.241974]}}, {"type": "Feature", "properties": {"cell_id": "8743acc85ffffff"}, "geometry": {"type": "Point", "coordinates": [55.383065, 25.25352]}}, {"type": "Feature", "properties": {"cell_id": "8743acc86ffffff"}, "geometry": {"type": "Point", "coordinates": [55.36821, 25.221622]}}, {"type": "Feature", "properties": {"cell_id": "8743acc88ffffff"}, "geometry": {"type": "Point", "coordinates": [55.446033, 25.247426]}}, {"type": "Feature", "properties": {"cell_id": "8743acc8affffff"}, "geometry": {"type": "Point", "coordinates": [55.449689, 25.227065]}}, {"type": "Feature", "properties": {"cell_id": "8743acc8cffffff"}, "geometry": {"type": "Point", "coordinates": [55.423821, 25.256249]}}, {"type": "Feature", "properties": {"cell_id": "8743acc8dffffff"}, "geometry": {"type": "Point", "coordinates": [55.442376, 25.267793]}}, {"type": "Feature", "properties": {"cell_id": "8743acc8effffff"}, "geometry": {"type": "Point", "coordinates": [55.427483, 25.235887]}}, {"type": "Feature", "properties": {"cell_id": "8743acc90ffffff"}, "geometry": {"type": "Point", "coordinates": [55.37556, 25.180934]}}, {"type": "Feature", "properties": {"cell_id": "8743acc91ffffff"}, "geometry": {"type": "Point", "coordinates": [55.394079, 25.192465]}}, {"type": "Feature", "properties": {"cell_id": "8743acc92ffffff"}, "geometry": {"type": "Point", "coordinates": [55.379232, 25.160597]}}, {"type": "Feature", "properties": {"cell_id": "8743acc93ffffff"}, "geometry": {"type": "Point", "coordinates": [55.397746, 25.172124]}}, {"type": "Feature", "properties": {"cell_id": "8743acc94ffffff"}, "geometry": {"type": "Point", "coordinates": [55.353372, 25.18974]}}, {"type": "Feature", "properties": {"cell_id": "8743acc95ffffff"}, "geometry": {"type": "Point", "coordinates": [55.371887, 25.201275]}}, {"type": "Feature", "properties": {"cell_id": "8743acc96ffffff"}, "geometry": {"type": "Point", "coordinates": [55.35705, 25.169403]}}, {"type": "Feature", "properties": {"cell_id": "8743acc98ffffff"}, "geometry": {"type": "Point", "coordinates": [55.434801, 25.19518]}}, {"type": "Feature", "properties": {"cell_id": "8743acc9affffff"}, "geometry": {"type": "Point", "coordinates": [55.438457, 25.174834]}}, {"type": "Feature", "properties": {"cell_id": "8743acc9cffffff"}, "geometry": {"type": "Point", "coordinates": [55.412607, 25.203997]}}, {"type": "Feature", "properties": {"cell_id": "8743acc9dffffff"}, "geometry": {"type": "Point", "coordinates": [55.431143, 25.215531]}}, {"type": "Feature", "properties": {"cell_id": "8743acc9effffff"}, "geometry": {"type": "Point", "coordinates": [55.416269, 25.183651]}}, {"type": "Feature", "properties": {"cell_id": "8743acca0ffffff"}, "geometry": {"type": "Point", "coordinates": [55.338635, 25.27114]}}, {"type": "Feature", "properties": {"cell_id": "8743acca1ffffff"}, "geometry": {"type": "Point", "coordinates": [55.357169, 25.282695]}}, {"type": "Feature", "properties": {"cell_id": "8743acca2ffffff"}, "geometry": {"type": "Point", "coordinates": [55.342323, 25.250782]}}, {"type": "Feature", "properties": {"cell_id": "8743acca3ffffff"}, "geometry": {"type": "Point", "coordinates": [55.360851, 25.262332]}}, {"type": "Feature", "properties": {"cell_id": "8743acca4ffffff"}, "geometry": {"type": "Point", "coordinates": [55.316417, 25.279944]}}, {"type": "Feature", "properties": {"cell_id": "8743acca5ffffff"}, "geometry": {"type": "Point", "coordinates": [55.334946, 25.291503]}}, {"type": "Feature", "properties": {"cell_id": "8743acca6ffffff"}, "geometry": {"type": "Point", "coordinates": [55.320111, 25.259586]}}, {"type": "Feature", "properties": {"cell_id": "8743acca8ffffff"}, "geometry": {"type": "Point", "coordinates": [55.397935, 25.285435]}}, {"type": "Feature", "properties": {"cell_id": "8743acca9ffffff"}, "geometry": {"type": "Point", "coordinates": [55.41649, 25.296988]}}, {"type": "Feature", "properties": {"cell_id": "8743accaaffffff"}, "geometry": {"type": "Point", "coordinates": [55.401606, 25.265068]}}, {"type": "Feature", "properties": {"cell_id": "8743accabffffff"}, "geometry": {"type": "Point", "coordinates": [55.420157, 25.276616]}}, {"type": "Feature", "properties": {"cell_id": "8743accacffffff"}, "geometry": {"type": "Point", "coordinates": [55.375711, 25.29425]}}, {"type": "Feature", "properties": {"cell_id": "8743accaeffffff"}, "geometry": {"type": "Point", "coordinates": [55.379389, 25.273883]}}, {"type": "Feature", "properties": {"cell_id": "8743accb0ffffff"}, "geometry": {"type": "Point", "coordinates": [55.327493, 25.218885]}}, {"type": "Feature", "properties": {"cell_id": "8743accb1ffffff"}, "geometry": {"type": "Point", "coordinates": [55.346008, 25.230429]}}, {"type": "Feature", "properties": {"cell_id": "8743accb2ffffff"}, "geometry": {"type": "Point", "coordinates": [55.331181, 25.198543]}}, {"type": "Feature", "properties": {"cell_id": "8743accb3ffffff"}, "geometry": {"type": "Point", "coordinates": [55.349691, 25.210082]}}, {"type": "Feature", "properties": {"cell_id": "8743accb4ffffff"}, "geometry": {"type": "Point", "coordinates": [55.305292, 25.227685]}}, {"type": "Feature", "properties": {"cell_id": "8743accb5ffffff"}, "geometry": {"type": "Point", "coordinates": [55.323803, 25.239233]}}, {"type": "Feature", "properties": {"cell_id": "8743accb6ffffff"}, "geometry": {"type": "Point", "coordinates": [55.308987, 25.207342]}}, {"type": "Feature", "properties": {"cell_id": "8743accf6ffffff"}, "geometry": {"type": "Point", "coordinates": [55.438716, 25.288165]}}, {"type": "Feature", "properties": {"cell_id": "8743acd98ffffff"}, "geometry": {"type": "Point", "coordinates": [55.279385, 25.25683]}}, {"type": "Feature", "properties": {"cell_id": "8743acd99ffffff"}, "geometry": {"type": "Point", "coordinates": [55.297896, 25.268386]}}, {"type": "Feature", "properties": {"cell_id": "8743acd9affffff"}, "geometry": {"type": "Point", "coordinates": [55.283089, 25.236481]}}, {"type": "Feature", "properties": {"cell_id": "8743acd9bffffff"}, "geometry": {"type": "Point", "coordinates": [55.301595, 25.248033]}}], "_version": 5}