{"type": "FeatureCollection", "features": [{"type": "Feature", "properties": {"cell_id": "c_0"}, "geometry": {"type": "Point", "coordinates": [55.069848, 25.0]}}, {"type": "Feature", "properties": {"cell_id": "c_1"}, "geometry": {"type": "Point", "coordinates": [55.089696, 25.0]}}, {"type": "Feature", "properties": {"cell_id": "c_2"}, "geometry": {"type": "Point", "coordinates": [55.109543, 25.0]}}, {"type": "Feature", "properties": {"cell_id": "c_3"}, "geometry": {"type": "Point", "coordinates": [55.129391, 25.0]}}, {"type": "Feature", "properties": {"cell_id": "c_4"}, "geometry": {"type": "Point", "coordinates": [55.149239, 25.0]}}, {"type": "Feature", "properties": {"cell_id": "c_5"}, "geometry": {"type": "Point", "coordinates": [55.169087, 25.0]}}, {"type": "Feature", "properties": {"cell_id": "c_6"}, "geometry": {"type": "Point", "coordinates": [55.188935, 25.0]}}, {"type": "Feature", "properties": {"cell_id": "c_7"}, "geometry": {"type": "Point", "coordinates": [55.208783, 25.0]}}, {"type": "Feature", "properties": {"cell_id": "c_8"}, "geometry": {"type": "Point", "coordinates": [55.22863, 25.0]}}, {"type": "Feature", "properties": {"cell_id": "c_9"}, "geometry": {"type": "Point", "coordinates": [55.248478, 25.0]}}, {"type": "Feature", "properties": {"cell_id": "c_10"}, "geometry": {"type": "Point", "coordinates": [55.268326, 25.0]}}, {"type": "Feature", "properties": {"cell_id": "c_11"}, "geometry": {"type": "Point", "coordinates": [55.288174, 25.0]}}, {"type": "Feature", "properties": {"cell_id": "c_12"}, "geometry": {"type": "Point", "coordinates": [55.308022, 25.0]}}, {"type": "Feature", "properties": {"cell_id": "c_13"}, "geometry": {"type": "Point", "coordinates": [55.32787, 25.0]}}, {"type": "Feature", "properties": {"cell_id": "c_14"}, "geometry": {"type": "Point", "coordinates": [55.347717, 25.0]}}, {"type": "Feature", "properties": {"cell_id": "c_15"}, "geometry": {"type": "Point", "coordinates": [55.367565, 25.0]}}, {"type": "Feature", "properties": {"cell_id": "c_16"}, "geometry": {"type": "Point", "coordinates": [55.387413, 25.0]}}, {"type": "Feature", "properties": {"cell_id": "c_17"}, "geometry": {"type": "Point", "coordinates": [55.407261, 25.0]}}, {"type": "Feature", "properties": {"cell_id": "c_18"}, "geometry": {"type": "Point", "coordinates": [55.427109, 25.0]}}, {"type": "Feature", "properties": {"cell_id": "c_19"}, "geometry": {"type": "Point", "coordinates": [55.446957, 25.0]}}, {"type": "Feature", "properties": {"cell_id": "c_20"}, "geometry": {"type": "Point", "coordinates": [55.089696, 25.017966]}}, {"type": "Feature", "properties": {"cell_id": "c_21"}, "geometry": {"type": "Point", "coordinates": [55.109543, 25.017966]}}, {"type": "Feature", "properties": {"cell_id": "c_22"}, "geometry": {"type": "Point", "coordinates": [55.129391, 25.017966]}}, {"type": "Feature", "properties": {"cell_id": "c_23"}, "geometry": {"type": "Point", "coordinates": [55.149239, 25.017966]}}, {"type": "Feature", "properties": {"cell_id": "c_24"}, "geometry": {"type": "Point", "coordinates": [55.169087, 25.017966]}}, {"type": "Feature", "properties": {"cell_id": "c_25"}, "geometry": {"type": "Point", "coordinates": [55.188935, 25.017966]}}, {"type": "Feature", "properties": {"cell_id": "c_26"}, "geometry": {"type": "Point", "coordinates": [55.208783, 25.017966]}}, {"type": "Feature", "properties": {"cell_id": "c_27"}, "geometry": {"type": "Point", "coordinates": [55.22863, 25.017966]}}, {"type": "Feature", "properties": {"cell_id": "c_28"}, "geometry": {"type": "Point", "coordinates": [55.248478, 25.017966]}}, {"type": "Feature", "properties": {"cell_id": "c_29"}, "geometry": {"type": "Point", "coordinates": [55.268326, 25.017966]}}, {"type": "Feature", "properties": {"cell_id": "c_30"}, "geometry": {"type": "Point", "coordinates": [55.288174, 25.017966]}}, {"type": "Feature", "properties": {"cell_id": "c_31"}, "geometry": {"type": "Point", "coordinates": [55.308022, 25.017966]}}, {"type": "Feature", "properties": {"cell_id": "c_32"}, "geometry": {"type": "Point", "coordinates": [55.32787, 25.017966]}}, {"type": "Feature", "properties": {"cell_id": "c_33"}, "geometry": {"type": "Point", "coordinates": [55.347717, 25.017966]}}, {"type": "Feature", "properties": {"cell_id": "c_34"}, "geometry": {"type": "Point", "coordinates": [55.367565, 25.017966]}}, {"type": "Feature", "properties": {"cell_id": "c_35"}, "geometry": {"type": "Point", "coordinates": [55.387413, 25.017966]}}, {"type": "Feature", "properties": {"cell_id": "c_36"}, "geometry": {"type": "Point", "coordinates": [55.407261, 25.017966]}}, {"type": "Feature", "properties": {"cell_id": "c_37"}, "geometry": {"type": "Point", "coordinates": [55.427109, 25.017966]}}, {"type": "Feature", "properties": {"cell_id": "c_38"}, "geometry": {"type": "Point", "coordinates": [55.446957, 25.017966]}}, {"type": "Feature", "properties": {"cell_id": "c_39"}, "geometry": {"type": "Point", "coordinates": [55.109543, 25.035932]}}, {"type": "Feature", "properties": {"cell_id": "c_40"}, "geometry": {"type": "Point", "coordinates": [55.129391, 25.035932]}}, {"type": "Feature", "properties": {"cell_id": "c_41"}, "geometry": {"type": "Point", "coordinates": [55.149239, 25.035932]}}, {"type": "Feature", "properties": {"cell_id": "c_42"}, "geometry": {"type": "Point", "coordinates": [55.169087, 25.035932]}}, {"type": "Feature", "properties": {"cell_id": "c_43"}, "geometry": {"type": "Point", "coordinates": [55.188935, 25.035932]}}, {"type": "Feature", "properties": {"cell_id": "c_44"}, "geometry": {"type": "Point", "coordinates": [55.208783, 25.035932]}}, {"type": "Feature", "properties": {"cell_id": "c_45"}, "geometry": {"type": "Point", "coordinates": [55.22863, 25.035932]}}, {"type": "Feature", "properties": {"cell_id": "c_46"}, "geometry": {"type": "Point", "coordinates": [55.248478, 25.035932]}}, {"type": "Feature", "properties": {"cell_id": "c_47"}, "geometry": {"type": "Point", "coordinates": [55.268326, 25.035932]}}, {"type": "Feature", "properties": {"cell_id": "c_48"}, "geometry": {"type": "Point", "coordinates": [55.288174, 25.035932]}}, {"type": "Feature", "properties": {"cell_id": "c_49"}, "geometry": {"type": "Point", "coordinates": [55.308022, 25.035932]}}, {"type": "Feature", "properties": {"cell_id": "c_50"}, "geometry": {"type": "Point", "coordinates": [55.32787, 25.035932]}}, {"type": "Feature", "properties": {"cell_id": "c_51"}, "geometry": {"type": "Point", "coordinates": [55.347717, 25.035932]}}, {"type": "Feature", "properties": {"cell_id": "c_52"}, "geometry": {"type": "Point", "coordinates": [55.367565, 25.035932]}}, {"type": "Feature", "properties": {"cell_id": "c_53"}, "geometry": {"type": "Point", "coordinates": [55.387413, 25.035932]}}, {"type": "Feature", "properties": {"cell_id": "c_54"}, "geometry": {"type": "Point", "coordinates": [55.407261, 25.035932]}}, {"type": "Feature", "properties": {"cell_id": "c_55"}, "geometry": {"type": "Point", "coordinates": [55.427109, 25.035932]}}, {"type": "Feature", "properties": {"cell_id": "c_56"}, "geometry": {"type": "Point", "coordinates": [55.446957, 25.035932]}}, {"type": "Feature", "properties": {"cell_id": "c_57"}, "geometry": {"type": "Point", "coordinates": [55.109543, 25.053899]}}, {"type": "Feature", "properties": {"cell_id": "c_58"}, "geometry": {"type": "Point", "coordinates": [55.129391, 25.053899]}}, {"type": "Feature", "properties": {"cell_id": "c_59"}, "geometry": {"type": "Point", "coordinates": [55.149239, 25.053899]}}, {"type": "Feature", "properties": {"cell_id": "c_60"}, "geometry": {"type": "Point", "coordinates": [55.169087, 25.053899]}}, {"type": "Feature", "properties": {"cell_id": "c_61"}, "geometry": {"type": "Point", "coordinates": [55.188935, 25.053899]}}, {"type": "Feature", "properties": {"cell_id": "c_62"}, "geometry": {"type": "Point", "coordinates": [55.208783, 25.053899]}}, {"type": "Feature", "properties": {"cell_id": "c_63"}, "geometry": {"type": "Point", "coordinates": [55.22863, 25.053899]}}, {"type": "Feature", "properties": {"cell_id": "c_64"}, "geometry": {"type": "Point", "coordinates": [55.248478, 25.053899]}}, {"type": "Feature", "properties": {"cell_id": "c_65"}, "geometry": {"type": "Point", "coordinates": [55.268326, 25.053899]}}, {"type": "Feature", "properties": {"cell_id": "c_66"}, "geometry": {"type": "Point", "coordinates": [55.288174, 25.053899]}}, {"type": "Feature", "properties": {"cell_id": "c_67"}, "geometry": {"type": "Point", "coordinates": [55.308022, 25.053899]}}, {"type": "Feature", "properties": {"cell_id": "c_68"}, "geometry": {"type": "Point", "coordinates": [55.32787, 25.053899]}}, {"type": "Feature", "properties": {"cell_id": "c_69"}, "geometry": {"type": "Point", "coordinates": [55.347717, 25.053899]}}, {"type": "Feature", "properties": {"cell_id": "c_70"}, "geometry": {"type": "Point", "coordinates": [55.367565, 25.053899]}}, {"type": "Feature", "properties": {"cell_id": "c_71"}, "geometry": {"type": "Point", "coordinates": [55.387413, 25.053899]}}, {"type": "Feature", "properties": {"cell_id": "c_72"}, "geometry": {"type": "Point", "coordinates": [55.407261, 25.053899]}}, {"type": "Feature", "properties": {"cell_id": "c_73"}, "geometry": {"type": "Point", "coordinates": [55.427109, 25.053899]}}, {"type": "Feature", "properties": {"cell_id": "c_74"}, "geometry": {"type": "Point", "coordinates": [55.446957, 25.053899]}}, {"type": "Feature", "properties": {"cell_id": "c_75"}, "geometry": {"type": "Point", "coordinates": [55.129391, 25.071865]}}, {"type": "Feature", "properties": {"cell_id": "c_76"}, "geometry": {"type": "Point", "coordinates": [55.149239, 25.071865]}}, {"type": "Feature", "properties": {"cell_id": "c_77"}, "geometry": {"type": "Point", "coordinates": [55.169087, 25.071865]}}, {"type": "Feature", "properties": {"cell_id": "c_78"}, "geometry": {"type": "Point", "coordinates": [55.188935, 25.071865]}}, {"type": "Feature", "properties": {"cell_id": "c_79"}, "geometry": {"type": "Point", "coordinates": [55.208783, 25.071865]}}, {"type": "Feature", "properties": {"cell_id": "c_80"}, "geometry": {"type": "Point", "coordinates": [55.22863, 25.071865]}}, {"type": "Feature", "properties": {"cell_id": "c_81"}, "geometry": {"type": "Point", "coordinates": [55.248478, 25.071865]}}, {"type": "Feature", "properties": {"cell_id": "c_82"}, "geometry": {"type": "Point", "coordinates": [55.268326, 25.071865]}}, {"type": "Feature", "properties": {"cell_id": "c_83"}, "geometry": {"type": "Point", "coordinates": [55.288174, 25.071865]}}, {"type": "Feature", "properties": {"cell_id": "c_84"}, "geometry": {"type": "Point", "coordinates": [55.308022, 25.071865]}}, {"type": "Feature", "properties": {"cell_id": "c_85"}, "geometry": {"type": "Point", "coordinates": [55.32787, 25.071865]}}, {"type": "Feature", "properties": {"cell_id": "c_86"}, "geometry": {"type": "Point", "coordinates": [55.347717, 25.071865]}}, {"type": "Feature", "properties": {"cell_id": "c_87"}, "geometry": {"type": "Point", "coordinates": [55.367565, 25.071865]}}, {"type": "Feature", "properties": {"cell_id": "c_88"}, "geometry": {"type": "Point", "coordinates": [55.387413, 25.071865]}}, {"type": "Feature", "properties": {"cell_id": "c_89"}, "geometry": {"type": "Point", "coordinates": [55.407261, 25.071865]}}, {"type": "Feature", "properties": {"cell_id": "c_90"}, "geometry": {"type": "Point", "coordinates": [55.427109, 25.071865]}}, {"type": "Feature", "properties": {"cell_id": "c_91"}, "geometry": {"type": "Point", "coordinates": [55.446957, 25.071865]}}, {"type": "Feature", "properties": {"cell_id": "c_92"}, "geometry": {"type": "Point", "coordinates": [55.149239, 25.089831]}}, {"type": "Feature", "properties": {"cell_id": "c_93"}, "geometry": {"type": "Point", "coordinates": [55.169087, 25.089831]}}, {"type": "Feature", "properties": {"cell_id": "c_94"}, "geometry": {"type": "Point", "coordinates": [55.188935, 25.089831]}}, {"type": "Feature", "properties": {"cell_id": "c_95"}, "geometry": {"type": "Point", "coordinates": [55.208783, 25.089831]}}, {"type": "Feature", "properties": {"cell_id": "c_96"}, "geometry": {"type": "Point", "coordinates": [55.22863, 25.089831]}}, {"type": "Feature", "properties": {"cell_id": "c_97"}, "geometry": {"type": "Point", "coordinates": [55.248478, 25.089831]}}, {"type": "Feature", "properties": {"cell_id": "c_98"}, "geometry": {"type": "Point", "coordinates": [55.268326, 25.089831]}}, {"type": "Feature", "properties": {"cell_id": "c_99"}, "geometry": {"type": "Point", "coordinates": [55.288174, 25.089831]}}, {"type": "Feature", "properties": {"cell_id": "c_100"}, "geometry": {"type": "Point", "coordinates": [55.308022, 25.089831]}}, {"type": "Feature", "properties": {"cell_id": "c_101"}, "geometry": {"type": "Point", "coordinates": [55.32787, 25.089831]}}, {"type": "Feature", "properties": {"cell_id": "c_102"}, "geometry": {"type": "Point", "coordinates": [55.347717, 25.089831]}}, {"type": "Feature", "properties": {"cell_id": "c_103"}, "geometry": {"type": "Point", "coordinates": [55.367565, 25.089831]}}, {"type": "Feature", "properties": {"cell_id": "c_104"}, "geometry": {"type": "Point", "coordinates": [55.387413, 25.089831]}}, {"type": "Feature", "properties": {"cell_id": "c_105"}, "geometry": {"type": "Point", "coordinates": [55.407261, 25.089831]}}, {"type": "Feature", "properties": {"cell_id": "c_106"}, "geometry": {"type": "Point", "coordinates": [55.427109, 25.089831]}}, {"type": "Feature", "properties": {"cell_id": "c_107"}, "geometry": {"type": "Point", "coordinates": [55.446957, 25.089831]}}, {"type": "Feature", "properties": {"cell_id": "c_108"}, "geometry": {"type": "Point", "coordinates": [55.169087, 25.107797]}}, {"type": "Feature", "properties": {"cell_id": "c_109"}, "geometry": {"type": "Point", "coordinates": [55.188935, 25.107797]}}, {"type": "Feature", "properties": {"cell_id": "c_110"}, "geometry": {"type": "Point", "coordinates": [55.208783, 25.107797]}}, {"type": "Feature", "properties": {"cell_id": "c_111"}, "geometry": {"type": "Point", "coordinates": [55.22863, 25.107797]}}, {"type": "Feature", "properties": {"cell_id": "c_112"}, "geometry": {"type": "Point", "coordinates": [55.248478, 25.107797]}}, {"type": "Feature", "properties": {"cell_id": "c_113"}, "geometry": {"type": "Point", "coordinates": [55.268326, 25.107797]}}, {"type": "Feature", "properties": {"cell_id": "c_114"}, "geometry": {"type": "Point", "coordinates": [55.288174, 25.107797]}}, {"type": "Feature", "properties": {"cell_id": "c_115"}, "geometry": {"type": "Point", "coordinates": [55.308022, 25.107797]}}, {"type": "Feature", "properties": {"cell_id": "c_116"}, "geometry": {"type": "Point", "coordinates": [55.32787, 25.107797]}}, {"type": "Feature", "properties": {"cell_id": "c_117"}, "geometry": {"type": "Point", "coordinates": [55.347717, 25.107797]}}, {"type": "Feature", "properties": {"cell_id": "c_118"}, "geometry": {"type": "Point", "coordinates": [55.367565, 25.107797]}}, {"type": "Feature", "properties": {"cell_id": "c_119"}, "geometry": {"type": "Point", "coordinates": [55.387413, 25.107797]}}, {"type": "Feature", "properties": {"cell_id": "c_120"}, "geometry": {"type": "Point", "coordinates": [55.407261, 25.107797]}}, {"type": "Feature", "properties": {"cell_id": "c_121"}, "geometry": {"type": "Point", "coordinates": [55.427109, 25.107797]}}, {"type": "Feature", "properties": {"cell_id": "c_122"}, "geometry": {"type": "Point", "coordinates": [55.446957, 25.107797]}}, {"type": "Feature", "properties": {"cell_id": "c_123"}, "geometry": {"type": "Point", "coordinates": [55.188935, 25.125764]}}, {"type": "Feature", "properties": {"cell_id": "c_124"}, "geometry": {"type": "Point", "coordinates": [55.208783, 25.125764]}}, {"type": "Feature", "properties": {"cell_id": "c_125"}, "geometry": {"type": "Point", "coordinates": [55.22863, 25.125764]}}, {"type": "Feature", "properties": {"cell_id": "c_126"}, "geometry": {"type": "Point", "coordinates": [55.248478, 25.125764]}}, {"type": "Feature", "properties": {"cell_id": "c_127"}, "geometry": {"type": "Point", "coordinates": [55.268326, 25.125764]}}, {"type": "Feature", "properties": {"cell_id": "c_128"}, "geometry": {"type": "Point", "coordinates": [55.288174, 25.125764]}}, {"type": "Feature", "properties": {"cell_id": "c_129"}, "geometry": {"type": "Point", "coordinates": [55.308022, 25.125764]}}, {"type": "Feature", "properties": {"cell_id": "c_130"}, "geometry": {"type": "Point", "coordinates": [55.32787, 25.125764]}}, {"type": "Feature", "properties": {"cell_id": "c_131"}, "geometry": {"type": "Point", "coordinates": [55.347717, 25.125764]}}, {"type": "Feature", "properties": {"cell_id": "c_132"}, "geometry": {"type": "Point", "coordinates": [55.367565, 25.125764]}}, {"type": "Feature", "properties": {"cell_id": "c_133"}, "geometry": {"type": "Point", "coordinates": [55.387413, 25.125764]}}, {"type": "Feature", "properties": {"cell_id": "c_134"}, "geometry": {"type": "Point", "coordinates": [55.407261, 25.125764]}}, {"type": "Feature", "properties": {"cell_id": "c_135"}, "geometry": {"type": "Point", "coordinates": [55.427109, 25.125764]}}, {"type": "Feature", "properties": {"cell_id": "c_136"}, "geometry": {"type": "Point", "coordinates": [55.446957, 25.125764]}}, {"type": "Feature", "properties": {"cell_id": "c_137"}, "geometry": {"type": "Point", "coordinates": [55.208783, 25.14373]}}, {"type": "Feature", "properties": {"cell_id": "c_138"}, "geometry": {"type": "Point", "coordinates": [55.22863, 25.14373]}}, {"type": "Feature", "properties": {"cell_id": "c_139"}, "geometry": {"type": "Point", "coordinates": [55.248478, 25.14373]}}, {"type": "Feature", "properties": {"cell_id": "c_140"}, "geometry": {"type": "Point", "coordinates": [55.268326, 25.14373]}}, {"type": "Feature", "properties": {"cell_id": "c_141"}, "geometry": {"type": "Point", "coordinates": [55.288174, 25.14373]}}, {"type": "Feature", "properties": {"cell_id": "c_142"}, "geometry": {"type": "Point", "coordinates": [55.308022, 25.14373]}}, {"type": "Feature", "properties": {"cell_id": "c_143"}, "geometry": {"type": "Point", "coordinates": [55.32787, 25.14373]}}, {"type": "Feature", "properties": {"cell_id": "c_144"}, "geometry": {"type": "Point", "coordinates": [55.347717, 25.14373]}}, {"type": "Feature", "properties": {"cell_id": "c_145"}, "geometry": {"type": "Point", "coordinates": [55.367565, 25.14373]}}, {"type": "Feature", "properties": {"cell_id": "c_146"}, "geometry": {"type": "Point", "coordinates": [55.387413, 25.14373]}}, {"type": "Feature", "properties": {"cell_id": "c_147"}, "geometry": {"type": "Point", "coordinates": [55.407261, 25.14373]}}, {"type": "Feature", "properties": {"cell_id": "c_148"}, "geometry": {"type": "Point", "coordinates": [55.427109, 25.14373]}}, {"type": "Feature", "properties": {"cell_id": "c_149"}, "geometry": {"type": "Point", "coordinates": [55.446957, 25.14373]}}, {"type": "Feature", "properties": {"cell_id": "c_150"}, "geometry": {"type": "Point", "coordinates": [55.208783, 25.161696]}}, {"type": "Feature", "properties": {"cell_id": "c_151"}, "geometry": {"type": "Point", "coordinates": [55.22863, 25.161696]}}, {"type": "Feature", "properties": {"cell_id": "c_152"}, "geometry": {"type": "Point", "coordinates": [55.248478, 25.161696]}}, {"type": "Feature", "properties": {"cell_id": "c_153"}, "geometry": {"type": "Point", "coordinates": [55.268326, 25.161696]}}, {"type": "Feature", "properties": {"cell_id": "c_154"}, "geometry": {"type": "Point", "coordinates": [55.288174, 25.161696]}}, {"type": "Feature", "properties": {"cell_id": "c_155"}, "geometry": {"type": "Point", "coordinates": [55.308022, 25.161696]}}, {"type": "Feature", "properties": {"cell_id": "c_156"}, "geometry": {"type": "Point", "coordinates": [55.32787, 25.161696]}}, {"type": "Feature", "properties": {"cell_id": "c_157"}, "geometry": {"type": "Point", "coordinates": [55.347717, 25.161696]}}, {"type": "Feature", "properties": {"cell_id": "c_158"}, "geometry": {"type": "Point", "coordinates": [55.367565, 25.161696]}}, {"type": "Feature", "properties": {"cell_id": "c_159"}, "geometry": {"type": "Point", "coordinates": [55.387413, 25.161696]}}, {"type": "Feature", "properties": {"cell_id": "c_160"}, "geometry": {"type": "Point", "coordinates": [55.407261, 25.161696]}}, {"type": "Feature", "properties": {"cell_id": "c_161"}, "geometry": {"type": "Point", "coordinates": [55.427109, 25.161696]}}, {"type": "Feature", "properties": {"cell_id": "c_162"}, "geometry": {"type": "Point", "coordinates": [55.446957, 25.161696]}}, {"type": "Feature", "properties": {"cell_id": "c_163"}, "geometry": {"type": "Point", "coordinates": [55.22863, 25.179662]}}, {"type": "Feature", "properties": {"cell_id": "c_164"}, "geometry": {"type": "Point", "coordinates": [55.248478, 25.179662]}}, {"type": "Feature", "properties": {"cell_id": "c_165"}, "geometry": {"type": "Point", "coordinates": [55.268326, 25.179662]}}, {"type": "Feature", "properties": {"cell_id": "c_166"}, "geometry": {"type": "Point", "coordinates": [55.288174, 25.179662]}}, {"type": "Feature", "properties": {"cell_id": "c_167"}, "geometry": {"type": "Point", "coordinates": [55.308022, 25.179662]}}, {"type": "Feature", "properties": {"cell_id": "c_168"}, "geometry": {"type": "Point", "coordinates": [55.32787, 25.179662]}}, {"type": "Feature", "properties": {"cell_id": "c_169"}, "geometry": {"type": "Point", "coordinates": [55.347717, 25.179662]}}, {"type": "Feature", "properties": {"cell_id": "c_170"}, "geometry": {"type": "Point", "coordinates": [55.367565, 25.179662]}}, {"type": "Feature", "properties": {"cell_id": "c_171"}, "geometry": {"type": "Point", "coordinates": [55.387413, 25.179662]}}, {"type": "Feature", "properties": {"cell_id": "c_172"}, "geometry": {"type": "Point", "coordinates": [55.407261, 25.179662]}}, {"type": "Feature", "properties": {"cell_id": "c_173"}, "geometry": {"type": "Point", "coordinates": [55.427109, 25.179662]}}, {"type": "Feature", "properties": {"cell_id": "c_174"}, "geometry": {"type": "Point", "coordinates": [55.446957, 25.179662]}}, {"type": "Feature", "properties": {"cell_id": "c_175"}, "geometry": {"type": "Point", "coordinates": [55.248478, 25.197628]}}, {"type": "Feature", "properties": {"cell_id": "c_176"}, "geometry": {"type": "Point", "coordinates": [55.268326, 25.197628]}}, {"type": "Feature", "properties": {"cell_id": "c_177"}, "geometry": {"type": "Point", "coordinates": [55.288174, 25.197628]}}, {"type": "Feature", "properties": {"cell_id": "c_178"}, "geometry": {"type": "Point", "coordinates": [55.308022, 25.197628]}}, {"type": "Feature", "properties": {"cell_id": "c_179"}, "geometry": {"type": "Point", "coordinates": [55.32787, 25.197628]}}, {"type": "Feature", "properties": {"cell_id": "c_180"}, "geometry": {"type": "Point", "coordinates": [55.347717, 25.197628]}}, {"type": "Feature", "properties": {"cell_id": "c_181"}, "geometry": {"type": "Point", "coordinates": [55.367565, 25.197628]}}, {"type": "Feature", "properties": {"cell_id": "c_182"}, "geometry": {"type": "Point", "coordinates": [55.387413, 25.197628]}}, {"type": "Feature", "properties": {"cell_id": "c_183"}, "geometry": {"type": "Point", "coordinates": [55.407261, 25.197628]}}, {"type": "Feature", "properties": {"cell_id": "c_184"}, "geometry": {"type": "Point", "coordinates": [55.427109, 25.197628]}}, {"type": "Feature", "properties": {"cell_id": "c_185"}, "geometry": {"type": "Point", "coordinates": [55.446957, 25.197628]}}, {"type": "Feature", "properties": {"cell_id": "c_186"}, "geometry": {"type": "Point", "coordinates": [55.248478, 25.215595]}}, {"type": "Feature", "properties": {"cell_id": "c_187"}, "geometry": {"type": "Point", "coordinates": [55.268326, 25.215595]}}, {"type": "Feature", "properties": {"cell_id": "c_188"}, "geometry": {"type": "Point", "coordinates": [55.288174, 25.215595]}}, {"type": "Feature", "properties": {"cell_id": "c_189"}, "geometry": {"type": "Point", "coordinates": [55.308022, 25.215595]}}, {"type": "Feature", "properties": {"cell_id": "c_190"}, "geometry": {"type": "Point", "coordinates": [55.32787, 25.215595]}}, {"type": "Feature", "properties": {"cell_id": "c_191"}, "geometry": {"type": "Point", "coordinates": [55.347717, 25.215595]}}, {"type": "Feature", "properties": {"cell_id": "c_192"}, "geometry": {"type": "Point", "coordinates": [55.367565, 25.215595]}}, {"type": "Feature", "properties": {"cell_id": "c_193"}, "geometry": {"type": "Point", "coordinates": [55.387413, 25.215595]}}, {"type": "Feature", "properties": {"cell_id": "c_194"}, "geometry": {"type": "Point", "coordinates": [55.407261, 25.215595]}}, {"type": "Feature", "properties": {"cell_id": "c_195"}, "geometry": {"type": "Point", "coordinates": [55.427109, 25.215595]}}, {"type": "Feature", "properties": {"cell_id": "c_196"}, "geometry": {"type": "Point", "coordinates": [55.446957, 25.215595]}}, {"type": "Feature", "properties": {"cell_id": "c_197"}, "geometry": {"type": "Point", "coordinates": [55.268326, 25.233561]}}, {"type": "Feature", "properties": {"cell_id": "c_198"}, "geometry": {"type": "Point", "coordinates": [55.288174, 25.233561]}}, {"type": "Feature", "properties": {"cell_id": "c_199"}, "geometry": {"type": "Point", "coordinates": [55.308022, 25.233561]}}, {"type": "Feature", "properties": {"cell_id": "c_200"}, "geometry": {"type": "Point", "coordinates": [55.32787, 25.233561]}}, {"type": "Feature", "properties": {"cell_id": "c_201"}, "geometry": {"type": "Point", "coordinates": [55.347717, 25.233561]}}, {"type": "Feature", "properties": {"cell_id": "c_202"}, "geometry": {"type": "Point", "coordinates": [55.367565, 25.233561]}}, {"type": "Feature", "properties": {"cell_id": "c_203"}, "geometry": {"type": "Point", "coordinates": [55.387413, 25.233561]}}, {"type": "Feature", "properties": {"cell_id": "c_204"}, "geometry": {"type": "Point", "coordinates": [55.407261, 25.233561]}}, {"type": "Feature", "properties": {"cell_id": "c_205"}, "geometry": {"type": "Point", "coordinates": [55.427109, 25.233561]}}, {"type": "Feature", "properties": {"cell_id": "c_206"}, "geometry": {"type": "Point", "coordinates": [55.446957, 25.233561]}}, {"type": "Feature", "properties": {"cell_id": "c_207"}, "geometry": {"type": "Point", "coordinates": [55.288174, 25.251527]}}, {"type": "Feature", "properties": {"cell_id": "c_208"}, "geometry": {"type": "Point", "coordinates": [55.308022, 25.251527]}}, {"type": "Feature", "properties": {"cell_id": "c_209"}, "geometry": {"type": "Point", "coordinates": [55.32787, 25.251527]}}, {"type": "Feature", "properties": {"cell_id": "c_210"}, "geometry": {"type": "Point", "coordinates": [55.347717, 25.251527]}}, {"type": "Feature", "properties": {"cell_id": "c_211"}, "geometry": {"type": "Point", "coordinates": [55.367565, 25.251527]}}, {"type": "Feature", "properties": {"cell_id": "c_212"}, "geometry": {"type": "Point", "coordinates": [55.387413, 25.251527]}}, {"type": "Feature", "properties": {"cell_id": "c_213"}, "geometry": {"type": "Point", "coordinates": [55.407261, 25.251527]}}, {"type": "Feature", "properties": {"cell_id": "c_214"}, "geometry": {"type": "Point", "coordinates": [55.427109, 25.251527]}}, {"type": "Feature", "properties": {"cell_id": "c_215"}, "geometry": {"type": "Point", "coordinates": [55.446957, 25.251527]}}, {"type": "Feature", "properties": {"cell_id": "c_216"}, "geometry": {"type": "Point", "coordinates": [55.308022, 25.269493]}}, {"type": "Feature", "properties": {"cell_id": "c_217"}, "geometry": {"type": "Point", "coordinates": [55.32787, 25.269493]}}, {"type": "Feature", "properties": {"cell_id": "c_218"}, "geometry": {"type": "Point", "coordinates": [55.347717, 25.269493]}}, {"type": "Feature", "properties": {"cell_id": "c_219"}, "geometry": {"type": "Point", "coordinates": [55.367565, 25.269493]}}, {"type": "Feature", "properties": {"cell_id": "c_220"}, "geometry": {"type": "Point", "coordinates": [55.387413, 25.269493]}}, {"type": "Feature", "properties": {"cell_id": "c_221"}, "geometry": {"type": "Point", "coordinates": [55.407261, 25.269493]}}, {"type": "Feature", "properties": {"cell_id": "c_222"}, "geometry": {"type": "Point", "coordinates": [55.427109, 25.269493]}}, {"type": "Feature", "properties": {"cell_id": "c_223"}, "geometry": {"type": "Point", "coordinates": [55.446957, 25.269493]}}, {"type": "Feature", "properties": {"cell_id": "c_224"}, "geometry": {"type": "Point", "coordinates": [55.32787, 25.28746]}}, {"type": "Feature", "properties": {"cell_id": "c_225"}, "geometry": {"type": "Point", "coordinates": [55.347717, 25.28746]}}, {"type": "Feature", "properties": {"cell_id": "c_226"}, "geometry": {"type": "Point", "coordinates": [55.367565, 25.28746]}}, {"type": "Feature", "properties": {"cell_id": "c_227"}, "geometry": {"type": "Point", "coordinates": [55.387413, 25.28746]}}, {"type": "Feature", "properties": {"cell_id": "c_228"}, "geometry": {"type": "Point", "coordinates": [55.407261, 25.28746]}}, {"type": "Feature", "properties": {"cell_id": "c_229"}, "geometry": {"type": "Point", "coordinates": [55.427109, 25.28746]}}, {"type": "Feature", "properties": {"cell_id": "c_230"}, "geometry": {"type": "Point", "coordinates": [55.446957, 25.28746]}}], "_version": 3}