{"type": "FeatureCollection", "features": [{"type": "Feature", "properties": {"cell_id": "882b81b605fffff"}, "geometry": {"type": "Point", "coordinates": [-73.898783, 45.422178]}}, {"type": "Feature", "properties": {"cell_id": "882b81b609fffff"}, "geometry": {"type": "Point", "coordinates": [-73.877586, 45.425451]}}, {"type": "Feature", "properties": {"cell_id": "882b81b60dfffff"}, "geometry": {"type": "Point", "coordinates": [-73.889531, 45.427957]}}, {"type": "Feature", "properties": {"cell_id": "882b81b621fffff"}, "geometry": {"type": "Point", "coordinates": [-73.919978, 45.418901]}}, {"type": "Feature", "properties": {"cell_id": "882b81b625fffff"}, "geometry": {"type": "Point", "coordinates": [-73.931925, 45.421403]}}, {"type": "Feature", "properties": {"cell_id": "882b81b627fffff"}, "geometry": {"type": "Point", "coordinates": [-73.929224, 45.41312]}}, {"type": "Feature", "properties": {"cell_id": "882b81b629fffff"}, "geometry": {"type": "Point", "coordinates": [-73.910729, 45.424682]}}, {"type": "Feature", "properties": {"cell_id": "882b81b62dfffff"}, "geometry": {"type": "Point", "coordinates": [-73.922677, 45.427185]}}, {"type": "Feature", "properties": {"cell_id": "882b81b641fffff"}, "geometry": {"type": "Point", "coordinates": [-73.871021, 45.439514]}}, {"type": "Feature", "properties": {"cell_id": "882b81b643fffff"}, "geometry": {"type": "Point", "coordinates": [-73.86833, 45.431229]}}, {"type": "Feature", "properties": {"cell_id": "882b81b645fffff"}, "geometry": {"type": "Point", "coordinates": [-73.88297, 45.442022]}}, {"type": "Feature", "properties": {"cell_id": "882b81b647fffff"}, "geometry": {"type": "Point", "coordinates": [-73.880277, 45.433736]}}, {"type": "Feature", "properties": {"cell_id": "882b81b649fffff"}, "geometry": {"type": "Point", "coordinates": [-73.861762, 45.445292]}}, {"type": "Feature", "properties": {"cell_id": "882b81b64bfffff"}, "geometry": {"type": "Point", "coordinates": [-73.859073, 45.437006]}}, {"type": "Feature", "properties": {"cell_id": "882b81b64dfffff"}, "geometry": {"type": "Point", "coordinates": [-73.873712, 45.447801]}}, {"type": "Feature", "properties": {"cell_id": "882b81b65dfffff"}, "geometry": {"type": "Point", "coordinates": [-73.856385, 45.42872]}}, {"type": "Feature", "properties": {"cell_id": "882b81b661fffff"}, "geometry": {"type": "Point", "coordinates": [-73.904175, 45.438747]}}, {"type": "Feature", "properties": {"cell_id": "882b81b663fffff"}, "geometry": {"type": "Point", "coordinates": [-73.901479, 45.430462]}}, {"type": "Feature", "properties": {"cell_id": "882b81b665fffff"}, "geometry": {"type": "Point", "coordinates": [-73.916126, 45.441251]}}, {"type": "Feature", "properties": {"cell_id": "882b81b667fffff"}, "geometry": {"type": "Point", "coordinates": [-73.913427, 45.432966]}}, {"type": "Feature", "properties": {"cell_id": "882b81b669fffff"}, "geometry": {"type": "Point", "coordinates": [-73.89492, 45.444528]}}, {"type": "Feature", "properties": {"cell_id": "882b81b66bfffff"}, "geometry": {"type": "Point", "coordinates": [-73.892225, 45.436242]}}, {"type": "Feature", "properties": {"cell_id": "882b81b66dfffff"}, "geometry": {"type": "Point", "coordinates": [-73.906872, 45.447033]}}, {"type": "Feature", "properties": {"cell_id": "882b81b713fffff"}, "geometry": {"type": "Point", "coordinates": [-73.950413, 45.409837]}}, {"type": "Feature", "properties": {"cell_id": "882b81b719fffff"}, "geometry": {"type": "Point", "coordinates": [-73.943873, 45.423903]}}, {"type": "Feature", "properties": {"cell_id": "882b81b71bfffff"}, "geometry": {"type": "Point", "coordinates": [-73.94117, 45.41562]}}, {"type": "Feature", "properties": {"cell_id": "882b81b74bfffff"}, "geometry": {"type": "Point", "coordinates": [-73.942737, 45.45454]}}, {"type": "Feature", "properties": {"cell_id": "882b81b751fffff"}, "geometry": {"type": "Point", "coordinates": [-73.937329, 45.43797]}}, {"type": "Feature", "properties": {"cell_id": "882b81b753fffff"}, "geometry": {"type": "Point", "coordinates": [-73.934626, 45.429686]}}, {"type": "Feature", "properties": {"cell_id": "882b81b757fffff"}, "geometry": {"type": "Point", "coordinates": [-73.946577, 45.432187]}}, {"type": "Feature", "properties": {"cell_id": "882b81b759fffff"}, "geometry": {"type": "Point", "coordinates": [-73.928078, 45.443754]}}, {"type": "Feature", "properties": {"cell_id": "882b81b75bfffff"}, "geometry": {"type": "Point", "coordinates": [-73.925377, 45.435469]}}, {"type": "Feature", "properties": {"cell_id": "882b81b75dfffff"}, "geometry": {"type": "Point", "coordinates": [-73.940032, 45.446255]}}, {"type": "Feature", "properties": {"cell_id": "882baa4093fffff"}, "geometry": {"type": "Point", "coordinates": [-73.690727, 45.571579]}}, {"type": "Feature", "properties": {"cell_id": "882baa409bfffff"}, "geometry": {"type": "Point", "coordinates": [-73.681418, 45.577349]}}, {"type": "Feature", "properties": {"cell_id": "882baa4293fffff"}, "geometry": {"type": "Point", "coordinates": [-73.625518, 45.611956]}}, {"type": "Feature", "properties": {"cell_id": "882baa429bfffff"}, "geometry": {"type": "Point", "coordinates": [-73.616193, 45.617722]}}, {"type": "Feature", "properties": {"cell_id": "882baa4401fffff"}, "geometry": {"type": "Point", "coordinates": [-73.608328, 45.523181]}}, {"type": "Feature", "properties": {"cell_id": "882baa4403fffff"}, "geometry": {"type": "Point", "coordinates": [-73.605682, 45.514884]}}, {"type": "Feature", "properties": {"cell_id": "882baa4405fffff"}, "geometry": {"type": "Point", "coordinates": [-73.620282, 45.525718]}}, {"type": "Feature", "properties": {"cell_id": "882baa4407fffff"}, "geometry": {"type": "Point", "coordinates": [-73.617634, 45.517421]}}, {"type": "Feature", "properties": {"cell_id": "882baa4409fffff"}, "geometry": {"type": "Point", "coordinates": [-73.599019, 45.528941]}}, {"type": "Feature", "properties": {"cell_id": "882baa440bfffff"}, "geometry": {"type": "Point", "coordinates": [-73.596375, 45.520643]}}, {"type": "Feature", "properties": {"cell_id": "882baa440dfffff"}, "geometry": {"type": "Point", "coordinates": [-73.610975, 45.531479]}}, {"type": "Feature", "properties": {"cell_id": "882baa4411fffff"}, "geometry": {"type": "Point", "coordinates": [-73.591089, 45.504049]}}, {"type": "Feature", "properties": {"cell_id": "882baa4413fffff"}, "geometry": {"type": "Point", "coordinates": [-73.588448, 45.495752]}}, {"type": "Feature", "properties": {"cell_id": "882baa4415fffff"}, "geometry": {"type": "Point", "coordinates": [-73.603037, 45.506587]}}, {"type": "Feature", "properties": {"cell_id": "882baa4417fffff"}, "geometry": {"type": "Point", "coordinates": [-73.600393, 45.49829]}}, {"type": "Feature", "properties": {"cell_id": "882baa4419fffff"}, "geometry": {"type": "Point", "coordinates": [-73.581783, 45.509807]}}, {"type": "Feature", "properties": {"cell_id": "882baa441bfffff"}, "geometry": {"type": "Point", "coordinates": [-73.579143, 45.50151]}}, {"type": "Feature", "properties": {"cell_id": "882baa441dfffff"}, "geometry": {"type": "Point", "coordinates": [-73.593732, 45.512346]}}, {"type": "Feature", "properties": {"cell_id": "882baa4421fffff"}, "geometry": {"type": "Point", "coordinates": [-73.641542, 45.522491]}}, {"type": "Feature", "properties": {"cell_id": "882baa4423fffff"}, "geometry": {"type": "Point", "coordinates": [-73.63889, 45.514194]}}, {"type": "Feature", "properties": {"cell_id": "882baa4425fffff"}, "geometry": {"type": "Point", "coordinates": [-73.653498, 45.525024]}}, {"type": "Feature", "properties": {"cell_id": "882baa4427fffff"}, "geometry": {"type": "Point", "coordinates": [-73.650844, 45.516727]}}, {"type": "Feature", "properties": {"cell_id": "882baa4429fffff"}, "geometry": {"type": "Point", "coordinates": [-73.632238, 45.528254]}}, {"type": "Feature", "properties": {"cell_id": "882baa442bfffff"}, "geometry": {"type": "Point", "coordinates": [-73.629587, 45.519956]}}, {"type": "Feature", "properties": {"cell_id": "882baa442dfffff"}, "geometry": {"type": "Point", "coordinates": [-73.644195, 45.530788]}}, {"type": "Feature", "properties": {"cell_id": "882baa4431fffff"}, "geometry": {"type": "Point", "coordinates": [-73.624289, 45.503363]}}, {"type": "Feature", "properties": {"cell_id": "882baa4433fffff"}, "geometry": {"type": "Point", "coordinates": [-73.621641, 45.495067]}}, {"type": "Feature", "properties": {"cell_id": "882baa4435fffff"}, "geometry": {"type": "Point", "coordinates": [-73.636239, 45.505898]}}, {"type": "Feature", "properties": {"cell_id": "882baa4437fffff"}, "geometry": {"type": "Point", "coordinates": [-73.633589, 45.497602]}}, {"type": "Feature", "properties": {"cell_id": "882baa4439fffff"}, "geometry": {"type": "Point", "coordinates": [-73.614987, 45.509124]}}, {"type": "Feature", "properties": {"cell_id": "882baa443bfffff"}, "geometry": {"type": "Point", "coordinates": [-73.61234, 45.500827]}}, {"type": "Feature", "properties": {"cell_id": "882baa443dfffff"}, "geometry": {"type": "Point", "coordinates": [-73.626938, 45.511659]}}, {"type": "Feature", "properties": {"cell_id": "882baa4441fffff"}, "geometry": {"type": "Point", "coordinates": [-73.592353, 45.543001]}}, {"type": "Feature", "properties": {"cell_id": "882baa4443fffff"}, "geometry": {"type": "Point", "coordinates": [-73.589709, 45.534701]}}, {"type": "Feature", "properties": {"cell_id": "882baa4445fffff"}, "geometry": {"type": "Point", "coordinates": [-73.604311, 45.54554]}}, {"type": "Feature", "properties": {"cell_id": "882baa4447fffff"}, "geometry": {"type": "Point", "coordinates": [-73.601665, 45.53724]}}, {"type": "Feature", "properties": {"cell_id": "882baa4449fffff"}, "geometry": {"type": "Point", "coordinates": [-73.583038, 45.54876]}}, {"type": "Feature", "properties": {"cell_id": "882baa444bfffff"}, "geometry": {"type": "Point", "coordinates": [-73.580396, 45.54046]}}, {"type": "Feature", "properties": {"cell_id": "882baa444dfffff"}, "geometry": {"type": "Point", "coordinates": [-73.594998, 45.551301]}}, {"type": "Feature", "properties": {"cell_id": "882baa4451fffff"}, "geometry": {"type": "Point", "coordinates": [-73.575113, 45.523862]}}, {"type": "Feature", "properties": {"cell_id": "882baa4453fffff"}, "geometry": {"type": "Point", "coordinates": [-73.572474, 45.515564]}}, {"type": "Feature", "properties": {"cell_id": "882baa4455fffff"}, "geometry": {"type": "Point", "coordinates": [-73.587066, 45.526402]}}, {"type": "Feature", "properties": {"cell_id": "882baa4457fffff"}, "geometry": {"type": "Point", "coordinates": [-73.584424, 45.518104]}}, {"type": "Feature", "properties": {"cell_id": "882baa4459fffff"}, "geometry": {"type": "Point", "coordinates": [-73.565801, 45.52962]}}, {"type": "Feature", "properties": {"cell_id": "882baa445bfffff"}, "geometry": {"type": "Point", "coordinates": [-73.563163, 45.521321]}}, {"type": "Feature", "properties": {"cell_id": "882baa445dfffff"}, "geometry": {"type": "Point", "coordinates": [-73.577754, 45.532161]}}, {"type": "Feature", "properties": {"cell_id": "882baa4461fffff"}, "geometry": {"type": "Point", "coordinates": [-73.625582, 45.542315]}}, {"type": "Feature", "properties": {"cell_id": "882baa4463fffff"}, "geometry": {"type": "Point", "coordinates": [-73.622931, 45.534016]}}, {"type": "Feature", "properties": {"cell_id": "882baa4465fffff"}, "geometry": {"type": "Point", "coordinates": [-73.637542, 45.54485]}}, {"type": "Feature", "properties": {"cell_id": "882baa4467fffff"}, "geometry": {"type": "Point", "coordinates": [-73.634889, 45.536552]}}, {"type": "Feature", "properties": {"cell_id": "882baa4469fffff"}, "geometry": {"type": "Point", "coordinates": [-73.616271, 45.548077]}}, {"type": "Feature", "properties": {"cell_id": "882baa446bfffff"}, "geometry": {"type": "Point", "coordinates": [-73.613622, 45.539778]}}, {"type": "Feature", "properties": {"cell_id": "882baa446dfffff"}, "geometry": {"type": "Point", "coordinates": [-73.628233, 45.550614]}}, {"type": "Feature", "properties": {"cell_id": "882baa4481fffff"}, "geometry": {"type": "Point", "coordinates": [-73.589828, 45.465111]}}, {"type": "Feature", "properties": {"cell_id": "882baa4483fffff"}, "geometry": {"type": "Point", "coordinates": [-73.587189, 45.456818]}}, {"type": "Feature", "properties": {"cell_id": "882baa4485fffff"}, "geometry": {"type": "Point", "coordinates": [-73.601765, 45.467648]}}, {"type": "Feature", "properties": {"cell_id": "882baa4487fffff"}, "geometry": {"type": "Point", "coordinates": [-73.599124, 45.459355]}}, {"type": "Feature", "properties": {"cell_id": "882baa4489fffff"}, "geometry": {"type": "Point", "coordinates": [-73.580529, 45.470867]}}, {"type": "Feature", "properties": {"cell_id": "882baa448bfffff"}, "geometry": {"type": "Point", "coordinates": [-73.577892, 45.462573]}}, {"type": "Feature", "properties": {"cell_id": "882baa448dfffff"}, "geometry": {"type": "Point", "coordinates": [-73.592468, 45.473405]}}, {"type": "Feature", "properties": {"cell_id": "882baa4495fffff"}, "geometry": {"type": "Point", "coordinates": [-73.584551, 45.448525]}}, {"type": "Feature", "properties": {"cell_id": "882baa449dfffff"}, "geometry": {"type": "Point", "coordinates": [-73.575255, 45.45428]}}, {"type": "Feature", "properties": {"cell_id": "882baa44a1fffff"}, "geometry": {"type": "Point", "coordinates": [-73.622999, 45.464426]}}, {"type": "Feature", "properties": {"cell_id": "882baa44a3fffff"}, "geometry": {"type": "Point", "coordinates": [-73.620354, 45.456133]}}, {"type": "Feature", "properties": {"cell_id": "882baa44a5fffff"}, "geometry": {"type": "Point", "coordinates": [-73.634938, 45.466959]}}, {"type": "Feature", "properties": {"cell_id": "882baa44a7fffff"}, "geometry": {"type": "Point", "coordinates": [-73.632291, 45.458667]}}, {"type": "Feature", "properties": {"cell_id": "882baa44a9fffff"}, "geometry": {"type": "Point", "coordinates": [-73.613704, 45.470184]}}, {"type": "Feature", "properties": {"cell_id": "882baa44abfffff"}, "geometry": {"type": "Point", "coordinates": [-73.611061, 45.461891]}}, {"type": "Feature", "properties": {"cell_id": "882baa44adfffff"}, "geometry": {"type": "Point", "coordinates": [-73.625645, 45.472719]}}, {"type": "Feature", "properties": {"cell_id": "882baa44b1fffff"}, "geometry": {"type": "Point", "coordinates": [-73.605776, 45.445306]}}, {"type": "Feature", "properties": {"cell_id": "882baa44b3fffff"}, "geometry": {"type": "Point", "coordinates": [-73.603136, 45.437015]}}, {"type": "Feature", "properties": {"cell_id": "882baa44b5fffff"}, "geometry": {"type": "Point", "coordinates": [-73.61771, 45.447841]}}, {"type": "Feature", "properties": {"cell_id": "882baa44b7fffff"}, "geometry": {"type": "Point", "coordinates": [-73.615067, 45.43955]}}, {"type": "Feature", "properties": {"cell_id": "882baa44b9fffff"}, "geometry": {"type": "Point", "coordinates": [-73.596484, 45.451062]}}, {"type": "Feature", "properties": {"cell_id": "882baa44bbfffff"}, "geometry": {"type": "Point", "coordinates": [-73.593845, 45.44277]}}, {"type": "Feature", "properties": {"cell_id": "882baa44bdfffff"}, "geometry": {"type": "Point", "coordinates": [-73.608418, 45.453598]}}, {"type": "Feature", "properties": {"cell_id": "882baa44c1fffff"}, "geometry": {"type": "Point", "coordinates": [-73.573866, 45.484917]}}, {"type": "Feature", "properties": {"cell_id": "882baa44c3fffff"}, "geometry": {"type": "Point", "coordinates": [-73.571229, 45.476622]}}, {"type": "Feature", "properties": {"cell_id": "882baa44c5fffff"}, "geometry": {"type": "Point", "coordinates": [-73.585807, 45.487457]}}, {"type": "Feature", "properties": {"cell_id": "882baa44c7fffff"}, "geometry": {"type": "Point", "coordinates": [-73.583168, 45.479162]}}, {"type": "Feature", "properties": {"cell_id": "882baa44c9fffff"}, "geometry": {"type": "Point", "coordinates": [-73.564561, 45.490673]}}, {"type": "Feature", "properties": {"cell_id": "882baa44cbfffff"}, "geometry": {"type": "Point", "coordinates": [-73.561925, 45.482377]}}, {"type": "Feature", "properties": {"cell_id": "882baa44cdfffff"}, "geometry": {"type": "Point", "coordinates": [-73.576504, 45.493213]}}, {"type": "Feature", "properties": {"cell_id": "882baa44d1fffff"}, "geometry": {"type": "Point", "coordinates": [-73.556657, 45.465787]}}, {"type": "Feature", "properties": {"cell_id": "882baa44d3fffff"}, "geometry": {"type": "Point", "coordinates": [-73.554024, 45.457493]}}, {"type": "Feature", "properties": {"cell_id": "882baa44d5fffff"}, "geometry": {"type": "Point", "coordinates": [-73.568592, 45.468328]}}, {"type": "Feature", "properties": {"cell_id": "882baa44d7fffff"}, "geometry": {"type": "Point", "coordinates": [-73.565957, 45.460034]}}, {"type": "Feature", "properties": {"cell_id": "882baa44ddfffff"}, "geometry": {"type": "Point", "coordinates": [-73.559291, 45.474082]}}, {"type": "Feature", "properties": {"cell_id": "882baa44e1fffff"}, "geometry": {"type": "Point", "coordinates": [-73.607051, 45.484237]}}, {"type": "Feature", "properties": {"cell_id": "882baa44e3fffff"}, "geometry": {"type": "Point", "coordinates": [-73.604408, 45.475942]}}, {"type": "Feature", "properties": {"cell_id": "882baa44e5fffff"}, "geometry": {"type": "Point", "coordinates": [-73.618995, 45.486772]}}, {"type": "Feature", "properties": {"cell_id": "882baa44e7fffff"}, "geometry": {"type": "Point", "coordinates": [-73.616349, 45.478478]}}, {"type": "Feature", "properties": {"cell_id": "882baa44e9fffff"}, "geometry": {"type": "Point", "coordinates": [-73.597751, 45.489995]}}, {"type": "Feature", "properties": {"cell_id": "882baa44ebfffff"}, "geometry": {"type": "Point", "coordinates": [-73.595109, 45.4817]}}, {"type": "Feature", "properties": {"cell_id": "882baa44edfffff"}, "geometry": {"type": "Point", "coordinates": [-73.609695, 45.492532]}}, {"type": "Feature", "properties": {"cell_id": "882baa4501fffff"}, "geometry": {"type": "Point", "coordinates": [-73.692039, 45.540914]}}, {"type": "Feature", "properties": {"cell_id": "882baa4503fffff"}, "geometry": {"type": "Point", "coordinates": [-73.689376, 45.532617]}}, {"type": "Feature", "properties": {"cell_id": "882baa4505fffff"}, "geometry": {"type": "Point", "coordinates": [-73.704003, 45.543443]}}, {"type": "Feature", "properties": {"cell_id": "882baa4507fffff"}, "geometry": {"type": "Point", "coordinates": [-73.701338, 45.535146]}}, {"type": "Feature", "properties": {"cell_id": "882baa4509fffff"}, "geometry": {"type": "Point", "coordinates": [-73.682737, 45.546682]}}, {"type": "Feature", "properties": {"cell_id": "882baa450bfffff"}, "geometry": {"type": "Point", "coordinates": [-73.680076, 45.538384]}}, {"type": "Feature", "properties": {"cell_id": "882baa450dfffff"}, "geometry": {"type": "Point", "coordinates": [-73.694702, 45.549212]}}, {"type": "Feature", "properties": {"cell_id": "882baa4511fffff"}, "geometry": {"type": "Point", "coordinates": [-73.674756, 45.52179]}}, {"type": "Feature", "properties": {"cell_id": "882baa4513fffff"}, "geometry": {"type": "Point", "coordinates": [-73.672098, 45.513494]}}, {"type": "Feature", "properties": {"cell_id": "882baa4515fffff"}, "geometry": {"type": "Point", "coordinates": [-73.686715, 45.52432]}}, {"type": "Feature", "properties": {"cell_id": "882baa4517fffff"}, "geometry": {"type": "Point", "coordinates": [-73.684054, 45.516024]}}, {"type": "Feature", "properties": {"cell_id": "882baa4519fffff"}, "geometry": {"type": "Point", "coordinates": [-73.665456, 45.527556]}}, {"type": "Feature", "properties": {"cell_id": "882baa451bfffff"}, "geometry": {"type": "Point", "coordinates": [-73.662799, 45.519259]}}, {"type": "Feature", "properties": {"cell_id": "882baa451dfffff"}, "geometry": {"type": "Point", "coordinates": [-73.677415, 45.530087]}}, {"type": "Feature", "properties": {"cell_id": "882baa4521fffff"}, "geometry": {"type": "Point", "coordinates": [-73.725267, 45.540199]}}, {"type": "Feature", "properties": {"cell_id": "882baa4523fffff"}, "geometry": {"type": "Point", "coordinates": [-73.722598, 45.531903]}}, {"type": "Feature", "properties": {"cell_id": "882baa4525fffff"}, "geometry": {"type": "Point", "coordinates": [-73.737234, 45.542724]}}, {"type": "Feature", "properties": {"cell_id": "882baa4527fffff"}, "geometry": {"type": "Point", "coordinates": [-73.734562, 45.534428]}}, {"type": "Feature", "properties": {"cell_id": "882baa4529fffff"}, "geometry": {"type": "Point", "coordinates": [-73.715969, 45.54597]}}, {"type": "Feature", "properties": {"cell_id": "882baa452bfffff"}, "geometry": {"type": "Point", "coordinates": [-73.713302, 45.537673]}}, {"type": "Feature", "properties": {"cell_id": "882baa452dfffff"}, "geometry": {"type": "Point", "coordinates": [-73.727937, 45.548496]}}, {"type": "Feature", "properties": {"cell_id": "882baa4531fffff"}, "geometry": {"type": "Point", "coordinates": [-73.70797, 45.521081]}}, {"type": "Feature", "properties": {"cell_id": "882baa4533fffff"}, "geometry": {"type": "Point", "coordinates": [-73.705306, 45.512785]}}, {"type": "Feature", "properties": {"cell_id": "882baa4535fffff"}, "geometry": {"type": "Point", "coordinates": [-73.71993, 45.523607]}}, {"type": "Feature", "properties": {"cell_id": "882baa4537fffff"}, "geometry": {"type": "Point", "coordinates": [-73.717264, 45.515312]}}, {"type": "Feature", "properties": {"cell_id": "882baa4539fffff"}, "geometry": {"type": "Point", "coordinates": [-73.698674, 45.526849]}}, {"type": "Feature", "properties": {"cell_id": "882baa453bfffff"}, "geometry": {"type": "Point", "coordinates": [-73.696011, 45.518553]}}, {"type": "Feature", "properties": {"cell_id": "882baa453dfffff"}, "geometry": {"type": "Point", "coordinates": [-73.710636, 45.529376]}}, {"type": "Feature", "properties": {"cell_id": "882baa4541fffff"}, "geometry": {"type": "Point", "coordinates": [-73.676093, 45.560749]}}, {"type": "Feature", "properties": {"cell_id": "882baa4543fffff"}, "geometry": {"type": "Point", "coordinates": [-73.673433, 45.55245]}}, {"type": "Feature", "properties": {"cell_id": "882baa4545fffff"}, "geometry": {"type": "Point", "coordinates": [-73.688062, 45.56328]}}, {"type": "Feature", "properties": {"cell_id": "882baa4547fffff"}, "geometry": {"type": "Point", "coordinates": [-73.685399, 45.554981]}}, {"type": "Feature", "properties": {"cell_id": "882baa4549fffff"}, "geometry": {"type": "Point", "coordinates": [-73.666785, 45.566517]}}, {"type": "Feature", "properties": {"cell_id": "882baa454bfffff"}, "geometry": {"type": "Point", "coordinates": [-73.664126, 45.558217]}}, {"type": "Feature", "properties": {"cell_id": "882baa454dfffff"}, "geometry": {"type": "Point", "coordinates": [-73.678755, 45.569049]}}, {"type": "Feature", "properties": {"cell_id": "882baa4551fffff"}, "geometry": {"type": "Point", "coordinates": [-73.65881, 45.541619]}}, {"type": "Feature", "properties": {"cell_id": "882baa4553fffff"}, "geometry": {"type": "Point", "coordinates": [-73.656154, 45.533321]}}, {"type": "Feature", "properties": {"cell_id": "882baa4555fffff"}, "geometry": {"type": "Point", "coordinates": [-73.670773, 45.544151]}}, {"type": "Feature", "properties": {"cell_id": "882baa4557fffff"}, "geometry": {"type": "Point", "coordinates": [-73.668114, 45.535853]}}, {"type": "Feature", "properties": {"cell_id": "882baa4559fffff"}, "geometry": {"type": "Point", "coordinates": [-73.649504, 45.547385]}}, {"type": "Feature", "properties": {"cell_id": "882baa455bfffff"}, "geometry": {"type": "Point", "coordinates": [-73.646849, 45.539086]}}, {"type": "Feature", "properties": {"cell_id": "882baa455dfffff"}, "geometry": {"type": "Point", "coordinates": [-73.661468, 45.549918]}}, {"type": "Feature", "properties": {"cell_id": "882baa4561fffff"}, "geometry": {"type": "Point", "coordinates": [-73.709336, 45.560039]}}, {"type": "Feature", "properties": {"cell_id": "882baa4563fffff"}, "geometry": {"type": "Point", "coordinates": [-73.706669, 45.551741]}}, {"type": "Feature", "properties": {"cell_id": "882baa4565fffff"}, "geometry": {"type": "Point", "coordinates": [-73.721307, 45.562566]}}, {"type": "Feature", "properties": {"cell_id": "882baa4567fffff"}, "geometry": {"type": "Point", "coordinates": [-73.718638, 45.554268]}}, {"type": "Feature", "properties": {"cell_id": "882baa4569fffff"}, "geometry": {"type": "Point", "coordinates": [-73.700033, 45.565809]}}, {"type": "Feature", "properties": {"cell_id": "882baa456bfffff"}, "geometry": {"type": "Point", "coordinates": [-73.697367, 45.55751]}}, {"type": "Feature", "properties": {"cell_id": "882baa4581fffff"}, "geometry": {"type": "Point", "coordinates": [-73.673421, 45.482846]}}, {"type": "Feature", "properties": {"cell_id": "882baa4583fffff"}, "geometry": {"type": "Point", "coordinates": [-73.670766, 45.474553]}}, {"type": "Feature", "properties": {"cell_id": "882baa4585fffff"}, "geometry": {"type": "Point", "coordinates": [-73.685369, 45.485375]}}, {"type": "Feature", "properties": {"cell_id": "882baa4587fffff"}, "geometry": {"type": "Point", "coordinates": [-73.682711, 45.477082]}}, {"type": "Feature", "properties": {"cell_id": "882baa4589fffff"}, "geometry": {"type": "Point", "coordinates": [-73.664129, 45.48861]}}, {"type": "Feature", "properties": {"cell_id": "882baa458bfffff"}, "geometry": {"type": "Point", "coordinates": [-73.661475, 45.480316]}}, {"type": "Feature", "properties": {"cell_id": "882baa458dfffff"}, "geometry": {"type": "Point", "coordinates": [-73.676078, 45.49114]}}, {"type": "Feature", "properties": {"cell_id": "882baa4591fffff"}, "geometry": {"type": "Point", "coordinates": [-73.65617, 45.46373]}}, {"type": "Feature", "properties": {"cell_id": "882baa4593fffff"}, "geometry": {"type": "Point", "coordinates": [-73.653518, 45.455438]}}, {"type": "Feature", "properties": {"cell_id": "882baa4595fffff"}, "geometry": {"type": "Point", "coordinates": [-73.668111, 45.46626]}}, {"type": "Feature", "properties": {"cell_id": "882baa4597fffff"}, "geometry": {"type": "Point", "coordinates": [-73.665457, 45.457969]}}, {"type": "Feature", "properties": {"cell_id": "882baa4599fffff"}, "geometry": {"type": "Point", "coordinates": [-73.646879, 45.469492]}}, {"type": "Feature", "properties": {"cell_id": "882baa459bfffff"}, "geometry": {"type": "Point", "coordinates": [-73.644229, 45.461199]}}, {"type": "Feature", "properties": {"cell_id": "882baa459dfffff"}, "geometry": {"type": "Point", "coordinates": [-73.658822, 45.472023]}}, {"type": "Feature", "properties": {"cell_id": "882baa45a1fffff"}, "geometry": {"type": "Point", "coordinates": [-73.706606, 45.482136]}}, {"type": "Feature", "properties": {"cell_id": "882baa45a3fffff"}, "geometry": {"type": "Point", "coordinates": [-73.703944, 45.473844]}}, {"type": "Feature", "properties": {"cell_id": "882baa45a5fffff"}, "geometry": {"type": "Point", "coordinates": [-73.718556, 45.484662]}}, {"type": "Feature", "properties": {"cell_id": "882baa45a7fffff"}, "geometry": {"type": "Point", "coordinates": [-73.715892, 45.476369]}}, {"type": "Feature", "properties": {"cell_id": "882baa45a9fffff"}, "geometry": {"type": "Point", "coordinates": [-73.697318, 45.487903]}}, {"type": "Feature", "properties": {"cell_id": "882baa45abfffff"}, "geometry": {"type": "Point", "coordinates": [-73.694658, 45.47961]}}, {"type": "Feature", "properties": {"cell_id": "882baa45adfffff"}, "geometry": {"type": "Point", "coordinates": [-73.709269, 45.490429]}}, {"type": "Feature", "properties": {"cell_id": "882baa45b1fffff"}, "geometry": {"type": "Point", "coordinates": [-73.68934, 45.463026]}}, {"type": "Feature", "properties": {"cell_id": "882baa45b3fffff"}, "geometry": {"type": "Point", "coordinates": [-73.686683, 45.454734]}}, {"type": "Feature", "properties": {"cell_id": "882baa45b5fffff"}, "geometry": {"type": "Point", "coordinates": [-73.701284, 45.465552]}}, {"type": "Feature", "properties": {"cell_id": "882baa45b7fffff"}, "geometry": {"type": "Point", "coordinates": [-73.698624, 45.457261]}}, {"type": "Feature", "properties": {"cell_id": "882baa45b9fffff"}, "geometry": {"type": "Point", "coordinates": [-73.680054, 45.468789]}}, {"type": "Feature", "properties": {"cell_id": "882baa45bbfffff"}, "geometry": {"type": "Point", "coordinates": [-73.677398, 45.460498]}}, {"type": "Feature", "properties": {"cell_id": "882baa45bdfffff"}, "geometry": {"type": "Point", "coordinates": [-73.691998, 45.471317]}}, {"type": "Feature", "properties": {"cell_id": "882baa45c1fffff"}, "geometry": {"type": "Point", "coordinates": [-73.657489, 45.502668]}}, {"type": "Feature", "properties": {"cell_id": "882baa45c3fffff"}, "geometry": {"type": "Point", "coordinates": [-73.654835, 45.494373]}}, {"type": "Feature", "properties": {"cell_id": "882baa45c5fffff"}, "geometry": {"type": "Point", "coordinates": [-73.669441, 45.505199]}}, {"type": "Feature", "properties": {"cell_id": "882baa45c7fffff"}, "geometry": {"type": "Point", "coordinates": [-73.666785, 45.496904]}}, {"type": "Feature", "properties": {"cell_id": "882baa45c9fffff"}, "geometry": {"type": "Point", "coordinates": [-73.648191, 45.508431]}}, {"type": "Feature", "properties": {"cell_id": "882baa45cbfffff"}, "geometry": {"type": "Point", "coordinates": [-73.645538, 45.500135]}}, {"type": "Feature", "properties": {"cell_id": "882baa45cdfffff"}, "geometry": {"type": "Point", "coordinates": [-73.660144, 45.510963]}}, {"type": "Feature", "properties": {"cell_id": "882baa45d1fffff"}, "geometry": {"type": "Point", "coordinates": [-73.640236, 45.483546]}}, {"type": "Feature", "properties": {"cell_id": "882baa45d3fffff"}, "geometry": {"type": "Point", "coordinates": [-73.637587, 45.475252]}}, {"type": "Feature", "properties": {"cell_id": "882baa45d5fffff"}, "geometry": {"type": "Point", "coordinates": [-73.652182, 45.486078]}}, {"type": "Feature", "properties": {"cell_id": "882baa45d7fffff"}, "geometry": {"type": "Point", "coordinates": [-73.64953, 45.477785]}}, {"type": "Feature", "properties": {"cell_id": "882baa45d9fffff"}, "geometry": {"type": "Point", "coordinates": [-73.63094, 45.489307]}}, {"type": "Feature", "properties": {"cell_id": "882baa45dbfffff"}, "geometry": {"type": "Point", "coordinates": [-73.628292, 45.481013]}}, {"type": "Feature", "properties": {"cell_id": "882baa45ddfffff"}, "geometry": {"type": "Point", "coordinates": [-73.642887, 45.49184]}}, {"type": "Feature", "properties": {"cell_id": "882baa45e1fffff"}, "geometry": {"type": "Point", "coordinates": [-73.690688, 45.501963]}}, {"type": "Feature", "properties": {"cell_id": "882baa45e3fffff"}, "geometry": {"type": "Point", "coordinates": [-73.688028, 45.493669]}}, {"type": "Feature", "properties": {"cell_id": "882baa45e5fffff"}, "geometry": {"type": "Point", "coordinates": [-73.702642, 45.50449]}}, {"type": "Feature", "properties": {"cell_id": "882baa45e7fffff"}, "geometry": {"type": "Point", "coordinates": [-73.69998, 45.496196]}}, {"type": "Feature", "properties": {"cell_id": "882baa45e9fffff"}, "geometry": {"type": "Point", "coordinates": [-73.681394, 45.507729]}}, {"type": "Feature", "properties": {"cell_id": "882baa45ebfffff"}, "geometry": {"type": "Point", "coordinates": [-73.678736, 45.499434]}}, {"type": "Feature", "properties": {"cell_id": "882baa45edfffff"}, "geometry": {"type": "Point", "coordinates": [-73.693349, 45.510258]}}, {"type": "Feature", "properties": {"cell_id": "882baa4601fffff"}, "geometry": {"type": "Point", "coordinates": [-73.54312, 45.563493]}}, {"type": "Feature", "properties": {"cell_id": "882baa4603fffff"}, "geometry": {"type": "Point", "coordinates": [-73.540484, 45.555191]}}, {"type": "Feature", "properties": {"cell_id": "882baa4605fffff"}, "geometry": {"type": "Point", "coordinates": [-73.555081, 45.566037]}}, {"type": "Feature", "properties": {"cell_id": "882baa4607fffff"}, "geometry": {"type": "Point", "coordinates": [-73.552442, 45.557735]}}, {"type": "Feature", "properties": {"cell_id": "882baa4609fffff"}, "geometry": {"type": "Point", "coordinates": [-73.533795, 45.569249]}}, {"type": "Feature", "properties": {"cell_id": "882baa460bfffff"}, "geometry": {"type": "Point", "coordinates": [-73.53116, 45.560947]}}, {"type": "Feature", "properties": {"cell_id": "882baa460dfffff"}, "geometry": {"type": "Point", "coordinates": [-73.545757, 45.571795]}}, {"type": "Feature", "properties": {"cell_id": "882baa4611fffff"}, "geometry": {"type": "Point", "coordinates": [-73.525894, 45.544343]}}, {"type": "Feature", "properties": {"cell_id": "882baa4615fffff"}, "geometry": {"type": "Point", "coordinates": [-73.537849, 45.546889]}}, {"type": "Feature", "properties": {"cell_id": "882baa4617fffff"}, "geometry": {"type": "Point", "coordinates": [-73.535215, 45.538588]}}, {"type": "Feature", "properties": {"cell_id": "882baa4619fffff"}, "geometry": {"type": "Point", "coordinates": [-73.516572, 45.550098]}}, {"type": "Feature", "properties": {"cell_id": "882baa461dfffff"}, "geometry": {"type": "Point", "coordinates": [-73.528527, 45.552645]}}, {"type": "Feature", "properties": {"cell_id": "882baa4621fffff"}, "geometry": {"type": "Point", "coordinates": [-73.576363, 45.562821]}}, {"type": "Feature", "properties": {"cell_id": "882baa4623fffff"}, "geometry": {"type": "Point", "coordinates": [-73.573721, 45.55452]}}, {"type": "Feature", "properties": {"cell_id": "882baa4625fffff"}, "geometry": {"type": "Point", "coordinates": [-73.588326, 45.565362]}}, {"type": "Feature", "properties": {"cell_id": "882baa4627fffff"}, "geometry": {"type": "Point", "coordinates": [-73.585682, 45.557061]}}, {"type": "Feature", "properties": {"cell_id": "882baa4629fffff"}, "geometry": {"type": "Point", "coordinates": [-73.567043, 45.568581]}}, {"type": "Feature", "properties": {"cell_id": "882baa462bfffff"}, "geometry": {"type": "Point", "coordinates": [-73.564402, 45.560279]}}, {"type": "Feature", "properties": {"cell_id": "882baa462dfffff"}, "geometry": {"type": "Point", "coordinates": [-73.579007, 45.571123]}}, {"type": "Feature", "properties": {"cell_id": "882baa4631fffff"}, "geometry": {"type": "Point", "coordinates": [-73.559124, 45.543677]}}, {"type": "Feature", "properties": {"cell_id": "882baa4633fffff"}, "geometry": {"type": "Point", "coordinates": [-73.556486, 45.535377]}}, {"type": "Feature", "properties": {"cell_id": "882baa4635fffff"}, "geometry": {"type": "Point", "coordinates": [-73.57108, 45.546219]}}, {"type": "Feature", "properties": {"cell_id": "882baa4637fffff"}, "geometry": {"type": "Point", "coordinates": [-73.56844, 45.537919]}}, {"type": "Feature", "properties": {"cell_id": "882baa4639fffff"}, "geometry": {"type": "Point", "coordinates": [-73.549805, 45.549434]}}, {"type": "Feature", "properties": {"cell_id": "882baa463bfffff"}, "geometry": {"type": "Point", "coordinates": [-73.547169, 45.541133]}}, {"type": "Feature", "properties": {"cell_id": "882baa463dfffff"}, "geometry": {"type": "Point", "coordinates": [-73.561762, 45.551977]}}, {"type": "Feature", "properties": {"cell_id": "882baa4641fffff"}, "geometry": {"type": "Point", "coordinates": [-73.527102, 45.583309]}}, {"type": "Feature", "properties": {"cell_id": "882baa4643fffff"}, "geometry": {"type": "Point", "coordinates": [-73.524468, 45.575006]}}, {"type": "Feature", "properties": {"cell_id": "882baa4645fffff"}, "geometry": {"type": "Point", "coordinates": [-73.539067, 45.585856]}}, {"type": "Feature", "properties": {"cell_id": "882baa4647fffff"}, "geometry": {"type": "Point", "coordinates": [-73.53643, 45.577553]}}, {"type": "Feature", "properties": {"cell_id": "882baa4649fffff"}, "geometry": {"type": "Point", "coordinates": [-73.517771, 45.589066]}}, {"type": "Feature", "properties": {"cell_id": "882baa464bfffff"}, "geometry": {"type": "Point", "coordinates": [-73.515138, 45.580761]}}, {"type": "Feature", "properties": {"cell_id": "882baa464dfffff"}, "geometry": {"type": "Point", "coordinates": [-73.529737, 45.591614]}}, {"type": "Feature", "properties": {"cell_id": "882baa4655fffff"}, "geometry": {"type": "Point", "coordinates": [-73.521835, 45.566702]}}, {"type": "Feature", "properties": {"cell_id": "882baa4657fffff"}, "geometry": {"type": "Point", "coordinates": [-73.519203, 45.5584]}}, {"type": "Feature", "properties": {"cell_id": "882baa465dfffff"}, "geometry": {"type": "Point", "coordinates": [-73.512507, 45.572458]}}, {"type": "Feature", "properties": {"cell_id": "882baa4661fffff"}, "geometry": {"type": "Point", "coordinates": [-73.56036, 45.582643]}}, {"type": "Feature", "properties": {"cell_id": "882baa4663fffff"}, "geometry": {"type": "Point", "coordinates": [-73.55772, 45.57434]}}, {"type": "Feature", "properties": {"cell_id": "882baa4665fffff"}, "geometry": {"type": "Point", "coordinates": [-73.572327, 45.585186]}}, {"type": "Feature", "properties": {"cell_id": "882baa4667fffff"}, "geometry": {"type": "Point", "coordinates": [-73.569684, 45.576883]}}, {"type": "Feature", "properties": {"cell_id": "882baa4669fffff"}, "geometry": {"type": "Point", "coordinates": [-73.551033, 45.588402]}}, {"type": "Feature", "properties": {"cell_id": "882baa466bfffff"}, "geometry": {"type": "Point", "coordinates": [-73.548395, 45.580098]}}, {"type": "Feature", "properties": {"cell_id": "882baa466dfffff"}, "geometry": {"type": "Point", "coordinates": [-73.563001, 45.590947]}}, {"type": "Feature", "properties": {"cell_id": "882baa46a1fffff"}, "geometry": {"type": "Point", "coordinates": [-73.557889, 45.504725]}}, {"type": "Feature", "properties": {"cell_id": "882baa46a3fffff"}, "geometry": {"type": "Point", "coordinates": [-73.555254, 45.496428]}}, {"type": "Feature", "properties": {"cell_id": "882baa46a5fffff"}, "geometry": {"type": "Point", "coordinates": [-73.569835, 45.507266]}}, {"type": "Feature", "properties": {"cell_id": "882baa46a7fffff"}, "geometry": {"type": "Point", "coordinates": [-73.567198, 45.498969]}}, {"type": "Feature", "properties": {"cell_id": "882baa46a9fffff"}, "geometry": {"type": "Point", "coordinates": [-73.548578, 45.51048]}}, {"type": "Feature", "properties": {"cell_id": "882baa46abfffff"}, "geometry": {"type": "Point", "coordinates": [-73.545945, 45.502182]}}, {"type": "Feature", "properties": {"cell_id": "882baa46adfffff"}, "geometry": {"type": "Point", "coordinates": [-73.560525, 45.513023]}}, {"type": "Feature", "properties": {"cell_id": "882baa46b5fffff"}, "geometry": {"type": "Point", "coordinates": [-73.55262, 45.488131]}}, {"type": "Feature", "properties": {"cell_id": "882baa46b7fffff"}, "geometry": {"type": "Point", "coordinates": [-73.549986, 45.479835]}}, {"type": "Feature", "properties": {"cell_id": "882baa46e1fffff"}, "geometry": {"type": "Point", "coordinates": [-73.541899, 45.524534]}}, {"type": "Feature", "properties": {"cell_id": "882baa46e3fffff"}, "geometry": {"type": "Point", "coordinates": [-73.539265, 45.516235]}}, {"type": "Feature", "properties": {"cell_id": "882baa46e5fffff"}, "geometry": {"type": "Point", "coordinates": [-73.553849, 45.527077]}}, {"type": "Feature", "properties": {"cell_id": "882baa46e7fffff"}, "geometry": {"type": "Point", "coordinates": [-73.551213, 45.518778]}}, {"type": "Feature", "properties": {"cell_id": "882baa46e9fffff"}, "geometry": {"type": "Point", "coordinates": [-73.532582, 45.530288]}}, {"type": "Feature", "properties": {"cell_id": "882baa46edfffff"}, "geometry": {"type": "Point", "coordinates": [-73.544533, 45.532833]}}, {"type": "Feature", "properties": {"cell_id": "882baa4701fffff"}, "geometry": {"type": "Point", "coordinates": [-73.626876, 45.581281]}}, {"type": "Feature", "properties": {"cell_id": "882baa4703fffff"}, "geometry": {"type": "Point", "coordinates": [-73.624223, 45.572979]}}, {"type": "Feature", "properties": {"cell_id": "882baa4705fffff"}, "geometry": {"type": "Point", "coordinates": [-73.638847, 45.583817]}}, {"type": "Feature", "properties": {"cell_id": "882baa4707fffff"}, "geometry": {"type": "Point", "coordinates": [-73.636192, 45.575515]}}, {"type": "Feature", "properties": {"cell_id": "882baa4709fffff"}, "geometry": {"type": "Point", "coordinates": [-73.617558, 45.587045]}}, {"type": "Feature", "properties": {"cell_id": "882baa470bfffff"}, "geometry": {"type": "Point", "coordinates": [-73.614907, 45.578743]}}, {"type": "Feature", "properties": {"cell_id": "882baa470dfffff"}, "geometry": {"type": "Point", "coordinates": [-73.62953, 45.589583]}}, {"type": "Feature", "properties": {"cell_id": "882baa4711fffff"}, "geometry": {"type": "Point", "coordinates": [-73.609607, 45.56214]}}, {"type": "Feature", "properties": {"cell_id": "882baa4713fffff"}, "geometry": {"type": "Point", "coordinates": [-73.606959, 45.55384]}}, {"type": "Feature", "properties": {"cell_id": "882baa4715fffff"}, "geometry": {"type": "Point", "coordinates": [-73.621572, 45.564678]}}, {"type": "Feature", "properties": {"cell_id": "882baa4717fffff"}, "geometry": {"type": "Point", "coordinates": [-73.618921, 45.556377]}}, {"type": "Feature", "properties": {"cell_id": "882baa4719fffff"}, "geometry": {"type": "Point", "coordinates": [-73.60029, 45.567902]}}, {"type": "Feature", "properties": {"cell_id": "882baa471bfffff"}, "geometry": {"type": "Point", "coordinates": [-73.597644, 45.559601]}}, {"type": "Feature", "properties": {"cell_id": "882baa471dfffff"}, "geometry": {"type": "Point", "coordinates": [-73.612256, 45.570441]}}, {"type": "Feature", "properties": {"cell_id": "882baa4721fffff"}, "geometry": {"type": "Point", "coordinates": [-73.660134, 45.580585]}}, {"type": "Feature", "properties": {"cell_id": "882baa4723fffff"}, "geometry": {"type": "Point", "coordinates": [-73.657475, 45.572284]}}, {"type": "Feature", "properties": {"cell_id": "882baa4725fffff"}, "geometry": {"type": "Point", "coordinates": [-73.672107, 45.583118]}}, {"type": "Feature", "properties": {"cell_id": "882baa4727fffff"}, "geometry": {"type": "Point", "coordinates": [-73.669446, 45.574817]}}, {"type": "Feature", "properties": {"cell_id": "882baa4729fffff"}, "geometry": {"type": "Point", "coordinates": [-73.65082, 45.586352]}}, {"type": "Feature", "properties": {"cell_id": "882baa472bfffff"}, "geometry": {"type": "Point", "coordinates": [-73.648162, 45.578051]}}, {"type": "Feature", "properties": {"cell_id": "882baa4731fffff"}, "geometry": {"type": "Point", "coordinates": [-73.64285, 45.561449]}}, {"type": "Feature", "properties": {"cell_id": "882baa4733fffff"}, "geometry": {"type": "Point", "coordinates": [-73.640196, 45.55315]}}, {"type": "Feature", "properties": {"cell_id": "882baa4735fffff"}, "geometry": {"type": "Point", "coordinates": [-73.654817, 45.563984]}}, {"type": "Feature", "properties": {"cell_id": "882baa4737fffff"}, "geometry": {"type": "Point", "coordinates": [-73.65216, 45.555684]}}, {"type": "Feature", "properties": {"cell_id": "882baa4739fffff"}, "geometry": {"type": "Point", "coordinates": [-73.633538, 45.567214]}}, {"type": "Feature", "properties": {"cell_id": "882baa473bfffff"}, "geometry": {"type": "Point", "coordinates": [-73.630885, 45.558914]}}, {"type": "Feature", "properties": {"cell_id": "882baa473dfffff"}, "geometry": {"type": "Point", "coordinates": [-73.645506, 45.56975]}}, {"type": "Feature", "properties": {"cell_id": "882baa4741fffff"}, "geometry": {"type": "Point", "coordinates": [-73.610888, 45.601113]}}, {"type": "Feature", "properties": {"cell_id": "882baa4743fffff"}, "geometry": {"type": "Point", "coordinates": [-73.608237, 45.592809]}}, {"type": "Feature", "properties": {"cell_id": "882baa4745fffff"}, "geometry": {"type": "Point", "coordinates": [-73.622864, 45.603652]}}, {"type": "Feature", "properties": {"cell_id": "882baa4747fffff"}, "geometry": {"type": "Point", "coordinates": [-73.62021, 45.595348]}}, {"type": "Feature", "properties": {"cell_id": "882baa4749fffff"}, "geometry": {"type": "Point", "coordinates": [-73.601564, 45.606877]}}, {"type": "Feature", "properties": {"cell_id": "882baa474bfffff"}, "geometry": {"type": "Point", "coordinates": [-73.598914, 45.598573]}}, {"type": "Feature", "properties": {"cell_id": "882baa474dfffff"}, "geometry": {"type": "Point", "coordinates": [-73.61354, 45.609417]}}, {"type": "Feature", "properties": {"cell_id": "882baa4751fffff"}, "geometry": {"type": "Point", "coordinates": [-73.593618, 45.581967]}}, {"type": "Feature", "properties": {"cell_id": "882baa4753fffff"}, "geometry": {"type": "Point", "coordinates": [-73.590972, 45.573664]}}, {"type": "Feature", "properties": {"cell_id": "882baa4755fffff"}, "geometry": {"type": "Point", "coordinates": [-73.605587, 45.584506]}}, {"type": "Feature", "properties": {"cell_id": "882baa4757fffff"}, "geometry": {"type": "Point", "coordinates": [-73.602938, 45.576204]}}, {"type": "Feature", "properties": {"cell_id": "882baa4759fffff"}, "geometry": {"type": "Point", "coordinates": [-73.584296, 45.587728]}}, {"type": "Feature", "properties": {"cell_id": "882baa475bfffff"}, "geometry": {"type": "Point", "coordinates": [-73.581651, 45.579425]}}, {"type": "Feature", "properties": {"cell_id": "882baa475dfffff"}, "geometry": {"type": "Point", "coordinates": [-73.596266, 45.59027]}}, {"type": "Feature", "properties": {"cell_id": "882baa4761fffff"}, "geometry": {"type": "Point", "coordinates": [-73.644161, 45.600422]}}, {"type": "Feature", "properties": {"cell_id": "882baa4763fffff"}, "geometry": {"type": "Point", "coordinates": [-73.641504, 45.592119]}}, {"type": "Feature", "properties": {"cell_id": "882baa4769fffff"}, "geometry": {"type": "Point", "coordinates": [-73.63484, 45.606189]}}, {"type": "Feature", "properties": {"cell_id": "882baa476bfffff"}, "geometry": {"type": "Point", "coordinates": [-73.632185, 45.597886]}}, {"type": "Feature", "properties": {"cell_id": "882baa4c01fffff"}, "geometry": {"type": "Point", "coordinates": [-73.840823, 45.518145]}}, {"type": "Feature", "properties": {"cell_id": "882baa4c03fffff"}, "geometry": {"type": "Point", "coordinates": [-73.838134, 45.509852]}}, {"type": "Feature", "properties": {"cell_id": "882baa4c05fffff"}, "geometry": {"type": "Point", "coordinates": [-73.852792, 45.520657]}}, {"type": "Feature", "properties": {"cell_id": "882baa4c07fffff"}, "geometry": {"type": "Point", "coordinates": [-73.8501, 45.512365]}}, {"type": "Feature", "properties": {"cell_id": "882baa4c09fffff"}, "geometry": {"type": "Point", "coordinates": [-73.831544, 45.523924]}}, {"type": "Feature", "properties": {"cell_id": "882baa4c0bfffff"}, "geometry": {"type": "Point", "coordinates": [-73.828857, 45.515631]}}, {"type": "Feature", "properties": {"cell_id": "882baa4c0dfffff"}, "geometry": {"type": "Point", "coordinates": [-73.843514, 45.526438]}}, {"type": "Feature", "properties": {"cell_id": "882baa4c11fffff"}, "geometry": {"type": "Point", "coordinates": [-73.823484, 45.499046]}}, {"type": "Feature", "properties": {"cell_id": "882baa4c13fffff"}, "geometry": {"type": "Point", "coordinates": [-73.820799, 45.490755]}}, {"type": "Feature", "properties": {"cell_id": "882baa4c15fffff"}, "geometry": {"type": "Point", "coordinates": [-73.835446, 45.50156]}}, {"type": "Feature", "properties": {"cell_id": "882baa4c17fffff"}, "geometry": {"type": "Point", "coordinates": [-73.832759, 45.493269]}}, {"type": "Feature", "properties": {"cell_id": "882baa4c19fffff"}, "geometry": {"type": "Point", "coordinates": [-73.814207, 45.504823]}}, {"type": "Feature", "properties": {"cell_id": "882baa4c1bfffff"}, "geometry": {"type": "Point", "coordinates": [-73.811523, 45.496531]}}, {"type": "Feature", "properties": {"cell_id": "882baa4c1dfffff"}, "geometry": {"type": "Point", "coordinates": [-73.82617, 45.507338]}}, {"type": "Feature", "properties": {"cell_id": "882baa4c21fffff"}, "geometry": {"type": "Point", "coordinates": [-73.874036, 45.517387]}}, {"type": "Feature", "properties": {"cell_id": "882baa4c23fffff"}, "geometry": {"type": "Point", "coordinates": [-73.87134, 45.509095]}}, {"type": "Feature", "properties": {"cell_id": "882baa4c27fffff"}, "geometry": {"type": "Point", "coordinates": [-73.883308, 45.511604]}}, {"type": "Feature", "properties": {"cell_id": "882baa4c2bfffff"}, "geometry": {"type": "Point", "coordinates": [-73.862067, 45.514876]}}, {"type": "Feature", "properties": {"cell_id": "882baa4c31fffff"}, "geometry": {"type": "Point", "coordinates": [-73.856682, 45.498293]}}, {"type": "Feature", "properties": {"cell_id": "882baa4c33fffff"}, "geometry": {"type": "Point", "coordinates": [-73.853991, 45.490003]}}, {"type": "Feature", "properties": {"cell_id": "882baa4c35fffff"}, "geometry": {"type": "Point", "coordinates": [-73.868646, 45.500804]}}, {"type": "Feature", "properties": {"cell_id": "882baa4c37fffff"}, "geometry": {"type": "Point", "coordinates": [-73.865953, 45.492513]}}, {"type": "Feature", "properties": {"cell_id": "882baa4c39fffff"}, "geometry": {"type": "Point", "coordinates": [-73.847409, 45.504073]}}, {"type": "Feature", "properties": {"cell_id": "882baa4c3bfffff"}, "geometry": {"type": "Point", "coordinates": [-73.84472, 45.495782]}}, {"type": "Feature", "properties": {"cell_id": "882baa4c3dfffff"}, "geometry": {"type": "Point", "coordinates": [-73.859374, 45.506584]}}, {"type": "Feature", "properties": {"cell_id": "882baa4c43fffff"}, "geometry": {"type": "Point", "coordinates": [-73.822263, 45.529703]}}, {"type": "Feature", "properties": {"cell_id": "882baa4c4bfffff"}, "geometry": {"type": "Point", "coordinates": [-73.81298, 45.535481]}}, {"type": "Feature", "properties": {"cell_id": "882baa4c51fffff"}, "geometry": {"type": "Point", "coordinates": [-73.80761, 45.518893]}}, {"type": "Feature", "properties": {"cell_id": "882baa4c53fffff"}, "geometry": {"type": "Point", "coordinates": [-73.804927, 45.5106]}}, {"type": "Feature", "properties": {"cell_id": "882baa4c55fffff"}, "geometry": {"type": "Point", "coordinates": [-73.819577, 45.521409]}}, {"type": "Feature", "properties": {"cell_id": "882baa4c57fffff"}, "geometry": {"type": "Point", "coordinates": [-73.816891, 45.513116]}}, {"type": "Feature", "properties": {"cell_id": "882baa4c59fffff"}, "geometry": {"type": "Point", "coordinates": [-73.798327, 45.52467]}}, {"type": "Feature", "properties": {"cell_id": "882baa4c5bfffff"}, "geometry": {"type": "Point", "coordinates": [-73.795646, 45.516376]}}, {"type": "Feature", "properties": {"cell_id": "882baa4c5dfffff"}, "geometry": {"type": "Point", "coordinates": [-73.810294, 45.527187]}}, {"type": "Feature", "properties": {"cell_id": "882baa4c81fffff"}, "geometry": {"type": "Point", "coordinates": [-73.82202, 45.46011]}}, {"type": "Feature", "properties": {"cell_id": "882baa4c83fffff"}, "geometry": {"type": "Point", "coordinates": [-73.819338, 45.451822]}}, {"type": "Feature", "properties": {"cell_id": "882baa4c85fffff"}, "geometry": {"type": "Point", "coordinates": [-73.833971, 45.462623]}}, {"type": "Feature", "properties": {"cell_id": "882baa4c87fffff"}, "geometry": {"type": "Point", "coordinates": [-73.831287, 45.454335]}}, {"type": "Feature", "properties": {"cell_id": "882baa4c89fffff"}, "geometry": {"type": "Point", "coordinates": [-73.812751, 45.465885]}}, {"type": "Feature", "properties": {"cell_id": "882baa4c8bfffff"}, "geometry": {"type": "Point", "coordinates": [-73.81007, 45.457596]}}, {"type": "Feature", "properties": {"cell_id": "882baa4c8dfffff"}, "geometry": {"type": "Point", "coordinates": [-73.824703, 45.468399]}}, {"type": "Feature", "properties": {"cell_id": "882baa4c91fffff"}, "geometry": {"type": "Point", "coordinates": [-73.804711, 45.44102]}}, {"type": "Feature", "properties": {"cell_id": "882baa4c93fffff"}, "geometry": {"type": "Point", "coordinates": [-73.802033, 45.432733]}}, {"type": "Feature", "properties": {"cell_id": "882baa4c95fffff"}, "geometry": {"type": "Point", "coordinates": [-73.816656, 45.443534]}}, {"type": "Feature", "properties": {"cell_id": "882baa4c97fffff"}, "geometry": {"type": "Point", "coordinates": [-73.813976, 45.435247]}}, {"type": "Feature", "properties": {"cell_id": "882baa4c99fffff"}, "geometry": {"type": "Point", "coordinates": [-73.795444, 45.446792]}}, {"type": "Feature", "properties": {"cell_id": "882baa4c9bfffff"}, "geometry": {"type": "Point", "coordinates": [-73.792767, 45.438505]}}, {"type": "Feature", "properties": {"cell_id": "882baa4c9dfffff"}, "geometry": {"type": "Point", "coordinates": [-73.80739, 45.449308]}}, {"type": "Feature", "properties": {"cell_id": "882baa4ca1fffff"}, "geometry": {"type": "Point", "coordinates": [-73.855189, 45.459357]}}, {"type": "Feature", "properties": {"cell_id": "882baa4ca3fffff"}, "geometry": {"type": "Point", "coordinates": [-73.852501, 45.45107]}}, {"type": "Feature", "properties": {"cell_id": "882baa4ca5fffff"}, "geometry": {"type": "Point", "coordinates": [-73.867142, 45.461867]}}, {"type": "Feature", "properties": {"cell_id": "882baa4ca7fffff"}, "geometry": {"type": "Point", "coordinates": [-73.864452, 45.453579]}}, {"type": "Feature", "properties": {"cell_id": "882baa4ca9fffff"}, "geometry": {"type": "Point", "coordinates": [-73.845924, 45.465135]}}, {"type": "Feature", "properties": {"cell_id": "882baa4cabfffff"}, "geometry": {"type": "Point", "coordinates": [-73.843237, 45.456846]}}, {"type": "Feature", "properties": {"cell_id": "882baa4cadfffff"}, "geometry": {"type": "Point", "coordinates": [-73.857878, 45.467645]}}, {"type": "Feature", "properties": {"cell_id": "882baa4cb1fffff"}, "geometry": {"type": "Point", "coordinates": [-73.837866, 45.440272]}}, {"type": "Feature", "properties": {"cell_id": "882baa4cb3fffff"}, "geometry": {"type": "Point", "coordinates": [-73.835182, 45.431985]}}, {"type": "Feature", "properties": {"cell_id": "882baa4cb5fffff"}, "geometry": {"type": "Point", "coordinates": [-73.849813, 45.442783]}}, {"type": "Feature", "properties": {"cell_id": "882baa4cb7fffff"}, "geometry": {"type": "Point", "coordinates": [-73.847127, 45.434496]}}, {"type": "Feature", "properties": {"cell_id": "882baa4cb9fffff"}, "geometry": {"type": "Point", "coordinates": [-73.828603, 45.446047]}}, {"type": "Feature", "properties": {"cell_id": "882baa4cbbfffff"}, "geometry": {"type": "Point", "coordinates": [-73.82592, 45.43776]}}, {"type": "Feature", "properties": {"cell_id": "882baa4cbdfffff"}, "geometry": {"type": "Point", "coordinates": [-73.840551, 45.448559]}}, {"type": "Feature", "properties": {"cell_id": "882baa4cc1fffff"}, "geometry": {"type": "Point", "coordinates": [-73.80616, 45.479949]}}, {"type": "Feature", "properties": {"cell_id": "882baa4cc3fffff"}, "geometry": {"type": "Point", "coordinates": [-73.803479, 45.471659]}}, {"type": "Feature", "properties": {"cell_id": "882baa4cc5fffff"}, "geometry": {"type": "Point", "coordinates": [-73.818115, 45.482464]}}, {"type": "Feature", "properties": {"cell_id": "882baa4cc7fffff"}, "geometry": {"type": "Point", "coordinates": [-73.815432, 45.474174]}}, {"type": "Feature", "properties": {"cell_id": "882baa4cc9fffff"}, "geometry": {"type": "Point", "coordinates": [-73.796884, 45.485724]}}, {"type": "Feature", "properties": {"cell_id": "882baa4ccbfffff"}, "geometry": {"type": "Point", "coordinates": [-73.794205, 45.477433]}}, {"type": "Feature", "properties": {"cell_id": "882baa4ccdfffff"}, "geometry": {"type": "Point", "coordinates": [-73.808841, 45.48824]}}, {"type": "Feature", "properties": {"cell_id": "882baa4cd1fffff"}, "geometry": {"type": "Point", "coordinates": [-73.78885, 45.460853]}}, {"type": "Feature", "properties": {"cell_id": "882baa4cd3fffff"}, "geometry": {"type": "Point", "coordinates": [-73.786174, 45.452564]}}, {"type": "Feature", "properties": {"cell_id": "882baa4cd5fffff"}, "geometry": {"type": "Point", "coordinates": [-73.8008, 45.46337]}}, {"type": "Feature", "properties": {"cell_id": "882baa4cd7fffff"}, "geometry": {"type": "Point", "coordinates": [-73.798121, 45.455081]}}, {"type": "Feature", "properties": {"cell_id": "882baa4cd9fffff"}, "geometry": {"type": "Point", "coordinates": [-73.779577, 45.466625]}}, {"type": "Feature", "properties": {"cell_id": "882baa4cdbfffff"}, "geometry": {"type": "Point", "coordinates": [-73.776902, 45.458336]}}, {"type": "Feature", "properties": {"cell_id": "882baa4cddfffff"}, "geometry": {"type": "Point", "coordinates": [-73.791527, 45.469143]}}, {"type": "Feature", "properties": {"cell_id": "882baa4ce1fffff"}, "geometry": {"type": "Point", "coordinates": [-73.839343, 45.479201]}}, {"type": "Feature", "properties": {"cell_id": "882baa4ce3fffff"}, "geometry": {"type": "Point", "coordinates": [-73.836657, 45.470912]}}, {"type": "Feature", "properties": {"cell_id": "882baa4ce5fffff"}, "geometry": {"type": "Point", "coordinates": [-73.851301, 45.481713]}}, {"type": "Feature", "properties": {"cell_id": "882baa4ce7fffff"}, "geometry": {"type": "Point", "coordinates": [-73.848612, 45.473423]}}, {"type": "Feature", "properties": {"cell_id": "882baa4ce9fffff"}, "geometry": {"type": "Point", "coordinates": [-73.830072, 45.484978]}}, {"type": "Feature", "properties": {"cell_id": "882baa4cebfffff"}, "geometry": {"type": "Point", "coordinates": [-73.827387, 45.476688]}}, {"type": "Feature", "properties": {"cell_id": "882baa4cedfffff"}, "geometry": {"type": "Point", "coordinates": [-73.842031, 45.487491]}}, {"type": "Feature", "properties": {"cell_id": "882baa4d81fffff"}, "geometry": {"type": "Point", "coordinates": [-73.90571, 45.477676]}}, {"type": "Feature", "properties": {"cell_id": "882baa4d83fffff"}, "geometry": {"type": "Point", "coordinates": [-73.903011, 45.469388]}}, {"type": "Feature", "properties": {"cell_id": "882baa4d85fffff"}, "geometry": {"type": "Point", "coordinates": [-73.917672, 45.480181]}}, {"type": "Feature", "properties": {"cell_id": "882baa4d87fffff"}, "geometry": {"type": "Point", "coordinates": [-73.91497, 45.471893]}}, {"type": "Feature", "properties": {"cell_id": "882baa4d89fffff"}, "geometry": {"type": "Point", "coordinates": [-73.896448, 45.483459]}}, {"type": "Feature", "properties": {"cell_id": "882baa4d8bfffff"}, "geometry": {"type": "Point", "coordinates": [-73.89375, 45.47517]}}, {"type": "Feature", "properties": {"cell_id": "882baa4d8dfffff"}, "geometry": {"type": "Point", "coordinates": [-73.90841, 45.485964]}}, {"type": "Feature", "properties": {"cell_id": "882baa4d91fffff"}, "geometry": {"type": "Point", "coordinates": [-73.888358, 45.458595]}}, {"type": "Feature", "properties": {"cell_id": "882baa4d93fffff"}, "geometry": {"type": "Point", "coordinates": [-73.885663, 45.450308]}}, {"type": "Feature", "properties": {"cell_id": "882baa4d95fffff"}, "geometry": {"type": "Point", "coordinates": [-73.900313, 45.461101]}}, {"type": "Feature", "properties": {"cell_id": "882baa4d97fffff"}, "geometry": {"type": "Point", "coordinates": [-73.897616, 45.452814]}}, {"type": "Feature", "properties": {"cell_id": "882baa4d99fffff"}, "geometry": {"type": "Point", "coordinates": [-73.879097, 45.464375]}}, {"type": "Feature", "properties": {"cell_id": "882baa4d9bfffff"}, "geometry": {"type": "Point", "coordinates": [-73.876404, 45.456087]}}, {"type": "Feature", "properties": {"cell_id": "882baa4d9dfffff"}, "geometry": {"type": "Point", "coordinates": [-73.891053, 45.466882]}}, {"type": "Feature", "properties": {"cell_id": "882baa4da3fffff"}, "geometry": {"type": "Point", "coordinates": [-73.936188, 45.468612]}}, {"type": "Feature", "properties": {"cell_id": "882baa4dabfffff"}, "geometry": {"type": "Point", "coordinates": [-73.926931, 45.474396]}}, {"type": "Feature", "properties": {"cell_id": "882baa4db1fffff"}, "geometry": {"type": "Point", "coordinates": [-73.921526, 45.457822]}}, {"type": "Feature", "properties": {"cell_id": "882baa4db3fffff"}, "geometry": {"type": "Point", "coordinates": [-73.918826, 45.449536]}}, {"type": "Feature", "properties": {"cell_id": "882baa4db5fffff"}, "geometry": {"type": "Point", "coordinates": [-73.933484, 45.460325]}}, {"type": "Feature", "properties": {"cell_id": "882baa4db7fffff"}, "geometry": {"type": "Point", "coordinates": [-73.930781, 45.452039]}}, {"type": "Feature", "properties": {"cell_id": "882baa4db9fffff"}, "geometry": {"type": "Point", "coordinates": [-73.91227, 45.463605]}}, {"type": "Feature", "properties": {"cell_id": "882baa4dbbfffff"}, "geometry": {"type": "Point", "coordinates": [-73.909571, 45.455319]}}, {"type": "Feature", "properties": {"cell_id": "882baa4dbdfffff"}, "geometry": {"type": "Point", "coordinates": [-73.924228, 45.466109]}}, {"type": "Feature", "properties": {"cell_id": "882baa4dc1fffff"}, "geometry": {"type": "Point", "coordinates": [-73.88988, 45.497531]}}, {"type": "Feature", "properties": {"cell_id": "882baa4dc3fffff"}, "geometry": {"type": "Point", "coordinates": [-73.887183, 45.489241]}}, {"type": "Feature", "properties": {"cell_id": "882baa4dc5fffff"}, "geometry": {"type": "Point", "coordinates": [-73.901846, 45.500037]}}, {"type": "Feature", "properties": {"cell_id": "882baa4dc7fffff"}, "geometry": {"type": "Point", "coordinates": [-73.899146, 45.491748]}}, {"type": "Feature", "properties": {"cell_id": "882baa4dc9fffff"}, "geometry": {"type": "Point", "coordinates": [-73.880611, 45.503313]}}, {"type": "Feature", "properties": {"cell_id": "882baa4dcbfffff"}, "geometry": {"type": "Point", "coordinates": [-73.877916, 45.495022]}}, {"type": "Feature", "properties": {"cell_id": "882baa4dcdfffff"}, "geometry": {"type": "Point", "coordinates": [-73.892578, 45.505821]}}, {"type": "Feature", "properties": {"cell_id": "882baa4dd1fffff"}, "geometry": {"type": "Point", "coordinates": [-73.872527, 45.478443]}}, {"type": "Feature", "properties": {"cell_id": "882baa4dd3fffff"}, "geometry": {"type": "Point", "coordinates": [-73.869834, 45.470155]}}, {"type": "Feature", "properties": {"cell_id": "882baa4dd5fffff"}, "geometry": {"type": "Point", "coordinates": [-73.884487, 45.480952]}}, {"type": "Feature", "properties": {"cell_id": "882baa4dd7fffff"}, "geometry": {"type": "Point", "coordinates": [-73.881791, 45.472663]}}, {"type": "Feature", "properties": {"cell_id": "882baa4dd9fffff"}, "geometry": {"type": "Point", "coordinates": [-73.86326, 45.484223]}}, {"type": "Feature", "properties": {"cell_id": "882baa4ddbfffff"}, "geometry": {"type": "Point", "coordinates": [-73.860569, 45.475934]}}, {"type": "Feature", "properties": {"cell_id": "882baa4dddfffff"}, "geometry": {"type": "Point", "coordinates": [-73.875221, 45.486733]}}, {"type": "Feature", "properties": {"cell_id": "882baa4e11fffff"}, "geometry": {"type": "Point", "coordinates": [-73.758495, 45.539475]}}, {"type": "Feature", "properties": {"cell_id": "882baa4e13fffff"}, "geometry": {"type": "Point", "coordinates": [-73.75582, 45.531179]}}, {"type": "Feature", "properties": {"cell_id": "882baa4e15fffff"}, "geometry": {"type": "Point", "coordinates": [-73.770464, 45.541997]}}, {"type": "Feature", "properties": {"cell_id": "882baa4e17fffff"}, "geometry": {"type": "Point", "coordinates": [-73.767786, 45.533701]}}, {"type": "Feature", "properties": {"cell_id": "882baa4e19fffff"}, "geometry": {"type": "Point", "coordinates": [-73.749202, 45.545248]}}, {"type": "Feature", "properties": {"cell_id": "882baa4e1bfffff"}, "geometry": {"type": "Point", "coordinates": [-73.746528, 45.536952]}}, {"type": "Feature", "properties": {"cell_id": "882baa4e1dfffff"}, "geometry": {"type": "Point", "coordinates": [-73.761171, 45.547771]}}, {"type": "Feature", "properties": {"cell_id": "882baa4e31fffff"}, "geometry": {"type": "Point", "coordinates": [-73.791723, 45.538741]}}, {"type": "Feature", "properties": {"cell_id": "882baa4e33fffff"}, "geometry": {"type": "Point", "coordinates": [-73.789042, 45.530446]}}, {"type": "Feature", "properties": {"cell_id": "882baa4e37fffff"}, "geometry": {"type": "Point", "coordinates": [-73.80101, 45.532964]}}, {"type": "Feature", "properties": {"cell_id": "882baa4e39fffff"}, "geometry": {"type": "Point", "coordinates": [-73.782434, 45.544517]}}, {"type": "Feature", "properties": {"cell_id": "882baa4e3bfffff"}, "geometry": {"type": "Point", "coordinates": [-73.779754, 45.536221]}}, {"type": "Feature", "properties": {"cell_id": "882baa4e53fffff"}, "geometry": {"type": "Point", "coordinates": [-73.739906, 45.551022]}}, {"type": "Feature", "properties": {"cell_id": "882baa4e57fffff"}, "geometry": {"type": "Point", "coordinates": [-73.751876, 45.553546]}}, {"type": "Feature", "properties": {"cell_id": "882baa4e5bfffff"}, "geometry": {"type": "Point", "coordinates": [-73.730608, 45.556794]}}, {"type": "Feature", "properties": {"cell_id": "882baa4e81fffff"}, "geometry": {"type": "Point", "coordinates": [-73.757087, 45.500524]}}, {"type": "Feature", "properties": {"cell_id": "882baa4e83fffff"}, "geometry": {"type": "Point", "coordinates": [-73.754414, 45.492231]}}, {"type": "Feature", "properties": {"cell_id": "882baa4e85fffff"}, "geometry": {"type": "Point", "coordinates": [-73.769045, 45.503045]}}, {"type": "Feature", "properties": {"cell_id": "882baa4e87fffff"}, "geometry": {"type": "Point", "coordinates": [-73.76637, 45.494752]}}, {"type": "Feature", "properties": {"cell_id": "882baa4e89fffff"}, "geometry": {"type": "Point", "coordinates": [-73.747801, 45.506295]}}, {"type": "Feature", "properties": {"cell_id": "882baa4e8bfffff"}, "geometry": {"type": "Point", "coordinates": [-73.74513, 45.498002]}}, {"type": "Feature", "properties": {"cell_id": "882baa4e8dfffff"}, "geometry": {"type": "Point", "coordinates": [-73.75976, 45.508817]}}, {"type": "Feature", "properties": {"cell_id": "882baa4e91fffff"}, "geometry": {"type": "Point", "coordinates": [-73.739791, 45.481417]}}, {"type": "Feature", "properties": {"cell_id": "882baa4e93fffff"}, "geometry": {"type": "Point", "coordinates": [-73.737123, 45.473125]}}, {"type": "Feature", "properties": {"cell_id": "882baa4e95fffff"}, "geometry": {"type": "Point", "coordinates": [-73.751743, 45.483939]}}, {"type": "Feature", "properties": {"cell_id": "882baa4e97fffff"}, "geometry": {"type": "Point", "coordinates": [-73.749072, 45.475647]}}, {"type": "Feature", "properties": {"cell_id": "882baa4e99fffff"}, "geometry": {"type": "Point", "coordinates": [-73.730507, 45.487186]}}, {"type": "Feature", "properties": {"cell_id": "882baa4e9bfffff"}, "geometry": {"type": "Point", "coordinates": [-73.727841, 45.478894]}}, {"type": "Feature", "properties": {"cell_id": "882baa4e9dfffff"}, "geometry": {"type": "Point", "coordinates": [-73.74246, 45.489709]}}, {"type": "Feature", "properties": {"cell_id": "882baa4ea1fffff"}, "geometry": {"type": "Point", "coordinates": [-73.790285, 45.49979]}}, {"type": "Feature", "properties": {"cell_id": "882baa4ea3fffff"}, "geometry": {"type": "Point", "coordinates": [-73.787607, 45.491498]}}, {"type": "Feature", "properties": {"cell_id": "882baa4ea5fffff"}, "geometry": {"type": "Point", "coordinates": [-73.802245, 45.502307]}}, {"type": "Feature", "properties": {"cell_id": "882baa4ea7fffff"}, "geometry": {"type": "Point", "coordinates": [-73.799564, 45.494015]}}, {"type": "Feature", "properties": {"cell_id": "882baa4ea9fffff"}, "geometry": {"type": "Point", "coordinates": [-73.781004, 45.505564]}}, {"type": "Feature", "properties": {"cell_id": "882baa4eabfffff"}, "geometry": {"type": "Point", "coordinates": [-73.778327, 45.497272]}}, {"type": "Feature", "properties": {"cell_id": "882baa4eadfffff"}, "geometry": {"type": "Point", "coordinates": [-73.792965, 45.508083]}}, {"type": "Feature", "properties": {"cell_id": "882baa4eb1fffff"}, "geometry": {"type": "Point", "coordinates": [-73.772975, 45.480688]}}, {"type": "Feature", "properties": {"cell_id": "882baa4eb3fffff"}, "geometry": {"type": "Point", "coordinates": [-73.770301, 45.472397]}}, {"type": "Feature", "properties": {"cell_id": "882baa4eb5fffff"}, "geometry": {"type": "Point", "coordinates": [-73.784929, 45.483207]}}, {"type": "Feature", "properties": {"cell_id": "882baa4eb7fffff"}, "geometry": {"type": "Point", "coordinates": [-73.782252, 45.474916]}}, {"type": "Feature", "properties": {"cell_id": "882baa4eb9fffff"}, "geometry": {"type": "Point", "coordinates": [-73.763696, 45.48646]}}, {"type": "Feature", "properties": {"cell_id": "882baa4ebbfffff"}, "geometry": {"type": "Point", "coordinates": [-73.761023, 45.478168]}}, {"type": "Feature", "properties": {"cell_id": "882baa4ebdfffff"}, "geometry": {"type": "Point", "coordinates": [-73.775651, 45.488979]}}, {"type": "Feature", "properties": {"cell_id": "882baa4ec1fffff"}, "geometry": {"type": "Point", "coordinates": [-73.741184, 45.520361]}}, {"type": "Feature", "properties": {"cell_id": "882baa4ec3fffff"}, "geometry": {"type": "Point", "coordinates": [-73.738513, 45.512066]}}, {"type": "Feature", "properties": {"cell_id": "882baa4ec5fffff"}, "geometry": {"type": "Point", "coordinates": [-73.753146, 45.522884]}}, {"type": "Feature", "properties": {"cell_id": "882baa4ec7fffff"}, "geometry": {"type": "Point", "coordinates": [-73.750473, 45.514589]}}, {"type": "Feature", "properties": {"cell_id": "882baa4ec9fffff"}, "geometry": {"type": "Point", "coordinates": [-73.731892, 45.526132]}}, {"type": "Feature", "properties": {"cell_id": "882baa4ecbfffff"}, "geometry": {"type": "Point", "coordinates": [-73.729223, 45.517837]}}, {"type": "Feature", "properties": {"cell_id": "882baa4ecdfffff"}, "geometry": {"type": "Point", "coordinates": [-73.743855, 45.528656]}}, {"type": "Feature", "properties": {"cell_id": "882baa4ed1fffff"}, "geometry": {"type": "Point", "coordinates": [-73.723888, 45.501248]}}, {"type": "Feature", "properties": {"cell_id": "882baa4ed3fffff"}, "geometry": {"type": "Point", "coordinates": [-73.721221, 45.492955]}}, {"type": "Feature", "properties": {"cell_id": "882baa4ed5fffff"}, "geometry": {"type": "Point", "coordinates": [-73.735844, 45.503772]}}, {"type": "Feature", "properties": {"cell_id": "882baa4ed7fffff"}, "geometry": {"type": "Point", "coordinates": [-73.733175, 45.495479]}}, {"type": "Feature", "properties": {"cell_id": "882baa4ed9fffff"}, "geometry": {"type": "Point", "coordinates": [-73.714598, 45.507017]}}, {"type": "Feature", "properties": {"cell_id": "882baa4edbfffff"}, "geometry": {"type": "Point", "coordinates": [-73.711933, 45.498723]}}, {"type": "Feature", "properties": {"cell_id": "882baa4eddfffff"}, "geometry": {"type": "Point", "coordinates": [-73.726555, 45.509542]}}, {"type": "Feature", "properties": {"cell_id": "882baa4ee1fffff"}, "geometry": {"type": "Point", "coordinates": [-73.774397, 45.519632]}}, {"type": "Feature", "properties": {"cell_id": "882baa4ee3fffff"}, "geometry": {"type": "Point", "coordinates": [-73.77172, 45.511338]}}, {"type": "Feature", "properties": {"cell_id": "882baa4ee5fffff"}, "geometry": {"type": "Point", "coordinates": [-73.786362, 45.522151]}}, {"type": "Feature", "properties": {"cell_id": "882baa4ee7fffff"}, "geometry": {"type": "Point", "coordinates": [-73.783682, 45.513857]}}, {"type": "Feature", "properties": {"cell_id": "882baa4ee9fffff"}, "geometry": {"type": "Point", "coordinates": [-73.76511, 45.525406]}}, {"type": "Feature", "properties": {"cell_id": "882baa4eebfffff"}, "geometry": {"type": "Point", "coordinates": [-73.762434, 45.517111]}}, {"type": "Feature", "properties": {"cell_id": "882baa4eedfffff"}, "geometry": {"type": "Point", "coordinates": [-73.777075, 45.527926]}}, {"type": "Feature", "properties": {"cell_id": "882baa5401fffff"}, "geometry": {"type": "Point", "coordinates": [-73.496206, 45.661941]}}, {"type": "Feature", "properties": {"cell_id": "882baa5403fffff"}, "geometry": {"type": "Point", "coordinates": [-73.493574, 45.653631]}}, {"type": "Feature", "properties": {"cell_id": "882baa5405fffff"}, "geometry": {"type": "Point", "coordinates": [-73.508191, 45.664493]}}, {"type": "Feature", "properties": {"cell_id": "882baa5407fffff"}, "geometry": {"type": "Point", "coordinates": [-73.505555, 45.656183]}}, {"type": "Feature", "properties": {"cell_id": "882baa5409fffff"}, "geometry": {"type": "Point", "coordinates": [-73.486855, 45.667699]}}, {"type": "Feature", "properties": {"cell_id": "882baa540bfffff"}, "geometry": {"type": "Point", "coordinates": [-73.484224, 45.659388]}}, {"type": "Feature", "properties": {"cell_id": "882baa540dfffff"}, "geometry": {"type": "Point", "coordinates": [-73.49884, 45.670252]}}, {"type": "Feature", "properties": {"cell_id": "882baa5415fffff"}, "geometry": {"type": "Point", "coordinates": [-73.490942, 45.645321]}}, {"type": "Feature", "properties": {"cell_id": "882baa5417fffff"}, "geometry": {"type": "Point", "coordinates": [-73.488311, 45.637011]}}, {"type": "Feature", "properties": {"cell_id": "882baa5421fffff"}, "geometry": {"type": "Point", "coordinates": [-73.529523, 45.661284]}}, {"type": "Feature", "properties": {"cell_id": "882baa5423fffff"}, "geometry": {"type": "Point", "coordinates": [-73.526884, 45.652974]}}, {"type": "Feature", "properties": {"cell_id": "882baa5425fffff"}, "geometry": {"type": "Point", "coordinates": [-73.541509, 45.663833]}}, {"type": "Feature", "properties": {"cell_id": "882baa5427fffff"}, "geometry": {"type": "Point", "coordinates": [-73.538868, 45.655523]}}, {"type": "Feature", "properties": {"cell_id": "882baa5429fffff"}, "geometry": {"type": "Point", "coordinates": [-73.520176, 45.667045]}}, {"type": "Feature", "properties": {"cell_id": "882baa542bfffff"}, "geometry": {"type": "Point", "coordinates": [-73.517538, 45.658734]}}, {"type": "Feature", "properties": {"cell_id": "882baa542dfffff"}, "geometry": {"type": "Point", "coordinates": [-73.532163, 45.669595]}}, {"type": "Feature", "properties": {"cell_id": "882baa5431fffff"}, "geometry": {"type": "Point", "coordinates": [-73.512266, 45.642115]}}, {"type": "Feature", "properties": {"cell_id": "882baa5433fffff"}, "geometry": {"type": "Point", "coordinates": [-73.509631, 45.633806]}}, {"type": "Feature", "properties": {"cell_id": "882baa5435fffff"}, "geometry": {"type": "Point", "coordinates": [-73.524246, 45.644665]}}, {"type": "Feature", "properties": {"cell_id": "882baa5437fffff"}, "geometry": {"type": "Point", "coordinates": [-73.521609, 45.636356]}}, {"type": "Feature", "properties": {"cell_id": "882baa5439fffff"}, "geometry": {"type": "Point", "coordinates": [-73.502921, 45.647873]}}, {"type": "Feature", "properties": {"cell_id": "882baa543bfffff"}, "geometry": {"type": "Point", "coordinates": [-73.500288, 45.639564]}}, {"type": "Feature", "properties": {"cell_id": "882baa543dfffff"}, "geometry": {"type": "Point", "coordinates": [-73.514902, 45.650424]}}, {"type": "Feature", "properties": {"cell_id": "882baa5441fffff"}, "geometry": {"type": "Point", "coordinates": [-73.480133, 45.681769]}}, {"type": "Feature", "properties": {"cell_id": "882baa5445fffff"}, "geometry": {"type": "Point", "coordinates": [-73.492121, 45.684323]}}, {"type": "Feature", "properties": {"cell_id": "882baa5447fffff"}, "geometry": {"type": "Point", "coordinates": [-73.489488, 45.676011]}}, {"type": "Feature", "properties": {"cell_id": "882baa544dfffff"}, "geometry": {"type": "Point", "coordinates": [-73.482765, 45.690082]}}, {"type": "Feature", "properties": {"cell_id": "882baa5461fffff"}, "geometry": {"type": "Point", "coordinates": [-73.513464, 45.681116]}}, {"type": "Feature", "properties": {"cell_id": "882baa5463fffff"}, "geometry": {"type": "Point", "coordinates": [-73.510827, 45.672805]}}, {"type": "Feature", "properties": {"cell_id": "882baa5465fffff"}, "geometry": {"type": "Point", "coordinates": [-73.525455, 45.683667]}}, {"type": "Feature", "properties": {"cell_id": "882baa5467fffff"}, "geometry": {"type": "Point", "coordinates": [-73.522815, 45.675356]}}, {"type": "Feature", "properties": {"cell_id": "882baa5469fffff"}, "geometry": {"type": "Point", "coordinates": [-73.504111, 45.686876]}}, {"type": "Feature", "properties": {"cell_id": "882baa546bfffff"}, "geometry": {"type": "Point", "coordinates": [-73.501475, 45.678564]}}, {"type": "Feature", "properties": {"cell_id": "882baa546dfffff"}, "geometry": {"type": "Point", "coordinates": [-73.516102, 45.689429]}}, {"type": "Feature", "properties": {"cell_id": "882baa54a1fffff"}, "geometry": {"type": "Point", "coordinates": [-73.51107, 45.603128]}}, {"type": "Feature", "properties": {"cell_id": "882baa54a3fffff"}, "geometry": {"type": "Point", "coordinates": [-73.508438, 45.594822]}}, {"type": "Feature", "properties": {"cell_id": "882baa54a5fffff"}, "geometry": {"type": "Point", "coordinates": [-73.523039, 45.605677]}}, {"type": "Feature", "properties": {"cell_id": "882baa54a7fffff"}, "geometry": {"type": "Point", "coordinates": [-73.520405, 45.597371]}}, {"type": "Feature", "properties": {"cell_id": "882baa54a9fffff"}, "geometry": {"type": "Point", "coordinates": [-73.501733, 45.608884]}}, {"type": "Feature", "properties": {"cell_id": "882baa54abfffff"}, "geometry": {"type": "Point", "coordinates": [-73.499102, 45.600577]}}, {"type": "Feature", "properties": {"cell_id": "882baa54adfffff"}, "geometry": {"type": "Point", "coordinates": [-73.513703, 45.611434]}}, {"type": "Feature", "properties": {"cell_id": "882baa54b5fffff"}, "geometry": {"type": "Point", "coordinates": [-73.505806, 45.586517]}}, {"type": "Feature", "properties": {"cell_id": "882baa54e1fffff"}, "geometry": {"type": "Point", "coordinates": [-73.495024, 45.622947]}}, {"type": "Feature", "properties": {"cell_id": "882baa54e3fffff"}, "geometry": {"type": "Point", "coordinates": [-73.492394, 45.614639]}}, {"type": "Feature", "properties": {"cell_id": "882baa54e5fffff"}, "geometry": {"type": "Point", "coordinates": [-73.506997, 45.625498]}}, {"type": "Feature", "properties": {"cell_id": "882baa54e7fffff"}, "geometry": {"type": "Point", "coordinates": [-73.504365, 45.617191]}}, {"type": "Feature", "properties": {"cell_id": "882baa54edfffff"}, "geometry": {"type": "Point", "coordinates": [-73.497655, 45.631255]}}, {"type": "Feature", "properties": {"cell_id": "882baa5513fffff"}, "geometry": {"type": "Point", "coordinates": [-73.560194, 45.652308]}}, {"type": "Feature", "properties": {"cell_id": "882baa551bfffff"}, "geometry": {"type": "Point", "coordinates": [-73.550853, 45.658071]}}, {"type": "Feature", "properties": {"cell_id": "882baa555bfffff"}, "geometry": {"type": "Point", "coordinates": [-73.534804, 45.677906]}}, {"type": "Feature", "properties": {"cell_id": "882baa5581fffff"}, "geometry": {"type": "Point", "coordinates": [-73.561599, 45.621623]}}, {"type": "Feature", "properties": {"cell_id": "882baa5583fffff"}, "geometry": {"type": "Point", "coordinates": [-73.558956, 45.613317]}}, {"type": "Feature", "properties": {"cell_id": "882baa5585fffff"}, "geometry": {"type": "Point", "coordinates": [-73.573576, 45.624167]}}, {"type": "Feature", "properties": {"cell_id": "882baa5587fffff"}, "geometry": {"type": "Point", "coordinates": [-73.570931, 45.615861]}}, {"type": "Feature", "properties": {"cell_id": "882baa5589fffff"}, "geometry": {"type": "Point", "coordinates": [-73.552264, 45.627384]}}, {"type": "Feature", "properties": {"cell_id": "882baa558bfffff"}, "geometry": {"type": "Point", "coordinates": [-73.549623, 45.619077]}}, {"type": "Feature", "properties": {"cell_id": "882baa558dfffff"}, "geometry": {"type": "Point", "coordinates": [-73.564243, 45.62993]}}, {"type": "Feature", "properties": {"cell_id": "882baa5591fffff"}, "geometry": {"type": "Point", "coordinates": [-73.544343, 45.602466]}}, {"type": "Feature", "properties": {"cell_id": "882baa5593fffff"}, "geometry": {"type": "Point", "coordinates": [-73.541704, 45.594161]}}, {"type": "Feature", "properties": {"cell_id": "882baa5595fffff"}, "geometry": {"type": "Point", "coordinates": [-73.556314, 45.605011]}}, {"type": "Feature", "properties": {"cell_id": "882baa5597fffff"}, "geometry": {"type": "Point", "coordinates": [-73.553673, 45.596706]}}, {"type": "Feature", "properties": {"cell_id": "882baa5599fffff"}, "geometry": {"type": "Point", "coordinates": [-73.53501, 45.608225]}}, {"type": "Feature", "properties": {"cell_id": "882baa559bfffff"}, "geometry": {"type": "Point", "coordinates": [-73.532373, 45.599919]}}, {"type": "Feature", "properties": {"cell_id": "882baa559dfffff"}, "geometry": {"type": "Point", "coordinates": [-73.546982, 45.610771]}}, {"type": "Feature", "properties": {"cell_id": "882baa55a1fffff"}, "geometry": {"type": "Point", "coordinates": [-73.594886, 45.620947]}}, {"type": "Feature", "properties": {"cell_id": "882baa55a3fffff"}, "geometry": {"type": "Point", "coordinates": [-73.592237, 45.612641]}}, {"type": "Feature", "properties": {"cell_id": "882baa55a5fffff"}, "geometry": {"type": "Point", "coordinates": [-73.606866, 45.623488]}}, {"type": "Feature", "properties": {"cell_id": "882baa55a7fffff"}, "geometry": {"type": "Point", "coordinates": [-73.604214, 45.615182]}}, {"type": "Feature", "properties": {"cell_id": "882baa55a9fffff"}, "geometry": {"type": "Point", "coordinates": [-73.585556, 45.626711]}}, {"type": "Feature", "properties": {"cell_id": "882baa55abfffff"}, "geometry": {"type": "Point", "coordinates": [-73.582908, 45.618405]}}, {"type": "Feature", "properties": {"cell_id": "882baa55adfffff"}, "geometry": {"type": "Point", "coordinates": [-73.597536, 45.629253]}}, {"type": "Feature", "properties": {"cell_id": "882baa55b1fffff"}, "geometry": {"type": "Point", "coordinates": [-73.577616, 45.601794]}}, {"type": "Feature", "properties": {"cell_id": "882baa55b3fffff"}, "geometry": {"type": "Point", "coordinates": [-73.574971, 45.59349]}}, {"type": "Feature", "properties": {"cell_id": "882baa55b5fffff"}, "geometry": {"type": "Point", "coordinates": [-73.589589, 45.604336]}}, {"type": "Feature", "properties": {"cell_id": "882baa55b7fffff"}, "geometry": {"type": "Point", "coordinates": [-73.586942, 45.596032]}}, {"type": "Feature", "properties": {"cell_id": "882baa55b9fffff"}, "geometry": {"type": "Point", "coordinates": [-73.568287, 45.607556]}}, {"type": "Feature", "properties": {"cell_id": "882baa55bbfffff"}, "geometry": {"type": "Point", "coordinates": [-73.565644, 45.599251]}}, {"type": "Feature", "properties": {"cell_id": "882baa55bdfffff"}, "geometry": {"type": "Point", "coordinates": [-73.580261, 45.610099]}}, {"type": "Feature", "properties": {"cell_id": "882baa55c1fffff"}, "geometry": {"type": "Point", "coordinates": [-73.545568, 45.641453]}}, {"type": "Feature", "properties": {"cell_id": "882baa55c3fffff"}, "geometry": {"type": "Point", "coordinates": [-73.542927, 45.633145]}}, {"type": "Feature", "properties": {"cell_id": "882baa55c5fffff"}, "geometry": {"type": "Point", "coordinates": [-73.55755, 45.644]}}, {"type": "Feature", "properties": {"cell_id": "882baa55c7fffff"}, "geometry": {"type": "Point", "coordinates": [-73.554907, 45.635692]}}, {"type": "Feature", "properties": {"cell_id": "882baa55c9fffff"}, "geometry": {"type": "Point", "coordinates": [-73.536227, 45.647214]}}, {"type": "Feature", "properties": {"cell_id": "882baa55cbfffff"}, "geometry": {"type": "Point", "coordinates": [-73.533588, 45.638905]}}, {"type": "Feature", "properties": {"cell_id": "882baa55cdfffff"}, "geometry": {"type": "Point", "coordinates": [-73.54821, 45.649762]}}, {"type": "Feature", "properties": {"cell_id": "882baa55d1fffff"}, "geometry": {"type": "Point", "coordinates": [-73.528311, 45.62229]}}, {"type": "Feature", "properties": {"cell_id": "882baa55d3fffff"}, "geometry": {"type": "Point", "coordinates": [-73.525675, 45.613983]}}, {"type": "Feature", "properties": {"cell_id": "882baa55d5fffff"}, "geometry": {"type": "Point", "coordinates": [-73.540287, 45.624838]}}, {"type": "Feature", "properties": {"cell_id": "882baa55d7fffff"}, "geometry": {"type": "Point", "coordinates": [-73.537648, 45.616531]}}, {"type": "Feature", "properties": {"cell_id": "882baa55d9fffff"}, "geometry": {"type": "Point", "coordinates": [-73.518972, 45.628048]}}, {"type": "Feature", "properties": {"cell_id": "882baa55dbfffff"}, "geometry": {"type": "Point", "coordinates": [-73.516337, 45.619741]}}, {"type": "Feature", "properties": {"cell_id": "882baa55ddfffff"}, "geometry": {"type": "Point", "coordinates": [-73.530949, 45.630597]}}, {"type": "Feature", "properties": {"cell_id": "882baa55e1fffff"}, "geometry": {"type": "Point", "coordinates": [-73.57887, 45.640781]}}, {"type": "Feature", "properties": {"cell_id": "882baa55e3fffff"}, "geometry": {"type": "Point", "coordinates": [-73.576223, 45.632474]}}, {"type": "Feature", "properties": {"cell_id": "882baa55e7fffff"}, "geometry": {"type": "Point", "coordinates": [-73.588204, 45.635017]}}, {"type": "Feature", "properties": {"cell_id": "882baa55e9fffff"}, "geometry": {"type": "Point", "coordinates": [-73.569533, 45.646545]}}, {"type": "Feature", "properties": {"cell_id": "882baa55ebfffff"}, "geometry": {"type": "Point", "coordinates": [-73.566887, 45.638237]}}, {"type": "Feature", "properties": {"cell_id": "882baa5713fffff"}, "geometry": {"type": "Point", "coordinates": [-73.494756, 45.692636]}}, {"type": "Feature", "properties": {"cell_id": "882baa796dfffff"}, "geometry": {"type": "Point", "coordinates": [-73.823239, 45.429474]}}, {"type": "Feature", "properties": {"cell_id": "882baa7a01fffff"}, "geometry": {"type": "Point", "coordinates": [-73.654853, 45.424807]}}, {"type": "Feature", "properties": {"cell_id": "882baa7a03fffff"}, "geometry": {"type": "Point", "coordinates": [-73.652204, 45.416518]}}, {"type": "Feature", "properties": {"cell_id": "882baa7a05fffff"}, "geometry": {"type": "Point", "coordinates": [-73.666784, 45.427336]}}, {"type": "Feature", "properties": {"cell_id": "882baa7a07fffff"}, "geometry": {"type": "Point", "coordinates": [-73.664133, 45.419048]}}, {"type": "Feature", "properties": {"cell_id": "882baa7a09fffff"}, "geometry": {"type": "Point", "coordinates": [-73.64557, 45.430566]}}, {"type": "Feature", "properties": {"cell_id": "882baa7a0bfffff"}, "geometry": {"type": "Point", "coordinates": [-73.642923, 45.422277]}}, {"type": "Feature", "properties": {"cell_id": "882baa7a0dfffff"}, "geometry": {"type": "Point", "coordinates": [-73.657502, 45.433097]}}, {"type": "Feature", "properties": {"cell_id": "882baa7a1dfffff"}, "geometry": {"type": "Point", "coordinates": [-73.640277, 45.413988]}}, {"type": "Feature", "properties": {"cell_id": "882baa7a21fffff"}, "geometry": {"type": "Point", "coordinates": [-73.687994, 45.424103]}}, {"type": "Feature", "properties": {"cell_id": "882baa7a25fffff"}, "geometry": {"type": "Point", "coordinates": [-73.699927, 45.426628]}}, {"type": "Feature", "properties": {"cell_id": "882baa7a29fffff"}, "geometry": {"type": "Point", "coordinates": [-73.678716, 45.429864]}}, {"type": "Feature", "properties": {"cell_id": "882baa7a2bfffff"}, "geometry": {"type": "Point", "coordinates": [-73.676063, 45.421576]}}, {"type": "Feature", "properties": {"cell_id": "882baa7a2dfffff"}, "geometry": {"type": "Point", "coordinates": [-73.69065, 45.432391]}}, {"type": "Feature", "properties": {"cell_id": "882baa7a41fffff"}, "geometry": {"type": "Point", "coordinates": [-73.638933, 45.444616]}}, {"type": "Feature", "properties": {"cell_id": "882baa7a43fffff"}, "geometry": {"type": "Point", "coordinates": [-73.636286, 45.436325]}}, {"type": "Feature", "properties": {"cell_id": "882baa7a45fffff"}, "geometry": {"type": "Point", "coordinates": [-73.650868, 45.447147]}}, {"type": "Feature", "properties": {"cell_id": "882baa7a47fffff"}, "geometry": {"type": "Point", "coordinates": [-73.648219, 45.438856]}}, {"type": "Feature", "properties": {"cell_id": "882baa7a49fffff"}, "geometry": {"type": "Point", "coordinates": [-73.629644, 45.450375]}}, {"type": "Feature", "properties": {"cell_id": "882baa7a4bfffff"}, "geometry": {"type": "Point", "coordinates": [-73.626999, 45.442083]}}, {"type": "Feature", "properties": {"cell_id": "882baa7a4dfffff"}, "geometry": {"type": "Point", "coordinates": [-73.641581, 45.452907]}}, {"type": "Feature", "properties": {"cell_id": "882baa7a51fffff"}, "geometry": {"type": "Point", "coordinates": [-73.621711, 45.425502]}}, {"type": "Feature", "properties": {"cell_id": "882baa7a55fffff"}, "geometry": {"type": "Point", "coordinates": [-73.63364, 45.428035]}}, {"type": "Feature", "properties": {"cell_id": "882baa7a57fffff"}, "geometry": {"type": "Point", "coordinates": [-73.630995, 45.419745]}}, {"type": "Feature", "properties": {"cell_id": "882baa7a59fffff"}, "geometry": {"type": "Point", "coordinates": [-73.612424, 45.431259]}}, {"type": "Feature", "properties": {"cell_id": "882baa7a5dfffff"}, "geometry": {"type": "Point", "coordinates": [-73.624354, 45.433792]}}, {"type": "Feature", "properties": {"cell_id": "882baa7a61fffff"}, "geometry": {"type": "Point", "coordinates": [-73.672089, 45.443916]}}, {"type": "Feature", "properties": {"cell_id": "882baa7a63fffff"}, "geometry": {"type": "Point", "coordinates": [-73.669436, 45.435626]}}, {"type": "Feature", "properties": {"cell_id": "882baa7a65fffff"}, "geometry": {"type": "Point", "coordinates": [-73.684026, 45.446444]}}, {"type": "Feature", "properties": {"cell_id": "882baa7a67fffff"}, "geometry": {"type": "Point", "coordinates": [-73.681371, 45.438154]}}, {"type": "Feature", "properties": {"cell_id": "882baa7a69fffff"}, "geometry": {"type": "Point", "coordinates": [-73.662805, 45.449677]}}, {"type": "Feature", "properties": {"cell_id": "882baa7a6bfffff"}, "geometry": {"type": "Point", "coordinates": [-73.660153, 45.441387]}}, {"type": "Feature", "properties": {"cell_id": "882baa7a6dfffff"}, "geometry": {"type": "Point", "coordinates": [-73.674743, 45.452206]}}, {"type": "Feature", "properties": {"cell_id": "882baa7b01fffff"}, "geometry": {"type": "Point", "coordinates": [-73.7384, 45.442487]}}, {"type": "Feature", "properties": {"cell_id": "882baa7b03fffff"}, "geometry": {"type": "Point", "coordinates": [-73.735735, 45.434198]}}, {"type": "Feature", "properties": {"cell_id": "882baa7b05fffff"}, "geometry": {"type": "Point", "coordinates": [-73.750342, 45.445008]}}, {"type": "Feature", "properties": {"cell_id": "882baa7b07fffff"}, "geometry": {"type": "Point", "coordinates": [-73.747674, 45.43672]}}, {"type": "Feature", "properties": {"cell_id": "882baa7b09fffff"}, "geometry": {"type": "Point", "coordinates": [-73.729125, 45.448254]}}, {"type": "Feature", "properties": {"cell_id": "882baa7b0bfffff"}, "geometry": {"type": "Point", "coordinates": [-73.726461, 45.439965]}}, {"type": "Feature", "properties": {"cell_id": "882baa7b0dfffff"}, "geometry": {"type": "Point", "coordinates": [-73.741067, 45.450776]}}, {"type": "Feature", "properties": {"cell_id": "882baa7b19fffff"}, "geometry": {"type": "Point", "coordinates": [-73.711862, 45.429153]}}, {"type": "Feature", "properties": {"cell_id": "882baa7b1dfffff"}, "geometry": {"type": "Point", "coordinates": [-73.723798, 45.431676]}}, {"type": "Feature", "properties": {"cell_id": "882baa7b21fffff"}, "geometry": {"type": "Point", "coordinates": [-73.771556, 45.441758]}}, {"type": "Feature", "properties": {"cell_id": "882baa7b23fffff"}, "geometry": {"type": "Point", "coordinates": [-73.768884, 45.43347]}}, {"type": "Feature", "properties": {"cell_id": "882baa7b25fffff"}, "geometry": {"type": "Point", "coordinates": [-73.783499, 45.444276]}}, {"type": "Feature", "properties": {"cell_id": "882baa7b27fffff"}, "geometry": {"type": "Point", "coordinates": [-73.780825, 45.435988]}}, {"type": "Feature", "properties": {"cell_id": "882baa7b29fffff"}, "geometry": {"type": "Point", "coordinates": [-73.762284, 45.447528]}}, {"type": "Feature", "properties": {"cell_id": "882baa7b2bfffff"}, "geometry": {"type": "Point", "coordinates": [-73.759614, 45.43924]}}, {"type": "Feature", "properties": {"cell_id": "882baa7b2dfffff"}, "geometry": {"type": "Point", "coordinates": [-73.774229, 45.450047]}}, {"type": "Feature", "properties": {"cell_id": "882baa7b41fffff"}, "geometry": {"type": "Point", "coordinates": [-73.72251, 45.462311]}}, {"type": "Feature", "properties": {"cell_id": "882baa7b43fffff"}, "geometry": {"type": "Point", "coordinates": [-73.719847, 45.454021]}}, {"type": "Feature", "properties": {"cell_id": "882baa7b45fffff"}, "geometry": {"type": "Point", "coordinates": [-73.734456, 45.464834]}}, {"type": "Feature", "properties": {"cell_id": "882baa7b47fffff"}, "geometry": {"type": "Point", "coordinates": [-73.73179, 45.456544]}}, {"type": "Feature", "properties": {"cell_id": "882baa7b49fffff"}, "geometry": {"type": "Point", "coordinates": [-73.713229, 45.468078]}}, {"type": "Feature", "properties": {"cell_id": "882baa7b4bfffff"}, "geometry": {"type": "Point", "coordinates": [-73.710566, 45.459787]}}, {"type": "Feature", "properties": {"cell_id": "882baa7b4dfffff"}, "geometry": {"type": "Point", "coordinates": [-73.725175, 45.470602]}}, {"type": "Feature", "properties": {"cell_id": "882baa7b51fffff"}, "geometry": {"type": "Point", "coordinates": [-73.705245, 45.443206]}}, {"type": "Feature", "properties": {"cell_id": "882baa7b53fffff"}, "geometry": {"type": "Point", "coordinates": [-73.702585, 45.434917]}}, {"type": "Feature", "properties": {"cell_id": "882baa7b55fffff"}, "geometry": {"type": "Point", "coordinates": [-73.717184, 45.445731]}}, {"type": "Feature", "properties": {"cell_id": "882baa7b57fffff"}, "geometry": {"type": "Point", "coordinates": [-73.714522, 45.437441]}}, {"type": "Feature", "properties": {"cell_id": "882baa7b59fffff"}, "geometry": {"type": "Point", "coordinates": [-73.695965, 45.448971]}}, {"type": "Feature", "properties": {"cell_id": "882baa7b5bfffff"}, "geometry": {"type": "Point", "coordinates": [-73.693307, 45.440681]}}, {"type": "Feature", "properties": {"cell_id": "882baa7b5dfffff"}, "geometry": {"type": "Point", "coordinates": [-73.707905, 45.451496]}}, {"type": "Feature", "properties": {"cell_id": "882baa7b61fffff"}, "geometry": {"type": "Point", "coordinates": [-73.75568, 45.461587]}}, {"type": "Feature", "properties": {"cell_id": "882baa7b63fffff"}, "geometry": {"type": "Point", "coordinates": [-73.753011, 45.453297]}}, {"type": "Feature", "properties": {"cell_id": "882baa7b65fffff"}, "geometry": {"type": "Point", "coordinates": [-73.767628, 45.464107]}}, {"type": "Feature", "properties": {"cell_id": "882baa7b67fffff"}, "geometry": {"type": "Point", "coordinates": [-73.764956, 45.455817]}}, {"type": "Feature", "properties": {"cell_id": "882baa7b69fffff"}, "geometry": {"type": "Point", "coordinates": [-73.746403, 45.467356]}}, {"type": "Feature", "properties": {"cell_id": "882baa7b6bfffff"}, "geometry": {"type": "Point", "coordinates": [-73.743734, 45.459066]}}, {"type": "Feature", "properties": {"cell_id": "882baa7b6dfffff"}, "geometry": {"type": "Point", "coordinates": [-73.758351, 45.469877]}}], "_version": 8}