{"type": "FeatureCollection", "features": [{"type": "Feature", "properties": {"cell_id": "872b81b62ffffff"}, "geometry": {"type": "Point", "coordinates": [-73.919978, 45.418901]}}, {"type": "Feature", "properties": {"cell_id": "872b81b64ffffff"}, "geometry": {"type": "Point", "coordinates": [-73.871021, 45.439514]}}, {"type": "Feature", "properties": {"cell_id": "872b81b66ffffff"}, "geometry": {"type": "Point", "coordinates": [-73.904175, 45.438747]}}, {"type": "Feature", "properties": {"cell_id": "872b81b75ffffff"}, "geometry": {"type": "Point", "coordinates": [-73.937329, 45.43797]}}, {"type": "Feature", "properties": {"cell_id": "872baa440ffffff"}, "geometry": {"type": "Point", "coordinates": [-73.608328, 45.523181]}}, {"type": "Feature", "properties": {"cell_id": "872baa441ffffff"}, "geometry": {"type": "Point", "coordinates": [-73.591089, 45.504049]}}, {"type": "Feature", "properties": {"cell_id": "872baa442ffffff"}, "geometry": {"type": "Point", "coordinates": [-73.641542, 45.522491]}}, {"type": "Feature", "properties": {"cell_id": "872baa443ffffff"}, "geometry": {"type": "Point", "coordinates": [-73.624289, 45.503363]}}, {"type": "Feature", "properties": {"cell_id": "872baa444ffffff"}, "geometry": {"type": "Point", "coordinates": [-73.592353, 45.543001]}}, {"type": "Feature", "properties": {"cell_id": "872baa445ffffff"}, "geometry": {"type": "Point", "coordinates": [-73.575113, 45.523862]}}, {"type": "Feature", "properties": {"cell_id": "872baa446ffffff"}, "geometry": {"type": "Point", "coordinates": [-73.625582, 45.542315]}}, {"type": "Feature", "properties": {"cell_id": "872baa448ffffff"}, "geometry": {"type": "Point", "coordinates": [-73.589828, 45.465111]}}, {"type": "Feature", "properties": {"cell_id": "872baa44affffff"}, "geometry": {"type": "Point", "coordinates": [-73.622999, 45.464426]}}, {"type": "Feature", "properties": {"cell_id": "872baa44bffffff"}, "geometry": {"type": "Point", "coordinates": [-73.605776, 45.445306]}}, {"type": "Feature", "properties": {"cell_id": "872baa44cffffff"}, "geometry": {"type": "Point", "coordinates": [-73.573866, 45.484917]}}, {"type": "Feature", "properties": {"cell_id": "872baa44dffffff"}, "geometry": {"type": "Point", "coordinates": [-73.556657, 45.465787]}}, {"type": "Feature", "properties": {"cell_id": "872baa44effffff"}, "geometry": {"type": "Point", "coordinates": [-73.607051, 45.484237]}}, {"type": "Feature", "properties": {"cell_id": "872baa450ffffff"}, "geometry": {"type": "Point", "coordinates": [-73.692039, 45.540914]}}, {"type": "Feature", "properties": {"cell_id": "872baa451ffffff"}, "geometry": {"type": "Point", "coordinates": [-73.674756, 45.52179]}}, {"type": "Feature", "properties": {"cell_id": "872baa452ffffff"}, "geometry": {"type": "Point", "coordinates": [-73.725267, 45.540199]}}, {"type": "Feature", "properties": {"cell_id": "872baa453ffffff"}, "geometry": {"type": "Point", "coordinates": [-73.70797, 45.521081]}}, {"type": "Feature", "properties": {"cell_id": "872baa454ffffff"}, "geometry": {"type": "Point", "coordinates": [-73.676093, 45.560749]}}, {"type": "Feature", "properties": {"cell_id": "872baa455ffffff"}, "geometry": {"type": "Point", "coordinates": [-73.65881, 45.541619]}}, {"type": "Feature", "properties": {"cell_id": "872baa456ffffff"}, "geometry": {"type": "Point", "coordinates": [-73.709336, 45.560039]}}, {"type": "Feature", "properties": {"cell_id": "872baa458ffffff"}, "geometry": {"type": "Point", "coordinates": [-73.673421, 45.482846]}}, {"type": "Feature", "properties": {"cell_id": "872baa459ffffff"}, "geometry": {"type": "Point", "coordinates": [-73.65617, 45.46373]}}, {"type": "Feature", "properties": {"cell_id": "872baa45affffff"}, "geometry": {"type": "Point", "coordinates": [-73.706606, 45.482136]}}, {"type": "Feature", "properties": {"cell_id": "872baa45bffffff"}, "geometry": {"type": "Point", "coordinates": [-73.68934, 45.463026]}}, {"type": "Feature", "properties": {"cell_id": "872baa45cffffff"}, "geometry": {"type": "Point", "coordinates": [-73.657489, 45.502668]}}, {"type": "Feature", "properties": {"cell_id": "872baa45dffffff"}, "geometry": {"type": "Point", "coordinates": [-73.640236, 45.483546]}}, {"type": "Feature", "properties": {"cell_id": "872baa45effffff"}, "geometry": {"type": "Point", "coordinates": [-73.690688, 45.501963]}}, {"type": "Feature", "properties": {"cell_id": "872baa460ffffff"}, "geometry": {"type": "Point", "coordinates": [-73.54312, 45.563493]}}, {"type": "Feature", "properties": {"cell_id": "872baa461ffffff"}, "geometry": {"type": "Point", "coordinates": [-73.525894, 45.544343]}}, {"type": "Feature", "properties": {"cell_id": "872baa462ffffff"}, "geometry": {"type": "Point", "coordinates": [-73.576363, 45.562821]}}, {"type": "Feature", "properties": {"cell_id": "872baa463ffffff"}, "geometry": {"type": "Point", "coordinates": [-73.559124, 45.543677]}}, {"type": "Feature", "properties": {"cell_id": "872baa464ffffff"}, "geometry": {"type": "Point", "coordinates": [-73.527102, 45.583309]}}, {"type": "Feature", "properties": {"cell_id": "872baa466ffffff"}, "geometry": {"type": "Point", "coordinates": [-73.56036, 45.582643]}}, {"type": "Feature", "properties": {"cell_id": "872baa46affffff"}, "geometry": {"type": "Point", "coordinates": [-73.557889, 45.504725]}}, {"type": "Feature", "properties": {"cell_id": "872baa46effffff"}, "geometry": {"type": "Point", "coordinates": [-73.541899, 45.524534]}}, {"type": "Feature", "properties": {"cell_id": "872baa470ffffff"}, "geometry": {"type": "Point", "coordinates": [-73.626876, 45.581281]}}, {"type": "Feature", "properties": {"cell_id": "872baa471ffffff"}, "geometry": {"type": "Point", "coordinates": [-73.609607, 45.56214]}}, {"type": "Feature", "properties": {"cell_id": "872baa472ffffff"}, "geometry": {"type": "Point", "coordinates": [-73.660134, 45.580585]}}, {"type": "Feature", "properties": {"cell_id": "872baa473ffffff"}, "geometry": {"type": "Point", "coordinates": [-73.64285, 45.561449]}}, {"type": "Feature", "properties": {"cell_id": "872baa474ffffff"}, "geometry": {"type": "Point", "coordinates": [-73.610888, 45.601113]}}, {"type": "Feature", "properties": {"cell_id": "872baa475ffffff"}, "geometry": {"type": "Point", "coordinates": [-73.593618, 45.581967]}}, {"type": "Feature", "properties": {"cell_id": "872baa476ffffff"}, "geometry": {"type": "Point", "coordinates": [-73.644161, 45.600422]}}, {"type": "Feature", "properties": {"cell_id": "872baa4c0ffffff"}, "geometry": {"type": "Point", "coordinates": [-73.840823, 45.518145]}}, {"type": "Feature", "properties": {"cell_id": "872baa4c1ffffff"}, "geometry": {"type": "Point", "coordinates": [-73.823484, 45.499046]}}, {"type": "Feature", "properties": {"cell_id": "872baa4c2ffffff"}, "geometry": {"type": "Point", "coordinates": [-73.874036, 45.517387]}}, {"type": "Feature", "properties": {"cell_id": "872baa4c3ffffff"}, "geometry": {"type": "Point", "coordinates": [-73.856682, 45.498293]}}, {"type": "Feature", "properties": {"cell_id": "872baa4c5ffffff"}, "geometry": {"type": "Point", "coordinates": [-73.80761, 45.518893]}}, {"type": "Feature", "properties": {"cell_id": "872baa4c8ffffff"}, "geometry": {"type": "Point", "coordinates": [-73.82202, 45.46011]}}, {"type": "Feature", "properties": {"cell_id": "872baa4c9ffffff"}, "geometry": {"type": "Point", "coordinates": [-73.804711, 45.44102]}}, {"type": "Feature", "properties": {"cell_id": "872baa4caffffff"}, "geometry": {"type": "Point", "coordinates": [-73.855189, 45.459357]}}, {"type": "Feature", "properties": {"cell_id": "872baa4cbffffff"}, "geometry": {"type": "Point", "coordinates": [-73.837866, 45.440272]}}, {"type": "Feature", "properties": {"cell_id": "872baa4ccffffff"}, "geometry": {"type": "Point", "coordinates": [-73.80616, 45.479949]}}, {"type": "Feature", "properties": {"cell_id": "872baa4cdffffff"}, "geometry": {"type": "Point", "coordinates": [-73.78885, 45.460853]}}, {"type": "Feature", "properties": {"cell_id": "872baa4ceffffff"}, "geometry": {"type": "Point", "coordinates": [-73.839343, 45.479201]}}, {"type": "Feature", "properties": {"cell_id": "872baa4d8ffffff"}, "geometry": {"type": "Point", "coordinates": [-73.90571, 45.477676]}}, {"type": "Feature", "properties": {"cell_id": "872baa4d9ffffff"}, "geometry": {"type": "Point", "coordinates": [-73.888358, 45.458595]}}, {"type": "Feature", "properties": {"cell_id": "872baa4dbffffff"}, "geometry": {"type": "Point", "coordinates": [-73.921526, 45.457822]}}, {"type": "Feature", "properties": {"cell_id": "872baa4dcffffff"}, "geometry": {"type": "Point", "coordinates": [-73.88988, 45.497531]}}, {"type": "Feature", "properties": {"cell_id": "872baa4ddffffff"}, "geometry": {"type": "Point", "coordinates": [-73.872527, 45.478443]}}, {"type": "Feature", "properties": {"cell_id": "872baa4e1ffffff"}, "geometry": {"type": "Point", "coordinates": [-73.758495, 45.539475]}}, {"type": "Feature", "properties": {"cell_id": "872baa4e3ffffff"}, "geometry": {"type": "Point", "coordinates": [-73.791723, 45.538741]}}, {"type": "Feature", "properties": {"cell_id": "872baa4e8ffffff"}, "geometry": {"type": "Point", "coordinates": [-73.757087, 45.500524]}}, {"type": "Feature", "properties": {"cell_id": "872baa4e9ffffff"}, "geometry": {"type": "Point", "coordinates": [-73.739791, 45.481417]}}, {"type": "Feature", "properties": {"cell_id": "872baa4eaffffff"}, "geometry": {"type": "Point", "coordinates": [-73.790285, 45.49979]}}, {"type": "Feature", "properties": {"cell_id": "872baa4ebffffff"}, "geometry": {"type": "Point", "coordinates": [-73.772975, 45.480688]}}, {"type": "Feature", "properties": {"cell_id": "872baa4ecffffff"}, "geometry": {"type": "Point", "coordinates": [-73.741184, 45.520361]}}, {"type": "Feature", "properties": {"cell_id": "872baa4edffffff"}, "geometry": {"type": "Point", "coordinates": [-73.723888, 45.501248]}}, {"type": "Feature", "properties": {"cell_id": "872baa4eeffffff"}, "geometry": {"type": "Point", "coordinates": [-73.774397, 45.519632]}}, {"type": "Feature", "properties": {"cell_id": "872baa540ffffff"}, "geometry": {"type": "Point", "coordinates": [-73.496206, 45.661941]}}, {"type": "Feature", "properties": {"cell_id": "872baa542ffffff"}, "geometry": {"type": "Point", "coordinates": [-73.529523, 45.661284]}}, {"type": "Feature", "properties": {"cell_id": "872baa543ffffff"}, "geometry": {"type": "Point", "coordinates": [-73.512266, 45.642115]}}, {"type": "Feature", "properties": {"cell_id": "872baa544ffffff"}, "geometry": {"type": "Point", "coordinates": [-73.480133, 45.681769]}}, {"type": "Feature", "properties": {"cell_id": "872baa546ffffff"}, "geometry": {"type": "Point", "coordinates": [-73.513464, 45.681116]}}, {"type": "Feature", "properties": {"cell_id": "872baa54affffff"}, "geometry": {"type": "Point", "coordinates": [-73.51107, 45.603128]}}, {"type": "Feature", "properties": {"cell_id": "872baa54effffff"}, "geometry": {"type": "Point", "coordinates": [-73.495024, 45.622947]}}, {"type": "Feature", "properties": {"cell_id": "872baa558ffffff"}, "geometry": {"type": "Point", "coordinates": [-73.561599, 45.621623]}}, {"type": "Feature", "properties": {"cell_id": "872baa559ffffff"}, "geometry": {"type": "Point", "coordinates": [-73.544343, 45.602466]}}, {"type": "Feature", "properties": {"cell_id": "872baa55affffff"}, "geometry": {"type": "Point", "coordinates": [-73.594886, 45.620947]}}, {"type": "Feature", "properties": {"cell_id": "872baa55bffffff"}, "geometry": {"type": "Point", "coordinates": [-73.577616, 45.601794]}}, {"type": "Feature", "properties": {"cell_id": "872baa55cffffff"}, "geometry": {"type": "Point", "coordinates": [-73.545568, 45.641453]}}, {"type": "Feature", "properties": {"cell_id": "872baa55dffffff"}, "geometry": {"type": "Point", "coordinates": [-73.528311, 45.62229]}}, {"type": "Feature", "properties": {"cell_id": "872baa55effffff"}, "geometry": {"type": "Point", "coordinates": [-73.57887, 45.640781]}}, {"type": "Feature", "properties": {"cell_id": "872baa7a0ffffff"}, "geometry": {"type": "Point", "coordinates": [-73.654853, 45.424807]}}, {"type": "Feature", "properties": {"cell_id": "872baa7a2ffffff"}, "geometry": {"type": "Point", "coordinates": [-73.687994, 45.424103]}}, {"type": "Feature", "properties": {"cell_id": "872baa7a4ffffff"}, "geometry": {"type": "Point", "coordinates": [-73.638933, 45.444616]}}, {"type": "Feature", "properties": {"cell_id": "872baa7a5ffffff"}, "geometry": {"type": "Point", "coordinates": [-73.621711, 45.425502]}}, {"type": "Feature", "properties": {"cell_id": "872baa7a6ffffff"}, "geometry": {"type": "Point", "coordinates": [-73.672089, 45.443916]}}, {"type": "Feature", "properties": {"cell_id": "872baa7b0ffffff"}, "geometry": {"type": "Point", "coordinates": [-73.7384, 45.442487]}}, {"type": "Feature", "properties": {"cell_id": "872baa7b2ffffff"}, "geometry": {"type": "Point", "coordinates": [-73.771556, 45.441758]}}, {"type": "Feature", "properties": {"cell_id": "872baa7b4ffffff"}, "geometry": {"type": "Point", "coordinates": [-73.72251, 45.462311]}}, {"type": "Feature", "properties": {"cell_id": "872baa7b5ffffff"}, "geometry": {"type": "Point", "coordinates": [-73.705245, 45.443206]}}, {"type": "Feature", "properties": {"cell_id": "872baa7b6ffffff"}, "geometry": {"type": "Point", "coordinates": [-73.75568, 45.461587]}}], "_version": 8}