{"type": "FeatureCollection", "features": [{"type": "Feature", "properties": {"cell_id": "881fb42921fffff"}, "geometry": {"type": "Point", "coordinates": [2.412487, 48.899512]}}, {"type": "Feature", "properties": {"cell_id": "881fb42923fffff"}, "geometry": {"type": "Point", "coordinates": [2.423787, 48.897292]}}, {"type": "Feature", "properties": {"cell_id": "881fb42925fffff"}, "geometry": {"type": "Point", "coordinates": [2.404839, 48.89387]}}, {"type": "Feature", "properties": {"cell_id": "881fb42927fffff"}, "geometry": {"type": "Point", "coordinates": [2.41614, 48.89165]}}, {"type": "Feature", "properties": {"cell_id": "881fb4292dfffff"}, "geometry": {"type": "Point", "coordinates": [2.401184, 48.901732]}}, {"type": "Feature", "properties": {"cell_id": "881fb42931fffff"}, "geometry": {"type": "Point", "coordinates": [2.442734, 48.90071]}}, {"type": "Feature", "properties": {"cell_id": "881fb42933fffff"}, "geometry": {"type": "Point", "coordinates": [2.454031, 48.898486]}}, {"type": "Feature", "properties": {"cell_id": "881fb42935fffff"}, "geometry": {"type": "Point", "coordinates": [2.435086, 48.89507]}}, {"type": "Feature", "properties": {"cell_id": "881fb42937fffff"}, "geometry": {"type": "Point", "coordinates": [2.446383, 48.892848]}}, {"type": "Feature", "properties": {"cell_id": "881fb4293dfffff"}, "geometry": {"type": "Point", "coordinates": [2.431436, 48.902932]}}, {"type": "Feature", "properties": {"cell_id": "881fb4601bfffff"}, "geometry": {"type": "Point", "coordinates": [2.222372, 48.822314]}}, {"type": "Feature", "properties": {"cell_id": "881fb460c1fffff"}, "geometry": {"type": "Point", "coordinates": [2.244999, 48.817911]}}, {"type": "Feature", "properties": {"cell_id": "881fb460c3fffff"}, "geometry": {"type": "Point", "coordinates": [2.256309, 48.815708]}}, {"type": "Feature", "properties": {"cell_id": "881fb460c9fffff"}, "geometry": {"type": "Point", "coordinates": [2.241322, 48.825777]}}, {"type": "Feature", "properties": {"cell_id": "881fb460cbfffff"}, "geometry": {"type": "Point", "coordinates": [2.252634, 48.823574]}}, {"type": "Feature", "properties": {"cell_id": "881fb460cdfffff"}, "geometry": {"type": "Point", "coordinates": [2.233687, 48.820113]}}, {"type": "Feature", "properties": {"cell_id": "881fb460d1fffff"}, "geometry": {"type": "Point", "coordinates": [2.275252, 48.819166]}}, {"type": "Feature", "properties": {"cell_id": "881fb460d3fffff"}, "geometry": {"type": "Point", "coordinates": [2.286558, 48.81696]}}, {"type": "Feature", "properties": {"cell_id": "881fb460d9fffff"}, "geometry": {"type": "Point", "coordinates": [2.27158, 48.827032]}}, {"type": "Feature", "properties": {"cell_id": "881fb460dbfffff"}, "geometry": {"type": "Point", "coordinates": [2.282888, 48.824826]}}, {"type": "Feature", "properties": {"cell_id": "881fb460ddfffff"}, "geometry": {"type": "Point", "coordinates": [2.263944, 48.82137]}}, {"type": "Feature", "properties": {"cell_id": "881fb46281fffff"}, "geometry": {"type": "Point", "coordinates": [2.237922, 48.855036]}}, {"type": "Feature", "properties": {"cell_id": "881fb46283fffff"}, "geometry": {"type": "Point", "coordinates": [2.249241, 48.852833]}}, {"type": "Feature", "properties": {"cell_id": "881fb46285fffff"}, "geometry": {"type": "Point", "coordinates": [2.230283, 48.849374]}}, {"type": "Feature", "properties": {"cell_id": "881fb46287fffff"}, "geometry": {"type": "Point", "coordinates": [2.241602, 48.847171]}}, {"type": "Feature", "properties": {"cell_id": "881fb46289fffff"}, "geometry": {"type": "Point", "coordinates": [2.234242, 48.862901]}}, {"type": "Feature", "properties": {"cell_id": "881fb4628bfffff"}, "geometry": {"type": "Point", "coordinates": [2.245562, 48.860698]}}, {"type": "Feature", "properties": {"cell_id": "881fb4628dfffff"}, "geometry": {"type": "Point", "coordinates": [2.226602, 48.857239]}}, {"type": "Feature", "properties": {"cell_id": "881fb46291fffff"}, "geometry": {"type": "Point", "coordinates": [2.268196, 48.856287]}}, {"type": "Feature", "properties": {"cell_id": "881fb46293fffff"}, "geometry": {"type": "Point", "coordinates": [2.27951, 48.854081]}}, {"type": "Feature", "properties": {"cell_id": "881fb46295fffff"}, "geometry": {"type": "Point", "coordinates": [2.260557, 48.850628]}}, {"type": "Feature", "properties": {"cell_id": "881fb46297fffff"}, "geometry": {"type": "Point", "coordinates": [2.271871, 48.848422]}}, {"type": "Feature", "properties": {"cell_id": "881fb46299fffff"}, "geometry": {"type": "Point", "coordinates": [2.264521, 48.864152]}}, {"type": "Feature", "properties": {"cell_id": "881fb4629bfffff"}, "geometry": {"type": "Point", "coordinates": [2.275837, 48.861946]}}, {"type": "Feature", "properties": {"cell_id": "881fb4629dfffff"}, "geometry": {"type": "Point", "coordinates": [2.25688, 48.858493]}}, {"type": "Feature", "properties": {"cell_id": "881fb462a1fffff"}, "geometry": {"type": "Point", "coordinates": [2.226327, 48.835845]}}, {"type": "Feature", "properties": {"cell_id": "881fb462a3fffff"}, "geometry": {"type": "Point", "coordinates": [2.237643, 48.833643]}}, {"type": "Feature", "properties": {"cell_id": "881fb462a7fffff"}, "geometry": {"type": "Point", "coordinates": [2.230007, 48.827979]}}, {"type": "Feature", "properties": {"cell_id": "881fb462a9fffff"}, "geometry": {"type": "Point", "coordinates": [2.222646, 48.843711]}}, {"type": "Feature", "properties": {"cell_id": "881fb462abfffff"}, "geometry": {"type": "Point", "coordinates": [2.233964, 48.841509]}}, {"type": "Feature", "properties": {"cell_id": "881fb462b1fffff"}, "geometry": {"type": "Point", "coordinates": [2.256595, 48.837102]}}, {"type": "Feature", "properties": {"cell_id": "881fb462b3fffff"}, "geometry": {"type": "Point", "coordinates": [2.267907, 48.834897]}}, {"type": "Feature", "properties": {"cell_id": "881fb462b5fffff"}, "geometry": {"type": "Point", "coordinates": [2.248958, 48.83144]}}, {"type": "Feature", "properties": {"cell_id": "881fb462b7fffff"}, "geometry": {"type": "Point", "coordinates": [2.26027, 48.829236]}}, {"type": "Feature", "properties": {"cell_id": "881fb462b9fffff"}, "geometry": {"type": "Point", "coordinates": [2.252918, 48.844967]}}, {"type": "Feature", "properties": {"cell_id": "881fb462bbfffff"}, "geometry": {"type": "Point", "coordinates": [2.264232, 48.842763]}}, {"type": "Feature", "properties": {"cell_id": "881fb462bdfffff"}, "geometry": {"type": "Point", "coordinates": [2.24528, 48.839306]}}, {"type": "Feature", "properties": {"cell_id": "881fb462c3fffff"}, "geometry": {"type": "Point", "coordinates": [2.23056, 48.870766]}}, {"type": "Feature", "properties": {"cell_id": "881fb462c7fffff"}, "geometry": {"type": "Point", "coordinates": [2.222919, 48.865104]}}, {"type": "Feature", "properties": {"cell_id": "881fb462cbfffff"}, "geometry": {"type": "Point", "coordinates": [2.226877, 48.87863]}}, {"type": "Feature", "properties": {"cell_id": "881fb462d1fffff"}, "geometry": {"type": "Point", "coordinates": [2.249524, 48.874222]}}, {"type": "Feature", "properties": {"cell_id": "881fb462d3fffff"}, "geometry": {"type": "Point", "coordinates": [2.260844, 48.872016]}}, {"type": "Feature", "properties": {"cell_id": "881fb462d5fffff"}, "geometry": {"type": "Point", "coordinates": [2.241882, 48.868562]}}, {"type": "Feature", "properties": {"cell_id": "881fb462d7fffff"}, "geometry": {"type": "Point", "coordinates": [2.253202, 48.866358]}}, {"type": "Feature", "properties": {"cell_id": "881fb462d9fffff"}, "geometry": {"type": "Point", "coordinates": [2.245844, 48.882086]}}, {"type": "Feature", "properties": {"cell_id": "881fb462dbfffff"}, "geometry": {"type": "Point", "coordinates": [2.257166, 48.879881]}}, {"type": "Feature", "properties": {"cell_id": "881fb462ddfffff"}, "geometry": {"type": "Point", "coordinates": [2.238201, 48.876427]}}, {"type": "Feature", "properties": {"cell_id": "881fb46401fffff"}, "geometry": {"type": "Point", "coordinates": [2.396188, 48.824103]}}, {"type": "Feature", "properties": {"cell_id": "881fb46403fffff"}, "geometry": {"type": "Point", "coordinates": [2.407477, 48.821887]}}, {"type": "Feature", "properties": {"cell_id": "881fb46405fffff"}, "geometry": {"type": "Point", "coordinates": [2.38855, 48.818453]}}, {"type": "Feature", "properties": {"cell_id": "881fb46407fffff"}, "geometry": {"type": "Point", "coordinates": [2.399839, 48.816238]}}, {"type": "Feature", "properties": {"cell_id": "881fb46409fffff"}, "geometry": {"type": "Point", "coordinates": [2.392536, 48.831968]}}, {"type": "Feature", "properties": {"cell_id": "881fb4640bfffff"}, "geometry": {"type": "Point", "coordinates": [2.403827, 48.829752]}}, {"type": "Feature", "properties": {"cell_id": "881fb4640dfffff"}, "geometry": {"type": "Point", "coordinates": [2.384897, 48.826318]}}, {"type": "Feature", "properties": {"cell_id": "881fb46411fffff"}, "geometry": {"type": "Point", "coordinates": [2.426403, 48.825316]}}, {"type": "Feature", "properties": {"cell_id": "881fb46413fffff"}, "geometry": {"type": "Point", "coordinates": [2.437687, 48.823098]}}, {"type": "Feature", "properties": {"cell_id": "881fb46415fffff"}, "geometry": {"type": "Point", "coordinates": [2.418764, 48.81967]}}, {"type": "Feature", "properties": {"cell_id": "881fb46417fffff"}, "geometry": {"type": "Point", "coordinates": [2.430049, 48.817452]}}, {"type": "Feature", "properties": {"cell_id": "881fb46419fffff"}, "geometry": {"type": "Point", "coordinates": [2.422755, 48.833181]}}, {"type": "Feature", "properties": {"cell_id": "881fb4641bfffff"}, "geometry": {"type": "Point", "coordinates": [2.434042, 48.830962]}}, {"type": "Feature", "properties": {"cell_id": "881fb4641dfffff"}, "geometry": {"type": "Point", "coordinates": [2.415116, 48.827534]}}, {"type": "Feature", "properties": {"cell_id": "881fb46441fffff"}, "geometry": {"type": "Point", "coordinates": [2.377587, 48.842048]}}, {"type": "Feature", "properties": {"cell_id": "881fb46443fffff"}, "geometry": {"type": "Point", "coordinates": [2.388882, 48.839832]}}, {"type": "Feature", "properties": {"cell_id": "881fb46445fffff"}, "geometry": {"type": "Point", "coordinates": [2.369947, 48.836397]}}, {"type": "Feature", "properties": {"cell_id": "881fb46447fffff"}, "geometry": {"type": "Point", "coordinates": [2.381243, 48.834183]}}, {"type": "Feature", "properties": {"cell_id": "881fb46449fffff"}, "geometry": {"type": "Point", "coordinates": [2.37393, 48.849912]}}, {"type": "Feature", "properties": {"cell_id": "881fb4644bfffff"}, "geometry": {"type": "Point", "coordinates": [2.385228, 48.847697]}}, {"type": "Feature", "properties": {"cell_id": "881fb4644dfffff"}, "geometry": {"type": "Point", "coordinates": [2.36629, 48.844262]}}, {"type": "Feature", "properties": {"cell_id": "881fb46451fffff"}, "geometry": {"type": "Point", "coordinates": [2.407816, 48.843263]}}, {"type": "Feature", "properties": {"cell_id": "881fb46453fffff"}, "geometry": {"type": "Point", "coordinates": [2.419106, 48.841045]}}, {"type": "Feature", "properties": {"cell_id": "881fb46455fffff"}, "geometry": {"type": "Point", "coordinates": [2.400175, 48.837616]}}, {"type": "Feature", "properties": {"cell_id": "881fb46457fffff"}, "geometry": {"type": "Point", "coordinates": [2.411466, 48.835399]}}, {"type": "Feature", "properties": {"cell_id": "881fb46459fffff"}, "geometry": {"type": "Point", "coordinates": [2.404164, 48.851127]}}, {"type": "Feature", "properties": {"cell_id": "881fb4645bfffff"}, "geometry": {"type": "Point", "coordinates": [2.415457, 48.848909]}}, {"type": "Feature", "properties": {"cell_id": "881fb4645dfffff"}, "geometry": {"type": "Point", "coordinates": [2.396523, 48.84548]}}, {"type": "Feature", "properties": {"cell_id": "881fb46461fffff"}, "geometry": {"type": "Point", "coordinates": [2.365966, 48.822881]}}, {"type": "Feature", "properties": {"cell_id": "881fb46463fffff"}, "geometry": {"type": "Point", "coordinates": [2.377259, 48.820668]}}, {"type": "Feature", "properties": {"cell_id": "881fb46465fffff"}, "geometry": {"type": "Point", "coordinates": [2.358329, 48.817228]}}, {"type": "Feature", "properties": {"cell_id": "881fb46467fffff"}, "geometry": {"type": "Point", "coordinates": [2.369622, 48.815016]}}, {"type": "Feature", "properties": {"cell_id": "881fb46469fffff"}, "geometry": {"type": "Point", "coordinates": [2.362309, 48.830746]}}, {"type": "Feature", "properties": {"cell_id": "881fb4646bfffff"}, "geometry": {"type": "Point", "coordinates": [2.373604, 48.828533]}}, {"type": "Feature", "properties": {"cell_id": "881fb4646dfffff"}, "geometry": {"type": "Point", "coordinates": [2.354671, 48.825094]}}, {"type": "Feature", "properties": {"cell_id": "881fb464c1fffff"}, "geometry": {"type": "Point", "coordinates": [2.456609, 48.826522]}}, {"type": "Feature", "properties": {"cell_id": "881fb464c5fffff"}, "geometry": {"type": "Point", "coordinates": [2.44897, 48.820878]}}, {"type": "Feature", "properties": {"cell_id": "881fb464c9fffff"}, "geometry": {"type": "Point", "coordinates": [2.452967, 48.834386]}}, {"type": "Feature", "properties": {"cell_id": "881fb464cdfffff"}, "geometry": {"type": "Point", "coordinates": [2.445326, 48.828742]}}, {"type": "Feature", "properties": {"cell_id": "881fb464e9fffff"}, "geometry": {"type": "Point", "coordinates": [2.441332, 48.815233]}}, {"type": "Feature", "properties": {"cell_id": "881fb46601fffff"}, "geometry": {"type": "Point", "coordinates": [2.370598, 48.879152]}}, {"type": "Feature", "properties": {"cell_id": "881fb46603fffff"}, "geometry": {"type": "Point", "coordinates": [2.381901, 48.876935]}}, {"type": "Feature", "properties": {"cell_id": "881fb46605fffff"}, "geometry": {"type": "Point", "coordinates": [2.362954, 48.873504]}}, {"type": "Feature", "properties": {"cell_id": "881fb46607fffff"}, "geometry": {"type": "Point", "coordinates": [2.374257, 48.871288]}}, {"type": "Feature", "properties": {"cell_id": "881fb46609fffff"}, "geometry": {"type": "Point", "coordinates": [2.366938, 48.887015]}}, {"type": "Feature", "properties": {"cell_id": "881fb4660bfffff"}, "geometry": {"type": "Point", "coordinates": [2.378243, 48.884798]}}, {"type": "Feature", "properties": {"cell_id": "881fb4660dfffff"}, "geometry": {"type": "Point", "coordinates": [2.359293, 48.881367]}}, {"type": "Feature", "properties": {"cell_id": "881fb46611fffff"}, "geometry": {"type": "Point", "coordinates": [2.400847, 48.880363]}}, {"type": "Feature", "properties": {"cell_id": "881fb46613fffff"}, "geometry": {"type": "Point", "coordinates": [2.412146, 48.878144]}}, {"type": "Feature", "properties": {"cell_id": "881fb46615fffff"}, "geometry": {"type": "Point", "coordinates": [2.393203, 48.874718]}}, {"type": "Feature", "properties": {"cell_id": "881fb46617fffff"}, "geometry": {"type": "Point", "coordinates": [2.404501, 48.8725]}}, {"type": "Feature", "properties": {"cell_id": "881fb46619fffff"}, "geometry": {"type": "Point", "coordinates": [2.397192, 48.888226]}}, {"type": "Feature", "properties": {"cell_id": "881fb4661bfffff"}, "geometry": {"type": "Point", "coordinates": [2.408493, 48.886007]}}, {"type": "Feature", "properties": {"cell_id": "881fb4661dfffff"}, "geometry": {"type": "Point", "coordinates": [2.389547, 48.882581]}}, {"type": "Feature", "properties": {"cell_id": "881fb46621fffff"}, "geometry": {"type": "Point", "coordinates": [2.358971, 48.859991]}}, {"type": "Feature", "properties": {"cell_id": "881fb46623fffff"}, "geometry": {"type": "Point", "coordinates": [2.370273, 48.857776]}}, {"type": "Feature", "properties": {"cell_id": "881fb46625fffff"}, "geometry": {"type": "Point", "coordinates": [2.35133, 48.85434]}}, {"type": "Feature", "properties": {"cell_id": "881fb46627fffff"}, "geometry": {"type": "Point", "coordinates": [2.362631, 48.852126]}}, {"type": "Feature", "properties": {"cell_id": "881fb46629fffff"}, "geometry": {"type": "Point", "coordinates": [2.355311, 48.867854]}}, {"type": "Feature", "properties": {"cell_id": "881fb4662bfffff"}, "geometry": {"type": "Point", "coordinates": [2.366614, 48.86564]}}, {"type": "Feature", "properties": {"cell_id": "881fb4662dfffff"}, "geometry": {"type": "Point", "coordinates": [2.347668, 48.862204]}}, {"type": "Feature", "properties": {"cell_id": "881fb46631fffff"}, "geometry": {"type": "Point", "coordinates": [2.389214, 48.861208]}}, {"type": "Feature", "properties": {"cell_id": "881fb46633fffff"}, "geometry": {"type": "Point", "coordinates": [2.400511, 48.858991]}}, {"type": "Feature", "properties": {"cell_id": "881fb46635fffff"}, "geometry": {"type": "Point", "coordinates": [2.381572, 48.855561]}}, {"type": "Feature", "properties": {"cell_id": "881fb46637fffff"}, "geometry": {"type": "Point", "coordinates": [2.392869, 48.853345]}}, {"type": "Feature", "properties": {"cell_id": "881fb46639fffff"}, "geometry": {"type": "Point", "coordinates": [2.385558, 48.869072]}}, {"type": "Feature", "properties": {"cell_id": "881fb4663bfffff"}, "geometry": {"type": "Point", "coordinates": [2.396857, 48.866855]}}, {"type": "Feature", "properties": {"cell_id": "881fb4663dfffff"}, "geometry": {"type": "Point", "coordinates": [2.377915, 48.863425]}}, {"type": "Feature", "properties": {"cell_id": "881fb46641fffff"}, "geometry": {"type": "Point", "coordinates": [2.351968, 48.897093]}}, {"type": "Feature", "properties": {"cell_id": "881fb46643fffff"}, "geometry": {"type": "Point", "coordinates": [2.363277, 48.894878]}}, {"type": "Feature", "properties": {"cell_id": "881fb46645fffff"}, "geometry": {"type": "Point", "coordinates": [2.344322, 48.891445]}}, {"type": "Feature", "properties": {"cell_id": "881fb46647fffff"}, "geometry": {"type": "Point", "coordinates": [2.355631, 48.88923]}}, {"type": "Feature", "properties": {"cell_id": "881fb46649fffff"}, "geometry": {"type": "Point", "coordinates": [2.348304, 48.904956]}}, {"type": "Feature", "properties": {"cell_id": "881fb4664bfffff"}, "geometry": {"type": "Point", "coordinates": [2.359615, 48.90274]}}, {"type": "Feature", "properties": {"cell_id": "881fb4664dfffff"}, "geometry": {"type": "Point", "coordinates": [2.340657, 48.899307]}}, {"type": "Feature", "properties": {"cell_id": "881fb46651fffff"}, "geometry": {"type": "Point", "coordinates": [2.382231, 48.898307]}}, {"type": "Feature", "properties": {"cell_id": "881fb46653fffff"}, "geometry": {"type": "Point", "coordinates": [2.393536, 48.896089]}}, {"type": "Feature", "properties": {"cell_id": "881fb46655fffff"}, "geometry": {"type": "Point", "coordinates": [2.374584, 48.892661]}}, {"type": "Feature", "properties": {"cell_id": "881fb46657fffff"}, "geometry": {"type": "Point", "coordinates": [2.385889, 48.890444]}}, {"type": "Feature", "properties": {"cell_id": "881fb4665bfffff"}, "geometry": {"type": "Point", "coordinates": [2.389879, 48.903951]}}, {"type": "Feature", "properties": {"cell_id": "881fb4665dfffff"}, "geometry": {"type": "Point", "coordinates": [2.370924, 48.900524]}}, {"type": "Feature", "properties": {"cell_id": "881fb46661fffff"}, "geometry": {"type": "Point", "coordinates": [2.340341, 48.877932]}}, {"type": "Feature", "properties": {"cell_id": "881fb46663fffff"}, "geometry": {"type": "Point", "coordinates": [2.351649, 48.875718]}}, {"type": "Feature", "properties": {"cell_id": "881fb46665fffff"}, "geometry": {"type": "Point", "coordinates": [2.332698, 48.872281]}}, {"type": "Feature", "properties": {"cell_id": "881fb46667fffff"}, "geometry": {"type": "Point", "coordinates": [2.344005, 48.870068]}}, {"type": "Feature", "properties": {"cell_id": "881fb46669fffff"}, "geometry": {"type": "Point", "coordinates": [2.336676, 48.885795]}}, {"type": "Feature", "properties": {"cell_id": "881fb4666bfffff"}, "geometry": {"type": "Point", "coordinates": [2.347986, 48.883581]}}, {"type": "Feature", "properties": {"cell_id": "881fb4666dfffff"}, "geometry": {"type": "Point", "coordinates": [2.329032, 48.880144]}}, {"type": "Feature", "properties": {"cell_id": "881fb46681fffff"}, "geometry": {"type": "Point", "coordinates": [2.449676, 48.863619]}}, {"type": "Feature", "properties": {"cell_id": "881fb46685fffff"}, "geometry": {"type": "Point", "coordinates": [2.442033, 48.857978]}}, {"type": "Feature", "properties": {"cell_id": "881fb46687fffff"}, "geometry": {"type": "Point", "coordinates": [2.453321, 48.855756]}}, {"type": "Feature", "properties": {"cell_id": "881fb46689fffff"}, "geometry": {"type": "Point", "coordinates": [2.44603, 48.871482]}}, {"type": "Feature", "properties": {"cell_id": "881fb4668bfffff"}, "geometry": {"type": "Point", "coordinates": [2.457321, 48.86926]}}, {"type": "Feature", "properties": {"cell_id": "881fb4668dfffff"}, "geometry": {"type": "Point", "coordinates": [2.438386, 48.865841]}}, {"type": "Feature", "properties": {"cell_id": "881fb466a1fffff"}, "geometry": {"type": "Point", "coordinates": [2.438036, 48.844471]}}, {"type": "Feature", "properties": {"cell_id": "881fb466a3fffff"}, "geometry": {"type": "Point", "coordinates": [2.449323, 48.84225]}}, {"type": "Feature", "properties": {"cell_id": "881fb466a5fffff"}, "geometry": {"type": "Point", "coordinates": [2.430395, 48.838826]}}, {"type": "Feature", "properties": {"cell_id": "881fb466a7fffff"}, "geometry": {"type": "Point", "coordinates": [2.441682, 48.836607]}}, {"type": "Feature", "properties": {"cell_id": "881fb466a9fffff"}, "geometry": {"type": "Point", "coordinates": [2.43439, 48.852335]}}, {"type": "Feature", "properties": {"cell_id": "881fb466abfffff"}, "geometry": {"type": "Point", "coordinates": [2.445678, 48.850114]}}, {"type": "Feature", "properties": {"cell_id": "881fb466adfffff"}, "geometry": {"type": "Point", "coordinates": [2.426748, 48.846691]}}, {"type": "Feature", "properties": {"cell_id": "881fb466bdfffff"}, "geometry": {"type": "Point", "coordinates": [2.456965, 48.847892]}}, {"type": "Feature", "properties": {"cell_id": "881fb466c1fffff"}, "geometry": {"type": "Point", "coordinates": [2.431089, 48.881567]}}, {"type": "Feature", "properties": {"cell_id": "881fb466c3fffff"}, "geometry": {"type": "Point", "coordinates": [2.442383, 48.879345]}}, {"type": "Feature", "properties": {"cell_id": "881fb466c5fffff"}, "geometry": {"type": "Point", "coordinates": [2.423443, 48.875925]}}, {"type": "Feature", "properties": {"cell_id": "881fb466c7fffff"}, "geometry": {"type": "Point", "coordinates": [2.434738, 48.873704]}}, {"type": "Feature", "properties": {"cell_id": "881fb466c9fffff"}, "geometry": {"type": "Point", "coordinates": [2.427439, 48.889429]}}, {"type": "Feature", "properties": {"cell_id": "881fb466cbfffff"}, "geometry": {"type": "Point", "coordinates": [2.438735, 48.887208]}}, {"type": "Feature", "properties": {"cell_id": "881fb466cdfffff"}, "geometry": {"type": "Point", "coordinates": [2.419792, 48.883787]}}, {"type": "Feature", "properties": {"cell_id": "881fb466d5fffff"}, "geometry": {"type": "Point", "coordinates": [2.453676, 48.877123]}}, {"type": "Feature", "properties": {"cell_id": "881fb466d9fffff"}, "geometry": {"type": "Point", "coordinates": [2.457677, 48.890624]}}, {"type": "Feature", "properties": {"cell_id": "881fb466ddfffff"}, "geometry": {"type": "Point", "coordinates": [2.45003, 48.884985]}}, {"type": "Feature", "properties": {"cell_id": "881fb466e1fffff"}, "geometry": {"type": "Point", "coordinates": [2.419449, 48.862418]}}, {"type": "Feature", "properties": {"cell_id": "881fb466e3fffff"}, "geometry": {"type": "Point", "coordinates": [2.430742, 48.860198]}}, {"type": "Feature", "properties": {"cell_id": "881fb466e5fffff"}, "geometry": {"type": "Point", "coordinates": [2.411806, 48.856773]}}, {"type": "Feature", "properties": {"cell_id": "881fb466e7fffff"}, "geometry": {"type": "Point", "coordinates": [2.423099, 48.854554]}}, {"type": "Feature", "properties": {"cell_id": "881fb466e9fffff"}, "geometry": {"type": "Point", "coordinates": [2.415798, 48.870281]}}, {"type": "Feature", "properties": {"cell_id": "881fb466ebfffff"}, "geometry": {"type": "Point", "coordinates": [2.427093, 48.868062]}}, {"type": "Feature", "properties": {"cell_id": "881fb466edfffff"}, "geometry": {"type": "Point", "coordinates": [2.408154, 48.864637]}}, {"type": "Feature", "properties": {"cell_id": "881fb46701fffff"}, "geometry": {"type": "Point", "coordinates": [2.317106, 48.839591]}}, {"type": "Feature", "properties": {"cell_id": "881fb46703fffff"}, "geometry": {"type": "Point", "coordinates": [2.32841, 48.837381]}}, {"type": "Feature", "properties": {"cell_id": "881fb46705fffff"}, "geometry": {"type": "Point", "coordinates": [2.309468, 48.833935]}}, {"type": "Feature", "properties": {"cell_id": "881fb46707fffff"}, "geometry": {"type": "Point", "coordinates": [2.320772, 48.831726]}}, {"type": "Feature", "properties": {"cell_id": "881fb46709fffff"}, "geometry": {"type": "Point", "coordinates": [2.31344, 48.847456]}}, {"type": "Feature", "properties": {"cell_id": "881fb4670bfffff"}, "geometry": {"type": "Point", "coordinates": [2.324746, 48.845246]}}, {"type": "Feature", "properties": {"cell_id": "881fb4670dfffff"}, "geometry": {"type": "Point", "coordinates": [2.305801, 48.841801]}}, {"type": "Feature", "properties": {"cell_id": "881fb46711fffff"}, "geometry": {"type": "Point", "coordinates": [2.347351, 48.840824]}}, {"type": "Feature", "properties": {"cell_id": "881fb46713fffff"}, "geometry": {"type": "Point", "coordinates": [2.35865, 48.838611]}}, {"type": "Feature", "properties": {"cell_id": "881fb46715fffff"}, "geometry": {"type": "Point", "coordinates": [2.339712, 48.835171]}}, {"type": "Feature", "properties": {"cell_id": "881fb46717fffff"}, "geometry": {"type": "Point", "coordinates": [2.351011, 48.832959]}}, {"type": "Feature", "properties": {"cell_id": "881fb46719fffff"}, "geometry": {"type": "Point", "coordinates": [2.343689, 48.848688]}}, {"type": "Feature", "properties": {"cell_id": "881fb4671bfffff"}, "geometry": {"type": "Point", "coordinates": [2.35499, 48.846476]}}, {"type": "Feature", "properties": {"cell_id": "881fb4671dfffff"}, "geometry": {"type": "Point", "coordinates": [2.336049, 48.843035]}}, {"type": "Feature", "properties": {"cell_id": "881fb46721fffff"}, "geometry": {"type": "Point", "coordinates": [2.305498, 48.820413]}}, {"type": "Feature", "properties": {"cell_id": "881fb46723fffff"}, "geometry": {"type": "Point", "coordinates": [2.3168, 48.818204]}}, {"type": "Feature", "properties": {"cell_id": "881fb46729fffff"}, "geometry": {"type": "Point", "coordinates": [2.301831, 48.828278]}}, {"type": "Feature", "properties": {"cell_id": "881fb4672bfffff"}, "geometry": {"type": "Point", "coordinates": [2.313135, 48.82607]}}, {"type": "Feature", "properties": {"cell_id": "881fb4672dfffff"}, "geometry": {"type": "Point", "coordinates": [2.294194, 48.82262]}}, {"type": "Feature", "properties": {"cell_id": "881fb46731fffff"}, "geometry": {"type": "Point", "coordinates": [2.335736, 48.821651]}}, {"type": "Feature", "properties": {"cell_id": "881fb46733fffff"}, "geometry": {"type": "Point", "coordinates": [2.347033, 48.81944]}}, {"type": "Feature", "properties": {"cell_id": "881fb46735fffff"}, "geometry": {"type": "Point", "coordinates": [2.3281, 48.815995]}}, {"type": "Feature", "properties": {"cell_id": "881fb46739fffff"}, "geometry": {"type": "Point", "coordinates": [2.332074, 48.829516]}}, {"type": "Feature", "properties": {"cell_id": "881fb4673bfffff"}, "geometry": {"type": "Point", "coordinates": [2.343373, 48.827305]}}, {"type": "Feature", "properties": {"cell_id": "881fb4673dfffff"}, "geometry": {"type": "Point", "coordinates": [2.324436, 48.823861]}}, {"type": "Feature", "properties": {"cell_id": "881fb46741fffff"}, "geometry": {"type": "Point", "coordinates": [2.298462, 48.85753]}}, {"type": "Feature", "properties": {"cell_id": "881fb46743fffff"}, "geometry": {"type": "Point", "coordinates": [2.309772, 48.855321]}}, {"type": "Feature", "properties": {"cell_id": "881fb46745fffff"}, "geometry": {"type": "Point", "coordinates": [2.290822, 48.851874]}}, {"type": "Feature", "properties": {"cell_id": "881fb46747fffff"}, "geometry": {"type": "Point", "coordinates": [2.302132, 48.849665]}}, {"type": "Feature", "properties": {"cell_id": "881fb46749fffff"}, "geometry": {"type": "Point", "coordinates": [2.294792, 48.865394]}}, {"type": "Feature", "properties": {"cell_id": "881fb4674bfffff"}, "geometry": {"type": "Point", "coordinates": [2.306104, 48.863185]}}, {"type": "Feature", "properties": {"cell_id": "881fb4674dfffff"}, "geometry": {"type": "Point", "coordinates": [2.287151, 48.859738]}}, {"type": "Feature", "properties": {"cell_id": "881fb46751fffff"}, "geometry": {"type": "Point", "coordinates": [2.328721, 48.858764]}}, {"type": "Feature", "properties": {"cell_id": "881fb46753fffff"}, "geometry": {"type": "Point", "coordinates": [2.340026, 48.856553]}}, {"type": "Feature", "properties": {"cell_id": "881fb46755fffff"}, "geometry": {"type": "Point", "coordinates": [2.32108, 48.853111]}}, {"type": "Feature", "properties": {"cell_id": "881fb46757fffff"}, "geometry": {"type": "Point", "coordinates": [2.332386, 48.8509]}}, {"type": "Feature", "properties": {"cell_id": "881fb46759fffff"}, "geometry": {"type": "Point", "coordinates": [2.325055, 48.866629]}}, {"type": "Feature", "properties": {"cell_id": "881fb4675bfffff"}, "geometry": {"type": "Point", "coordinates": [2.336363, 48.864417]}}, {"type": "Feature", "properties": {"cell_id": "881fb4675dfffff"}, "geometry": {"type": "Point", "coordinates": [2.317413, 48.860975]}}, {"type": "Feature", "properties": {"cell_id": "881fb46761fffff"}, "geometry": {"type": "Point", "coordinates": [2.286854, 48.838351]}}, {"type": "Feature", "properties": {"cell_id": "881fb46763fffff"}, "geometry": {"type": "Point", "coordinates": [2.298162, 48.836144]}}, {"type": "Feature", "properties": {"cell_id": "881fb46765fffff"}, "geometry": {"type": "Point", "coordinates": [2.279217, 48.832692]}}, {"type": "Feature", "properties": {"cell_id": "881fb46767fffff"}, "geometry": {"type": "Point", "coordinates": [2.290525, 48.830485]}}, {"type": "Feature", "properties": {"cell_id": "881fb46769fffff"}, "geometry": {"type": "Point", "coordinates": [2.283183, 48.846216]}}, {"type": "Feature", "properties": {"cell_id": "881fb4676bfffff"}, "geometry": {"type": "Point", "coordinates": [2.294493, 48.844009]}}, {"type": "Feature", "properties": {"cell_id": "881fb4676dfffff"}, "geometry": {"type": "Point", "coordinates": [2.275544, 48.840557]}}, {"type": "Feature", "properties": {"cell_id": "881fb47517fffff"}, "geometry": {"type": "Point", "coordinates": [2.246126, 48.903471]}}, {"type": "Feature", "properties": {"cell_id": "881fb47531fffff"}, "geometry": {"type": "Point", "coordinates": [2.230836, 48.892155]}}, {"type": "Feature", "properties": {"cell_id": "881fb47533fffff"}, "geometry": {"type": "Point", "coordinates": [2.242163, 48.88995]}}, {"type": "Feature", "properties": {"cell_id": "881fb47535fffff"}, "geometry": {"type": "Point", "coordinates": [2.223193, 48.886494]}}, {"type": "Feature", "properties": {"cell_id": "881fb47537fffff"}, "geometry": {"type": "Point", "coordinates": [2.234519, 48.884291]}}, {"type": "Feature", "properties": {"cell_id": "881fb47539fffff"}, "geometry": {"type": "Point", "coordinates": [2.227152, 48.900018]}}, {"type": "Feature", "properties": {"cell_id": "881fb4753bfffff"}, "geometry": {"type": "Point", "coordinates": [2.238481, 48.897814]}}, {"type": "Feature", "properties": {"cell_id": "881fb47581fffff"}, "geometry": {"type": "Point", "coordinates": [2.291418, 48.89464]}}, {"type": "Feature", "properties": {"cell_id": "881fb47583fffff"}, "geometry": {"type": "Point", "coordinates": [2.302736, 48.89243]}}, {"type": "Feature", "properties": {"cell_id": "881fb47585fffff"}, "geometry": {"type": "Point", "coordinates": [2.283773, 48.888986]}}, {"type": "Feature", "properties": {"cell_id": "881fb47587fffff"}, "geometry": {"type": "Point", "coordinates": [2.295091, 48.886777]}}, {"type": "Feature", "properties": {"cell_id": "881fb47589fffff"}, "geometry": {"type": "Point", "coordinates": [2.287744, 48.902503]}}, {"type": "Feature", "properties": {"cell_id": "881fb4758bfffff"}, "geometry": {"type": "Point", "coordinates": [2.299063, 48.900293]}}, {"type": "Feature", "properties": {"cell_id": "881fb4758dfffff"}, "geometry": {"type": "Point", "coordinates": [2.280098, 48.896849]}}, {"type": "Feature", "properties": {"cell_id": "881fb47591fffff"}, "geometry": {"type": "Point", "coordinates": [2.321697, 48.895871]}}, {"type": "Feature", "properties": {"cell_id": "881fb47593fffff"}, "geometry": {"type": "Point", "coordinates": [2.33301, 48.893658]}}, {"type": "Feature", "properties": {"cell_id": "881fb47595fffff"}, "geometry": {"type": "Point", "coordinates": [2.314051, 48.890219]}}, {"type": "Feature", "properties": {"cell_id": "881fb47597fffff"}, "geometry": {"type": "Point", "coordinates": [2.325365, 48.888008]}}, {"type": "Feature", "properties": {"cell_id": "881fb47599fffff"}, "geometry": {"type": "Point", "coordinates": [2.318028, 48.903734]}}, {"type": "Feature", "properties": {"cell_id": "881fb4759bfffff"}, "geometry": {"type": "Point", "coordinates": [2.329343, 48.901521]}}, {"type": "Feature", "properties": {"cell_id": "881fb4759dfffff"}, "geometry": {"type": "Point", "coordinates": [2.310381, 48.898083]}}, {"type": "Feature", "properties": {"cell_id": "881fb475a1fffff"}, "geometry": {"type": "Point", "coordinates": [2.279804, 48.875467]}}, {"type": "Feature", "properties": {"cell_id": "881fb475a3fffff"}, "geometry": {"type": "Point", "coordinates": [2.29112, 48.873259]}}, {"type": "Feature", "properties": {"cell_id": "881fb475a5fffff"}, "geometry": {"type": "Point", "coordinates": [2.272162, 48.86981]}}, {"type": "Feature", "properties": {"cell_id": "881fb475a7fffff"}, "geometry": {"type": "Point", "coordinates": [2.283478, 48.867603]}}, {"type": "Feature", "properties": {"cell_id": "881fb475a9fffff"}, "geometry": {"type": "Point", "coordinates": [2.276129, 48.883331]}}, {"type": "Feature", "properties": {"cell_id": "881fb475abfffff"}, "geometry": {"type": "Point", "coordinates": [2.287447, 48.881122]}}, {"type": "Feature", "properties": {"cell_id": "881fb475adfffff"}, "geometry": {"type": "Point", "coordinates": [2.268486, 48.877674]}}, {"type": "Feature", "properties": {"cell_id": "881fb475b1fffff"}, "geometry": {"type": "Point", "coordinates": [2.310077, 48.876703]}}, {"type": "Feature", "properties": {"cell_id": "881fb475b3fffff"}, "geometry": {"type": "Point", "coordinates": [2.321388, 48.874492]}}, {"type": "Feature", "properties": {"cell_id": "881fb475b5fffff"}, "geometry": {"type": "Point", "coordinates": [2.302434, 48.871049]}}, {"type": "Feature", "properties": {"cell_id": "881fb475b7fffff"}, "geometry": {"type": "Point", "coordinates": [2.313745, 48.868839]}}, {"type": "Feature", "properties": {"cell_id": "881fb475b9fffff"}, "geometry": {"type": "Point", "coordinates": [2.306407, 48.884567]}}, {"type": "Feature", "properties": {"cell_id": "881fb475bbfffff"}, "geometry": {"type": "Point", "coordinates": [2.31772, 48.882356]}}, {"type": "Feature", "properties": {"cell_id": "881fb475bdfffff"}, "geometry": {"type": "Point", "coordinates": [2.298763, 48.878913]}}, {"type": "Feature", "properties": {"cell_id": "881fb475c7fffff"}, "geometry": {"type": "Point", "coordinates": [2.276422, 48.904713]}}, {"type": "Feature", "properties": {"cell_id": "881fb475e1fffff"}, "geometry": {"type": "Point", "coordinates": [2.261131, 48.893402]}}, {"type": "Feature", "properties": {"cell_id": "881fb475e3fffff"}, "geometry": {"type": "Point", "coordinates": [2.272453, 48.891194]}}, {"type": "Feature", "properties": {"cell_id": "881fb475e5fffff"}, "geometry": {"type": "Point", "coordinates": [2.253487, 48.887744]}}, {"type": "Feature", "properties": {"cell_id": "881fb475e7fffff"}, "geometry": {"type": "Point", "coordinates": [2.264809, 48.885538]}}, {"type": "Feature", "properties": {"cell_id": "881fb475e9fffff"}, "geometry": {"type": "Point", "coordinates": [2.257452, 48.901265]}}, {"type": "Feature", "properties": {"cell_id": "881fb475ebfffff"}, "geometry": {"type": "Point", "coordinates": [2.268776, 48.899058]}}, {"type": "Feature", "properties": {"cell_id": "881fb475edfffff"}, "geometry": {"type": "Point", "coordinates": [2.249807, 48.895608]}}], "_version": 4}