{"type": "FeatureCollection", "features": [{"type": "Feature", "properties": {"cell_id": "871fb4292ffffff"}, "geometry": {"type": "Point", "coordinates": [2.412487, 48.899512]}}, {"type": "Feature", "properties": {"cell_id": "871fb4293ffffff"}, "geometry": {"type": "Point", "coordinates": [2.442734, 48.90071]}}, {"type": "Feature", "properties": {"cell_id": "871fb460cffffff"}, "geometry": {"type": "Point", "coordinates": [2.244999, 48.817911]}}, {"type": "Feature", "properties": {"cell_id": "871fb460dffffff"}, "geometry": {"type": "Point", "coordinates": [2.275252, 48.819166]}}, {"type": "Feature", "properties": {"cell_id": "871fb4628ffffff"}, "geometry": {"type": "Point", "coordinates": [2.237922, 48.855036]}}, {"type": "Feature", "properties": {"cell_id": "871fb4629ffffff"}, "geometry": {"type": "Point", "coordinates": [2.268196, 48.856287]}}, {"type": "Feature", "properties": {"cell_id": "871fb462affffff"}, "geometry": {"type": "Point", "coordinates": [2.226327, 48.835845]}}, {"type": "Feature", "properties": {"cell_id": "871fb462bffffff"}, "geometry": {"type": "Point", "coordinates": [2.256595, 48.837102]}}, {"type": "Feature", "properties": {"cell_id": "871fb462dffffff"}, "geometry": {"type": "Point", "coordinates": [2.249524, 48.874222]}}, {"type": "Feature", "properties": {"cell_id": "871fb4640ffffff"}, "geometry": {"type": "Point", "coordinates": [2.396188, 48.824103]}}, {"type": "Feature", "properties": {"cell_id": "871fb4641ffffff"}, "geometry": {"type": "Point", "coordinates": [2.426403, 48.825316]}}, {"type": "Feature", "properties": {"cell_id": "871fb4644ffffff"}, "geometry": {"type": "Point", "coordinates": [2.377587, 48.842048]}}, {"type": "Feature", "properties": {"cell_id": "871fb4645ffffff"}, "geometry": {"type": "Point", "coordinates": [2.407816, 48.843263]}}, {"type": "Feature", "properties": {"cell_id": "871fb4646ffffff"}, "geometry": {"type": "Point", "coordinates": [2.365966, 48.822881]}}, {"type": "Feature", "properties": {"cell_id": "871fb464cffffff"}, "geometry": {"type": "Point", "coordinates": [2.456609, 48.826522]}}, {"type": "Feature", "properties": {"cell_id": "871fb4660ffffff"}, "geometry": {"type": "Point", "coordinates": [2.370598, 48.879152]}}, {"type": "Feature", "properties": {"cell_id": "871fb4661ffffff"}, "geometry": {"type": "Point", "coordinates": [2.400847, 48.880363]}}, {"type": "Feature", "properties": {"cell_id": "871fb4662ffffff"}, "geometry": {"type": "Point", "coordinates": [2.358971, 48.859991]}}, {"type": "Feature", "properties": {"cell_id": "871fb4663ffffff"}, "geometry": {"type": "Point", "coordinates": [2.389214, 48.861208]}}, {"type": "Feature", "properties": {"cell_id": "871fb4664ffffff"}, "geometry": {"type": "Point", "coordinates": [2.351968, 48.897093]}}, {"type": "Feature", "properties": {"cell_id": "871fb4665ffffff"}, "geometry": {"type": "Point", "coordinates": [2.382231, 48.898307]}}, {"type": "Feature", "properties": {"cell_id": "871fb4666ffffff"}, "geometry": {"type": "Point", "coordinates": [2.340341, 48.877932]}}, {"type": "Feature", "properties": {"cell_id": "871fb4668ffffff"}, "geometry": {"type": "Point", "coordinates": [2.449676, 48.863619]}}, {"type": "Feature", "properties": {"cell_id": "871fb466affffff"}, "geometry": {"type": "Point", "coordinates": [2.438036, 48.844471]}}, {"type": "Feature", "properties": {"cell_id": "871fb466cffffff"}, "geometry": {"type": "Point", "coordinates": [2.431089, 48.881567]}}, {"type": "Feature", "properties": {"cell_id": "871fb466effffff"}, "geometry": {"type": "Point", "coordinates": [2.419449, 48.862418]}}, {"type": "Feature", "properties": {"cell_id": "871fb4670ffffff"}, "geometry": {"type": "Point", "coordinates": [2.317106, 48.839591]}}, {"type": "Feature", "properties": {"cell_id": "871fb4671ffffff"}, "geometry": {"type": "Point", "coordinates": [2.347351, 48.840824]}}, {"type": "Feature", "properties": {"cell_id": "871fb4672ffffff"}, "geometry": {"type": "Point", "coordinates": [2.305498, 48.820413]}}, {"type": "Feature", "properties": {"cell_id": "871fb4673ffffff"}, "geometry": {"type": "Point", "coordinates": [2.335736, 48.821651]}}, {"type": "Feature", "properties": {"cell_id": "871fb4674ffffff"}, "geometry": {"type": "Point", "coordinates": [2.298462, 48.85753]}}, {"type": "Feature", "properties": {"cell_id": "871fb4675ffffff"}, "geometry": {"type": "Point", "coordinates": [2.328721, 48.858764]}}, {"type": "Feature", "properties": {"cell_id": "871fb4676ffffff"}, "geometry": {"type": "Point", "coordinates": [2.286854, 48.838351]}}, {"type": "Feature", "properties": {"cell_id": "871fb4753ffffff"}, "geometry": {"type": "Point", "coordinates": [2.230836, 48.892155]}}, {"type": "Feature", "properties": {"cell_id": "871fb4758ffffff"}, "geometry": {"type": "Point", "coordinates": [2.291418, 48.89464]}}, {"type": "Feature", "properties": {"cell_id": "871fb4759ffffff"}, "geometry": {"type": "Point", "coordinates": [2.321697, 48.895871]}}, {"type": "Feature", "properties": {"cell_id": "871fb475affffff"}, "geometry": {"type": "Point", "coordinates": [2.279804, 48.875467]}}, {"type": "Feature", "properties": {"cell_id": "871fb475bffffff"}, "geometry": {"type": "Point", "coordinates": [2.310077, 48.876703]}}, {"type": "Feature", "properties": {"cell_id": "871fb475effffff"}, "geometry": {"type": "Point", "coordinates": [2.261131, 48.893402]}}], "_version": 4}