{"type": "FeatureCollection", "features": [{"type": "Feature", "properties": {"cell_id": "872830820ffffff"}, "geometry": {"type": "Point", "coordinates": [-122.366698, 37.732608]}}, {"type": "Feature", "properties": {"cell_id": "872830821ffffff"}, "geometry": {"type": "Point", "coordinates": [-122.391826, 37.741909]}}, {"type": "Feature", "properties": {"cell_id": "872830824ffffff"}, "geometry": {"type": "Point", "coordinates": [-122.365392, 37.710284]}}, {"type": "Feature", "properties": {"cell_id": "872830825ffffff"}, "geometry": {"type": "Point", "coordinates": [-122.390514, 37.719588]}}, {"type": "Feature", "properties": {"cell_id": "872830828ffffff"}, "geometry": {"type": "Point", "coordinates": [-122.418271, 37.773515]}}, {"type": "Feature", "properties": {"cell_id": "872830829ffffff"}, "geometry": {"type": "Point", "coordinates": [-122.443404, 37.782797]}}, {"type": "Feature", "properties": {"cell_id": "87283082affffff"}, "geometry": {"type": "Point", "coordinates": [-122.394451, 37.786539]}}, {"type": "Feature", "properties": {"cell_id": "87283082bffffff"}, "geometry": {"type": "Point", "coordinates": [-122.419589, 37.795824]}}, {"type": "Feature", "properties": {"cell_id": "87283082cffffff"}, "geometry": {"type": "Point", "coordinates": [-122.416953, 37.751202]}}, {"type": "Feature", "properties": {"cell_id": "87283082dffffff"}, "geometry": {"type": "Point", "coordinates": [-122.442081, 37.760487]}}, {"type": "Feature", "properties": {"cell_id": "87283082effffff"}, "geometry": {"type": "Point", "coordinates": [-122.393138, 37.764226]}}, {"type": "Feature", "properties": {"cell_id": "872830874ffffff"}, "geometry": {"type": "Point", "coordinates": [-122.468538, 37.792071]}}, {"type": "Feature", "properties": {"cell_id": "872830876ffffff"}, "geometry": {"type": "Point", "coordinates": [-122.444728, 37.805102]}}, {"type": "Feature", "properties": {"cell_id": "872830942ffffff"}, "geometry": {"type": "Point", "coordinates": [-122.488341, 37.712106]}}, {"type": "Feature", "properties": {"cell_id": "872830950ffffff"}, "geometry": {"type": "Point", "coordinates": [-122.439437, 37.715857]}}, {"type": "Feature", "properties": {"cell_id": "872830951ffffff"}, "geometry": {"type": "Point", "coordinates": [-122.464555, 37.725142]}}, {"type": "Feature", "properties": {"cell_id": "872830952ffffff"}, "geometry": {"type": "Point", "coordinates": [-122.415636, 37.728885]}}, {"type": "Feature", "properties": {"cell_id": "872830953ffffff"}, "geometry": {"type": "Point", "coordinates": [-122.440759, 37.738174]}}, {"type": "Feature", "properties": {"cell_id": "872830955ffffff"}, "geometry": {"type": "Point", "coordinates": [-122.463228, 37.702824]}}, {"type": "Feature", "properties": {"cell_id": "872830956ffffff"}, "geometry": {"type": "Point", "coordinates": [-122.41432, 37.706564]}}, {"type": "Feature", "properties": {"cell_id": "872830958ffffff"}, "geometry": {"type": "Point", "coordinates": [-122.491006, 37.75673]}}, {"type": "Feature", "properties": {"cell_id": "872830959ffffff"}, "geometry": {"type": "Point", "coordinates": [-122.51613, 37.765997]}}, {"type": "Feature", "properties": {"cell_id": "87283095affffff"}, "geometry": {"type": "Point", "coordinates": [-122.46721, 37.769765]}}, {"type": "Feature", "properties": {"cell_id": "87283095bffffff"}, "geometry": {"type": "Point", "coordinates": [-122.492339, 37.779036]}}, {"type": "Feature", "properties": {"cell_id": "87283095cffffff"}, "geometry": {"type": "Point", "coordinates": [-122.489673, 37.73442]}}, {"type": "Feature", "properties": {"cell_id": "87283095effffff"}, "geometry": {"type": "Point", "coordinates": [-122.465882, 37.747456]}}], "_version": 4}