{"type": "FeatureCollection", "features": [{"type": "Feature", "properties": {"cell_id": "8828308015fffff"}, "geometry": {"type": "Point", "coordinates": [-122.360219, 37.801949]}}, {"type": "Feature", "properties": {"cell_id": "882830805bfffff"}, "geometry": {"type": "Point", "coordinates": [-122.379712, 37.774854]}}, {"type": "Feature", "properties": {"cell_id": "88283080c9fffff"}, "geometry": {"type": "Point", "coordinates": [-122.398793, 37.800614]}}, {"type": "Feature", "properties": {"cell_id": "88283080cbfffff"}, "geometry": {"type": "Point", "coordinates": [-122.406164, 37.806453]}}, {"type": "Feature", "properties": {"cell_id": "88283080d9fffff"}, "geometry": {"type": "Point", "coordinates": [-122.423934, 37.809896]}}, {"type": "Feature", "properties": {"cell_id": "88283080dbfffff"}, "geometry": {"type": "Point", "coordinates": [-122.431307, 37.815733]}}, {"type": "Feature", "properties": {"cell_id": "88283080ddfffff"}, "geometry": {"type": "Point", "coordinates": [-122.413536, 37.812292]}}, {"type": "Feature", "properties": {"cell_id": "88283080edfffff"}, "geometry": {"type": "Point", "coordinates": [-122.364558, 37.816025]}}, {"type": "Feature", "properties": {"cell_id": "8828308201fffff"}, "geometry": {"type": "Point", "coordinates": [-122.366698, 37.732608]}}, {"type": "Feature", "properties": {"cell_id": "8828308203fffff"}, "geometry": {"type": "Point", "coordinates": [-122.374064, 37.738455]}}, {"type": "Feature", "properties": {"cell_id": "8828308209fffff"}, "geometry": {"type": "Point", "coordinates": [-122.369728, 37.724371]}}, {"type": "Feature", "properties": {"cell_id": "882830820bfffff"}, "geometry": {"type": "Point", "coordinates": [-122.377093, 37.730218]}}, {"type": "Feature", "properties": {"cell_id": "882830820dfffff"}, "geometry": {"type": "Point", "coordinates": [-122.359333, 37.726761]}}, {"type": "Feature", "properties": {"cell_id": "8828308211fffff"}, "geometry": {"type": "Point", "coordinates": [-122.391826, 37.741909]}}, {"type": "Feature", "properties": {"cell_id": "8828308213fffff"}, "geometry": {"type": "Point", "coordinates": [-122.399193, 37.747753]}}, {"type": "Feature", "properties": {"cell_id": "8828308215fffff"}, "geometry": {"type": "Point", "coordinates": [-122.381431, 37.744301]}}, {"type": "Feature", "properties": {"cell_id": "8828308217fffff"}, "geometry": {"type": "Point", "coordinates": [-122.388798, 37.750146]}}, {"type": "Feature", "properties": {"cell_id": "8828308219fffff"}, "geometry": {"type": "Point", "coordinates": [-122.394853, 37.733672]}}, {"type": "Feature", "properties": {"cell_id": "882830821bfffff"}, "geometry": {"type": "Point", "coordinates": [-122.402219, 37.739516]}}, {"type": "Feature", "properties": {"cell_id": "882830821dfffff"}, "geometry": {"type": "Point", "coordinates": [-122.384459, 37.736064]}}, {"type": "Feature", "properties": {"cell_id": "8828308233fffff"}, "geometry": {"type": "Point", "coordinates": [-122.375373, 37.760774]}}, {"type": "Feature", "properties": {"cell_id": "8828308239fffff"}, "geometry": {"type": "Point", "coordinates": [-122.371035, 37.746692]}}, {"type": "Feature", "properties": {"cell_id": "882830823bfffff"}, "geometry": {"type": "Point", "coordinates": [-122.378402, 37.752538]}}, {"type": "Feature", "properties": {"cell_id": "8828308241fffff"}, "geometry": {"type": "Point", "coordinates": [-122.365392, 37.710284]}}, {"type": "Feature", "properties": {"cell_id": "8828308247fffff"}, "geometry": {"type": "Point", "coordinates": [-122.362363, 37.718522]}}, {"type": "Feature", "properties": {"cell_id": "8828308249fffff"}, "geometry": {"type": "Point", "coordinates": [-122.368421, 37.702045]}}, {"type": "Feature", "properties": {"cell_id": "8828308251fffff"}, "geometry": {"type": "Point", "coordinates": [-122.390514, 37.719588]}}, {"type": "Feature", "properties": {"cell_id": "8828308253fffff"}, "geometry": {"type": "Point", "coordinates": [-122.397879, 37.725434]}}, {"type": "Feature", "properties": {"cell_id": "8828308255fffff"}, "geometry": {"type": "Point", "coordinates": [-122.380121, 37.72198]}}, {"type": "Feature", "properties": {"cell_id": "8828308257fffff"}, "geometry": {"type": "Point", "coordinates": [-122.387487, 37.727826]}}, {"type": "Feature", "properties": {"cell_id": "8828308259fffff"}, "geometry": {"type": "Point", "coordinates": [-122.39354, 37.711349]}}, {"type": "Feature", "properties": {"cell_id": "882830825bfffff"}, "geometry": {"type": "Point", "coordinates": [-122.400905, 37.717196]}}, {"type": "Feature", "properties": {"cell_id": "882830825dfffff"}, "geometry": {"type": "Point", "coordinates": [-122.383149, 37.713741]}}, {"type": "Feature", "properties": {"cell_id": "882830826bfffff"}, "geometry": {"type": "Point", "coordinates": [-122.351968, 37.720912]}}, {"type": "Feature", "properties": {"cell_id": "8828308281fffff"}, "geometry": {"type": "Point", "coordinates": [-122.418271, 37.773515]}}, {"type": "Feature", "properties": {"cell_id": "8828308283fffff"}, "geometry": {"type": "Point", "coordinates": [-122.42564, 37.779355]}}, {"type": "Feature", "properties": {"cell_id": "8828308285fffff"}, "geometry": {"type": "Point", "coordinates": [-122.407876, 37.77591]}}, {"type": "Feature", "properties": {"cell_id": "8828308287fffff"}, "geometry": {"type": "Point", "coordinates": [-122.415245, 37.78175]}}, {"type": "Feature", "properties": {"cell_id": "8828308289fffff"}, "geometry": {"type": "Point", "coordinates": [-122.421296, 37.765279]}}, {"type": "Feature", "properties": {"cell_id": "882830828bfffff"}, "geometry": {"type": "Point", "coordinates": [-122.428665, 37.77112]}}, {"type": "Feature", "properties": {"cell_id": "882830828dfffff"}, "geometry": {"type": "Point", "coordinates": [-122.410902, 37.767674]}}, {"type": "Feature", "properties": {"cell_id": "8828308291fffff"}, "geometry": {"type": "Point", "coordinates": [-122.443404, 37.782797]}}, {"type": "Feature", "properties": {"cell_id": "8828308293fffff"}, "geometry": {"type": "Point", "coordinates": [-122.450775, 37.788634]}}, {"type": "Feature", "properties": {"cell_id": "8828308295fffff"}, "geometry": {"type": "Point", "coordinates": [-122.43301, 37.785194]}}, {"type": "Feature", "properties": {"cell_id": "8828308297fffff"}, "geometry": {"type": "Point", "coordinates": [-122.440381, 37.791031]}}, {"type": "Feature", "properties": {"cell_id": "8828308299fffff"}, "geometry": {"type": "Point", "coordinates": [-122.446428, 37.774562]}}, {"type": "Feature", "properties": {"cell_id": "882830829bfffff"}, "geometry": {"type": "Point", "coordinates": [-122.453797, 37.780399]}}, {"type": "Feature", "properties": {"cell_id": "882830829dfffff"}, "geometry": {"type": "Point", "coordinates": [-122.436035, 37.776959]}}, {"type": "Feature", "properties": {"cell_id": "88283082a1fffff"}, "geometry": {"type": "Point", "coordinates": [-122.394451, 37.786539]}}, {"type": "Feature", "properties": {"cell_id": "88283082a3fffff"}, "geometry": {"type": "Point", "coordinates": [-122.401821, 37.792379]}}, {"type": "Feature", "properties": {"cell_id": "88283082a5fffff"}, "geometry": {"type": "Point", "coordinates": [-122.384052, 37.788932]}}, {"type": "Feature", "properties": {"cell_id": "88283082a7fffff"}, "geometry": {"type": "Point", "coordinates": [-122.391422, 37.794773]}}, {"type": "Feature", "properties": {"cell_id": "88283082a9fffff"}, "geometry": {"type": "Point", "coordinates": [-122.397479, 37.778304]}}, {"type": "Feature", "properties": {"cell_id": "88283082abfffff"}, "geometry": {"type": "Point", "coordinates": [-122.404849, 37.784145]}}, {"type": "Feature", "properties": {"cell_id": "88283082adfffff"}, "geometry": {"type": "Point", "coordinates": [-122.387081, 37.780697]}}, {"type": "Feature", "properties": {"cell_id": "88283082b1fffff"}, "geometry": {"type": "Point", "coordinates": [-122.419589, 37.795824]}}, {"type": "Feature", "properties": {"cell_id": "88283082b3fffff"}, "geometry": {"type": "Point", "coordinates": [-122.42696, 37.801662]}}, {"type": "Feature", "properties": {"cell_id": "88283082b5fffff"}, "geometry": {"type": "Point", "coordinates": [-122.409192, 37.798219]}}, {"type": "Feature", "properties": {"cell_id": "88283082b7fffff"}, "geometry": {"type": "Point", "coordinates": [-122.416563, 37.804058]}}, {"type": "Feature", "properties": {"cell_id": "88283082b9fffff"}, "geometry": {"type": "Point", "coordinates": [-122.422615, 37.78759]}}, {"type": "Feature", "properties": {"cell_id": "88283082bbfffff"}, "geometry": {"type": "Point", "coordinates": [-122.429986, 37.793428]}}, {"type": "Feature", "properties": {"cell_id": "88283082bdfffff"}, "geometry": {"type": "Point", "coordinates": [-122.412219, 37.789985]}}, {"type": "Feature", "properties": {"cell_id": "88283082c1fffff"}, "geometry": {"type": "Point", "coordinates": [-122.416953, 37.751202]}}, {"type": "Feature", "properties": {"cell_id": "88283082c3fffff"}, "geometry": {"type": "Point", "coordinates": [-122.424321, 37.757043]}}, {"type": "Feature", "properties": {"cell_id": "88283082c5fffff"}, "geometry": {"type": "Point", "coordinates": [-122.40656, 37.753596]}}, {"type": "Feature", "properties": {"cell_id": "88283082c7fffff"}, "geometry": {"type": "Point", "coordinates": [-122.413928, 37.759438]}}, {"type": "Feature", "properties": {"cell_id": "88283082c9fffff"}, "geometry": {"type": "Point", "coordinates": [-122.419978, 37.742965]}}, {"type": "Feature", "properties": {"cell_id": "88283082cbfffff"}, "geometry": {"type": "Point", "coordinates": [-122.427345, 37.748807]}}, {"type": "Feature", "properties": {"cell_id": "88283082cdfffff"}, "geometry": {"type": "Point", "coordinates": [-122.409586, 37.74536]}}, {"type": "Feature", "properties": {"cell_id": "88283082d1fffff"}, "geometry": {"type": "Point", "coordinates": [-122.442081, 37.760487]}}, {"type": "Feature", "properties": {"cell_id": "88283082d3fffff"}, "geometry": {"type": "Point", "coordinates": [-122.44945, 37.766326]}}, {"type": "Feature", "properties": {"cell_id": "88283082d5fffff"}, "geometry": {"type": "Point", "coordinates": [-122.431689, 37.762884]}}, {"type": "Feature", "properties": {"cell_id": "88283082d7fffff"}, "geometry": {"type": "Point", "coordinates": [-122.439058, 37.768723]}}, {"type": "Feature", "properties": {"cell_id": "88283082d9fffff"}, "geometry": {"type": "Point", "coordinates": [-122.445104, 37.752251]}}, {"type": "Feature", "properties": {"cell_id": "88283082dbfffff"}, "geometry": {"type": "Point", "coordinates": [-122.452472, 37.75809]}}, {"type": "Feature", "properties": {"cell_id": "88283082ddfffff"}, "geometry": {"type": "Point", "coordinates": [-122.434713, 37.754648]}}, {"type": "Feature", "properties": {"cell_id": "88283082e1fffff"}, "geometry": {"type": "Point", "coordinates": [-122.393138, 37.764226]}}, {"type": "Feature", "properties": {"cell_id": "88283082e3fffff"}, "geometry": {"type": "Point", "coordinates": [-122.400507, 37.770068]}}, {"type": "Feature", "properties": {"cell_id": "88283082e5fffff"}, "geometry": {"type": "Point", "coordinates": [-122.382741, 37.766618]}}, {"type": "Feature", "properties": {"cell_id": "88283082e7fffff"}, "geometry": {"type": "Point", "coordinates": [-122.39011, 37.772462]}}, {"type": "Feature", "properties": {"cell_id": "88283082e9fffff"}, "geometry": {"type": "Point", "coordinates": [-122.396166, 37.75599]}}, {"type": "Feature", "properties": {"cell_id": "88283082ebfffff"}, "geometry": {"type": "Point", "coordinates": [-122.403534, 37.761832]}}, {"type": "Feature", "properties": {"cell_id": "88283082edfffff"}, "geometry": {"type": "Point", "coordinates": [-122.38577, 37.758382]}}, {"type": "Feature", "properties": {"cell_id": "8828308627fffff"}, "geometry": {"type": "Point", "coordinates": [-122.51579, 37.81883]}}, {"type": "Feature", "properties": {"cell_id": "8828308665fffff"}, "geometry": {"type": "Point", "coordinates": [-122.50708, 37.790702]}}, {"type": "Feature", "properties": {"cell_id": "882830866dfffff"}, "geometry": {"type": "Point", "coordinates": [-122.510097, 37.782467]}}, {"type": "Feature", "properties": {"cell_id": "8828308709fffff"}, "geometry": {"type": "Point", "coordinates": [-122.472888, 37.806139]}}, {"type": "Feature", "properties": {"cell_id": "882830870bfffff"}, "geometry": {"type": "Point", "coordinates": [-122.480261, 37.811972]}}, {"type": "Feature", "properties": {"cell_id": "882830871dfffff"}, "geometry": {"type": "Point", "coordinates": [-122.487633, 37.817804]}}, {"type": "Feature", "properties": {"cell_id": "8828308741fffff"}, "geometry": {"type": "Point", "coordinates": [-122.468538, 37.792071]}}, {"type": "Feature", "properties": {"cell_id": "8828308743fffff"}, "geometry": {"type": "Point", "coordinates": [-122.475909, 37.797905]}}, {"type": "Feature", "properties": {"cell_id": "8828308745fffff"}, "geometry": {"type": "Point", "coordinates": [-122.458145, 37.79447]}}, {"type": "Feature", "properties": {"cell_id": "8828308747fffff"}, "geometry": {"type": "Point", "coordinates": [-122.465517, 37.800305]}}, {"type": "Feature", "properties": {"cell_id": "8828308749fffff"}, "geometry": {"type": "Point", "coordinates": [-122.471559, 37.783837]}}, {"type": "Feature", "properties": {"cell_id": "882830874bfffff"}, "geometry": {"type": "Point", "coordinates": [-122.47893, 37.789671]}}, {"type": "Feature", "properties": {"cell_id": "882830874dfffff"}, "geometry": {"type": "Point", "coordinates": [-122.461167, 37.786236]}}, {"type": "Feature", "properties": {"cell_id": "8828308755fffff"}, "geometry": {"type": "Point", "coordinates": [-122.483281, 37.803739]}}, {"type": "Feature", "properties": {"cell_id": "882830875dfffff"}, "geometry": {"type": "Point", "coordinates": [-122.486301, 37.795505]}}, {"type": "Feature", "properties": {"cell_id": "8828308761fffff"}, "geometry": {"type": "Point", "coordinates": [-122.444728, 37.805102]}}, {"type": "Feature", "properties": {"cell_id": "8828308765fffff"}, "geometry": {"type": "Point", "coordinates": [-122.434332, 37.807499]}}, {"type": "Feature", "properties": {"cell_id": "8828308769fffff"}, "geometry": {"type": "Point", "coordinates": [-122.447752, 37.796868]}}, {"type": "Feature", "properties": {"cell_id": "882830876bfffff"}, "geometry": {"type": "Point", "coordinates": [-122.455123, 37.802704]}}, {"type": "Feature", "properties": {"cell_id": "882830876dfffff"}, "geometry": {"type": "Point", "coordinates": [-122.437357, 37.799266]}}, {"type": "Feature", "properties": {"cell_id": "88283090b3fffff"}, "geometry": {"type": "Point", "coordinates": [-122.396566, 37.70311]}}, {"type": "Feature", "properties": {"cell_id": "8828309405fffff"}, "geometry": {"type": "Point", "coordinates": [-122.501739, 37.701467]}}, {"type": "Feature", "properties": {"cell_id": "8828309421fffff"}, "geometry": {"type": "Point", "coordinates": [-122.488341, 37.712106]}}, {"type": "Feature", "properties": {"cell_id": "8828309423fffff"}, "geometry": {"type": "Point", "coordinates": [-122.495707, 37.717944]}}, {"type": "Feature", "properties": {"cell_id": "8828309425fffff"}, "geometry": {"type": "Point", "coordinates": [-122.477958, 37.714505]}}, {"type": "Feature", "properties": {"cell_id": "8828309427fffff"}, "geometry": {"type": "Point", "coordinates": [-122.485324, 37.720344]}}, {"type": "Feature", "properties": {"cell_id": "8828309429fffff"}, "geometry": {"type": "Point", "coordinates": [-122.491358, 37.703867]}}, {"type": "Feature", "properties": {"cell_id": "882830942bfffff"}, "geometry": {"type": "Point", "coordinates": [-122.498723, 37.709706]}}, {"type": "Feature", "properties": {"cell_id": "882830942dfffff"}, "geometry": {"type": "Point", "coordinates": [-122.480976, 37.706267]}}, {"type": "Feature", "properties": {"cell_id": "8828309435fffff"}, "geometry": {"type": "Point", "coordinates": [-122.503073, 37.723782]}}, {"type": "Feature", "properties": {"cell_id": "882830943dfffff"}, "geometry": {"type": "Point", "coordinates": [-122.506089, 37.715543]}}, {"type": "Feature", "properties": {"cell_id": "8828309501fffff"}, "geometry": {"type": "Point", "coordinates": [-122.439437, 37.715857]}}, {"type": "Feature", "properties": {"cell_id": "8828309503fffff"}, "geometry": {"type": "Point", "coordinates": [-122.446803, 37.721699]}}, {"type": "Feature", "properties": {"cell_id": "8828309505fffff"}, "geometry": {"type": "Point", "coordinates": [-122.429049, 37.718252]}}, {"type": "Feature", "properties": {"cell_id": "8828309507fffff"}, "geometry": {"type": "Point", "coordinates": [-122.436415, 37.724095]}}, {"type": "Feature", "properties": {"cell_id": "8828309509fffff"}, "geometry": {"type": "Point", "coordinates": [-122.442459, 37.707618]}}, {"type": "Feature", "properties": {"cell_id": "882830950bfffff"}, "geometry": {"type": "Point", "coordinates": [-122.449824, 37.71346]}}, {"type": "Feature", "properties": {"cell_id": "882830950dfffff"}, "geometry": {"type": "Point", "coordinates": [-122.432072, 37.710013]}}, {"type": "Feature", "properties": {"cell_id": "8828309511fffff"}, "geometry": {"type": "Point", "coordinates": [-122.464555, 37.725142]}}, {"type": "Feature", "properties": {"cell_id": "8828309513fffff"}, "geometry": {"type": "Point", "coordinates": [-122.471921, 37.730981]}}, {"type": "Feature", "properties": {"cell_id": "8828309515fffff"}, "geometry": {"type": "Point", "coordinates": [-122.454169, 37.72754]}}, {"type": "Feature", "properties": {"cell_id": "8828309517fffff"}, "geometry": {"type": "Point", "coordinates": [-122.461535, 37.73338]}}, {"type": "Feature", "properties": {"cell_id": "8828309519fffff"}, "geometry": {"type": "Point", "coordinates": [-122.467574, 37.716904]}}, {"type": "Feature", "properties": {"cell_id": "882830951bfffff"}, "geometry": {"type": "Point", "coordinates": [-122.47494, 37.722744]}}, {"type": "Feature", "properties": {"cell_id": "882830951dfffff"}, "geometry": {"type": "Point", "coordinates": [-122.457189, 37.719302]}}, {"type": "Feature", "properties": {"cell_id": "8828309521fffff"}, "geometry": {"type": "Point", "coordinates": [-122.415636, 37.728885]}}, {"type": "Feature", "properties": {"cell_id": "8828309523fffff"}, "geometry": {"type": "Point", "coordinates": [-122.423002, 37.734728]}}, {"type": "Feature", "properties": {"cell_id": "8828309525fffff"}, "geometry": {"type": "Point", "coordinates": [-122.405245, 37.731279]}}, {"type": "Feature", "properties": {"cell_id": "8828309527fffff"}, "geometry": {"type": "Point", "coordinates": [-122.412611, 37.737122]}}, {"type": "Feature", "properties": {"cell_id": "8828309529fffff"}, "geometry": {"type": "Point", "coordinates": [-122.418661, 37.720647]}}, {"type": "Feature", "properties": {"cell_id": "882830952bfffff"}, "geometry": {"type": "Point", "coordinates": [-122.426026, 37.72649]}}, {"type": "Feature", "properties": {"cell_id": "882830952dfffff"}, "geometry": {"type": "Point", "coordinates": [-122.40827, 37.723041]}}, {"type": "Feature", "properties": {"cell_id": "8828309531fffff"}, "geometry": {"type": "Point", "coordinates": [-122.440759, 37.738174]}}, {"type": "Feature", "properties": {"cell_id": "8828309533fffff"}, "geometry": {"type": "Point", "coordinates": [-122.448126, 37.744014]}}, {"type": "Feature", "properties": {"cell_id": "8828309535fffff"}, "geometry": {"type": "Point", "coordinates": [-122.430369, 37.74057]}}, {"type": "Feature", "properties": {"cell_id": "8828309537fffff"}, "geometry": {"type": "Point", "coordinates": [-122.437736, 37.746411]}}, {"type": "Feature", "properties": {"cell_id": "8828309539fffff"}, "geometry": {"type": "Point", "coordinates": [-122.443781, 37.729937]}}, {"type": "Feature", "properties": {"cell_id": "882830953bfffff"}, "geometry": {"type": "Point", "coordinates": [-122.451148, 37.735777]}}, {"type": "Feature", "properties": {"cell_id": "882830953dfffff"}, "geometry": {"type": "Point", "coordinates": [-122.433392, 37.732333]}}, {"type": "Feature", "properties": {"cell_id": "8828309547fffff"}, "geometry": {"type": "Point", "coordinates": [-122.435094, 37.701774]}}, {"type": "Feature", "properties": {"cell_id": "8828309551fffff"}, "geometry": {"type": "Point", "coordinates": [-122.463228, 37.702824]}}, {"type": "Feature", "properties": {"cell_id": "8828309553fffff"}, "geometry": {"type": "Point", "coordinates": [-122.470593, 37.708665]}}, {"type": "Feature", "properties": {"cell_id": "8828309555fffff"}, "geometry": {"type": "Point", "coordinates": [-122.452844, 37.705221]}}, {"type": "Feature", "properties": {"cell_id": "8828309557fffff"}, "geometry": {"type": "Point", "coordinates": [-122.460209, 37.711063]}}, {"type": "Feature", "properties": {"cell_id": "882830955bfffff"}, "geometry": {"type": "Point", "coordinates": [-122.473611, 37.700426]}}, {"type": "Feature", "properties": {"cell_id": "8828309561fffff"}, "geometry": {"type": "Point", "coordinates": [-122.41432, 37.706564]}}, {"type": "Feature", "properties": {"cell_id": "8828309563fffff"}, "geometry": {"type": "Point", "coordinates": [-122.421684, 37.712408]}}, {"type": "Feature", "properties": {"cell_id": "8828309565fffff"}, "geometry": {"type": "Point", "coordinates": [-122.403931, 37.708957]}}, {"type": "Feature", "properties": {"cell_id": "8828309567fffff"}, "geometry": {"type": "Point", "coordinates": [-122.411295, 37.714802]}}, {"type": "Feature", "properties": {"cell_id": "882830956bfffff"}, "geometry": {"type": "Point", "coordinates": [-122.424708, 37.704169]}}, {"type": "Feature", "properties": {"cell_id": "882830956dfffff"}, "geometry": {"type": "Point", "coordinates": [-122.406955, 37.700718]}}, {"type": "Feature", "properties": {"cell_id": "8828309581fffff"}, "geometry": {"type": "Point", "coordinates": [-122.491006, 37.75673]}}, {"type": "Feature", "properties": {"cell_id": "8828309583fffff"}, "geometry": {"type": "Point", "coordinates": [-122.498375, 37.762565]}}, {"type": "Feature", "properties": {"cell_id": "8828309585fffff"}, "geometry": {"type": "Point", "coordinates": [-122.480619, 37.75913]}}, {"type": "Feature", "properties": {"cell_id": "8828309587fffff"}, "geometry": {"type": "Point", "coordinates": [-122.487988, 37.764966]}}, {"type": "Feature", "properties": {"cell_id": "8828309589fffff"}, "geometry": {"type": "Point", "coordinates": [-122.494023, 37.748494]}}, {"type": "Feature", "properties": {"cell_id": "882830958bfffff"}, "geometry": {"type": "Point", "coordinates": [-122.501392, 37.754329]}}, {"type": "Feature", "properties": {"cell_id": "882830958dfffff"}, "geometry": {"type": "Point", "coordinates": [-122.483637, 37.750894]}}, {"type": "Feature", "properties": {"cell_id": "8828309591fffff"}, "geometry": {"type": "Point", "coordinates": [-122.51613, 37.765997]}}, {"type": "Feature", "properties": {"cell_id": "8828309595fffff"}, "geometry": {"type": "Point", "coordinates": [-122.505744, 37.768399]}}, {"type": "Feature", "properties": {"cell_id": "8828309597fffff"}, "geometry": {"type": "Point", "coordinates": [-122.513114, 37.774232]}}, {"type": "Feature", "properties": {"cell_id": "882830959dfffff"}, "geometry": {"type": "Point", "coordinates": [-122.50876, 37.760163]}}, {"type": "Feature", "properties": {"cell_id": "88283095a1fffff"}, "geometry": {"type": "Point", "coordinates": [-122.46721, 37.769765]}}, {"type": "Feature", "properties": {"cell_id": "88283095a3fffff"}, "geometry": {"type": "Point", "coordinates": [-122.474579, 37.775602]}}, {"type": "Feature", "properties": {"cell_id": "88283095a5fffff"}, "geometry": {"type": "Point", "coordinates": [-122.456819, 37.772164]}}, {"type": "Feature", "properties": {"cell_id": "88283095a7fffff"}, "geometry": {"type": "Point", "coordinates": [-122.464189, 37.778001]}}, {"type": "Feature", "properties": {"cell_id": "88283095a9fffff"}, "geometry": {"type": "Point", "coordinates": [-122.47023, 37.76153]}}, {"type": "Feature", "properties": {"cell_id": "88283095abfffff"}, "geometry": {"type": "Point", "coordinates": [-122.477599, 37.767366]}}, {"type": "Feature", "properties": {"cell_id": "88283095adfffff"}, "geometry": {"type": "Point", "coordinates": [-122.459841, 37.763928]}}, {"type": "Feature", "properties": {"cell_id": "88283095b1fffff"}, "geometry": {"type": "Point", "coordinates": [-122.492339, 37.779036]}}, {"type": "Feature", "properties": {"cell_id": "88283095b3fffff"}, "geometry": {"type": "Point", "coordinates": [-122.499709, 37.784869]}}, {"type": "Feature", "properties": {"cell_id": "88283095b5fffff"}, "geometry": {"type": "Point", "coordinates": [-122.48195, 37.781437]}}, {"type": "Feature", "properties": {"cell_id": "88283095b7fffff"}, "geometry": {"type": "Point", "coordinates": [-122.48932, 37.787271]}}, {"type": "Feature", "properties": {"cell_id": "88283095b9fffff"}, "geometry": {"type": "Point", "coordinates": [-122.495357, 37.770801]}}, {"type": "Feature", "properties": {"cell_id": "88283095bbfffff"}, "geometry": {"type": "Point", "coordinates": [-122.502727, 37.776634]}}, {"type": "Feature", "properties": {"cell_id": "88283095bdfffff"}, "geometry": {"type": "Point", "coordinates": [-122.484969, 37.773202]}}, {"type": "Feature", "properties": {"cell_id": "88283095c1fffff"}, "geometry": {"type": "Point", "coordinates": [-122.489673, 37.73442]}}, {"type": "Feature", "properties": {"cell_id": "88283095c3fffff"}, "geometry": {"type": "Point", "coordinates": [-122.497041, 37.740257]}}, {"type": "Feature", "properties": {"cell_id": "88283095c5fffff"}, "geometry": {"type": "Point", "coordinates": [-122.479288, 37.73682]}}, {"type": "Feature", "properties": {"cell_id": "88283095c7fffff"}, "geometry": {"type": "Point", "coordinates": [-122.486656, 37.742657]}}, {"type": "Feature", "properties": {"cell_id": "88283095c9fffff"}, "geometry": {"type": "Point", "coordinates": [-122.49269, 37.726182]}}, {"type": "Feature", "properties": {"cell_id": "88283095cbfffff"}, "geometry": {"type": "Point", "coordinates": [-122.500057, 37.732019]}}, {"type": "Feature", "properties": {"cell_id": "88283095cdfffff"}, "geometry": {"type": "Point", "coordinates": [-122.482307, 37.728582]}}, {"type": "Feature", "properties": {"cell_id": "88283095d5fffff"}, "geometry": {"type": "Point", "coordinates": [-122.504408, 37.746092]}}, {"type": "Feature", "properties": {"cell_id": "88283095d7fffff"}, "geometry": {"type": "Point", "coordinates": [-122.511776, 37.751927]}}, {"type": "Feature", "properties": {"cell_id": "88283095ddfffff"}, "geometry": {"type": "Point", "coordinates": [-122.507424, 37.737855]}}, {"type": "Feature", "properties": {"cell_id": "88283095e1fffff"}, "geometry": {"type": "Point", "coordinates": [-122.465882, 37.747456]}}, {"type": "Feature", "properties": {"cell_id": "88283095e3fffff"}, "geometry": {"type": "Point", "coordinates": [-122.47325, 37.753294]}}, {"type": "Feature", "properties": {"cell_id": "88283095e5fffff"}, "geometry": {"type": "Point", "coordinates": [-122.455494, 37.749854]}}, {"type": "Feature", "properties": {"cell_id": "88283095e7fffff"}, "geometry": {"type": "Point", "coordinates": [-122.462862, 37.755692]}}, {"type": "Feature", "properties": {"cell_id": "88283095e9fffff"}, "geometry": {"type": "Point", "coordinates": [-122.468902, 37.739219]}}, {"type": "Feature", "properties": {"cell_id": "88283095ebfffff"}, "geometry": {"type": "Point", "coordinates": [-122.476269, 37.745057]}}, {"type": "Feature", "properties": {"cell_id": "88283095edfffff"}, "geometry": {"type": "Point", "coordinates": [-122.458515, 37.741617]}}], "_version": 4}